{
  "type": "FeatureCollection",
  "name": "Mi Croquis Mental de Morelia - edgar tajeta v1",
  "crs": {
    "type": "name",
    "properties": {
      "name": "urn:ogc:def:crs:OGC:1.3:CRS84"
    }
  },
  "properties": {
    "participante": "edgar tajeta v1",
    "fecha": "2026-09-21",
    "dia_semana": "Lunes",
    "hora": "13:26:18",
    "fecha_hora": "2026-09-21T13:26:18.839290",
    "timestamp": 1790018778,
    "puntaje_global": 23,
    "dificultad": "normal",
    "total_capas_trazadas": 8,
    "clientId": "b66675ee-7a42-4cff-98de-4b57aba579c2",
    "perLineScores": {
      "calzada-ventura-puente": 3,
      "av-morelos": 10,
      "calzada-la-huerta": 12,
      "rio-chiquito": 21,
      "avenida-madero": 86,
      "rio-grande": 32,
      "el-libramiento": 21,
      "acueducto-de-morelia": 2
    },
    "metadatos": {
      "difficulty": "normal",
      "playerName": "edgar tajeta v1"
    }
  },
  "features": [
    {
      "type": "Feature",
      "properties": {
        "id": "calzada-ventura-puente",
        "nombre": "Calzada Ventura Puente",
        "color": "#ea580c",
        "puntaje": 3,
        "longitud_metros": 9198.6,
        "participante": "edgar tajeta v1",
        "fecha": "2026-09-21",
        "dia_semana": "Lunes",
        "hora": "13:26:18",
        "dificultad": "normal",
        "clientId": "b66675ee-7a42-4cff-98de-4b57aba579c2"
      },
      "geometry": {
        "type": "LineString",
        "coordinates": [
          [
            -101.221934,
            19.689545
          ],
          [
            -101.221032,
            19.689545
          ],
          [
            -101.218818,
            19.6897
          ],
          [
            -101.213077,
            19.690317
          ],
          [
            -101.201842,
            19.691476
          ],
          [
            -101.184538,
            19.691476
          ],
          [
            -101.15846,
            19.691476
          ],
          [
            -101.146487,
            19.691476
          ],
          [
            -101.139024,
            19.692171
          ],
          [
            -101.135908,
            19.692479
          ],
          [
            -101.134596,
            19.692711
          ],
          [
            -101.134268,
            19.692788
          ]
        ]
      }
    },
    {
      "type": "Feature",
      "properties": {
        "id": "av-morelos",
        "nombre": "Av Morelos",
        "color": "#e91e63",
        "puntaje": 10,
        "longitud_metros": 7254.1,
        "participante": "edgar tajeta v1",
        "fecha": "2026-09-21",
        "dia_semana": "Lunes",
        "hora": "13:26:18",
        "dificultad": "normal",
        "clientId": "b66675ee-7a42-4cff-98de-4b57aba579c2"
      },
      "geometry": {
        "type": "LineString",
        "coordinates": [
          [
            -101.236515,
            19.689927
          ],
          [
            -101.23192,
            19.692222
          ],
          [
            -101.22695,
            19.694783
          ],
          [
            -101.220948,
            19.698138
          ],
          [
            -101.212882,
            19.701317
          ],
          [
            -101.203692,
            19.70423
          ],
          [
            -101.195439,
            19.705554
          ],
          [
            -101.187374,
            19.706437
          ],
          [
            -101.182029,
            19.707144
          ],
          [
            -101.178371,
            19.707673
          ],
          [
            -101.176214,
            19.708027
          ],
          [
            -101.174526,
            19.708291
          ],
          [
            -101.172838,
            19.708556
          ],
          [
            -101.171056,
            19.708821
          ]
        ]
      }
    },
    {
      "type": "Feature",
      "properties": {
        "id": "calzada-la-huerta",
        "nombre": "Calzada la Huerta",
        "color": "#2e7d32",
        "puntaje": 12,
        "longitud_metros": 5436.9,
        "participante": "edgar tajeta v1",
        "fecha": "2026-09-21",
        "dia_semana": "Lunes",
        "hora": "13:26:18",
        "dificultad": "normal",
        "clientId": "b66675ee-7a42-4cff-98de-4b57aba579c2"
      },
      "geometry": {
        "type": "LineString",
        "coordinates": [
          [
            -101.246941,
            19.684599
          ],
          [
            -101.246039,
            19.684985
          ],
          [
            -101.241364,
            19.685834
          ],
          [
            -101.230868,
            19.687456
          ],
          [
            -101.21914,
            19.688691
          ],
          [
            -101.2093,
            19.689309
          ],
          [
            -101.203067,
            19.690004
          ],
          [
            -101.199295,
            19.690621
          ],
          [
            -101.197573,
            19.69093
          ],
          [
            -101.196917,
            19.691084
          ],
          [
            -101.196343,
            19.691239
          ],
          [
            -101.196015,
            19.691316
          ],
          [
            -101.195604,
            19.691316
          ]
        ]
      }
    },
    {
      "type": "Feature",
      "properties": {
        "id": "rio-chiquito",
        "nombre": "Río Chiquito",
        "color": "#00acc1",
        "puntaje": 21,
        "longitud_metros": 10058.9,
        "participante": "edgar tajeta v1",
        "fecha": "2026-09-21",
        "dia_semana": "Lunes",
        "hora": "13:26:18",
        "dificultad": "normal",
        "clientId": "b66675ee-7a42-4cff-98de-4b57aba579c2"
      },
      "geometry": {
        "type": "LineString",
        "coordinates": [
          [
            -101.216584,
            19.688471
          ],
          [
            -101.214222,
            19.688577
          ],
          [
            -101.206235,
            19.688471
          ],
          [
            -101.194423,
            19.688471
          ],
          [
            -101.1798,
            19.688471
          ],
          [
            -101.163939,
            19.688047
          ],
          [
            -101.148077,
            19.687836
          ],
          [
            -101.127042,
            19.687836
          ],
          [
            -101.121642,
            19.687836
          ],
          [
            -101.120517,
            19.687836
          ]
        ]
      }
    },
    {
      "type": "Feature",
      "properties": {
        "id": "avenida-madero",
        "nombre": "Avenida Madero",
        "color": "#f48fb1",
        "puntaje": 86,
        "longitud_metros": 14415.2,
        "participante": "edgar tajeta v1",
        "fecha": "2026-09-21",
        "dia_semana": "Lunes",
        "hora": "13:26:18",
        "dificultad": "normal",
        "clientId": "b66675ee-7a42-4cff-98de-4b57aba579c2"
      },
      "geometry": {
        "type": "LineString",
        "coordinates": [
          [
            -101.2839,
            19.700596
          ],
          [
            -101.282118,
            19.700596
          ],
          [
            -101.255394,
            19.705323
          ],
          [
            -101.221219,
            19.711727
          ],
          [
            -101.197085,
            19.71432
          ],
          [
            -101.178297,
            19.714624
          ],
          [
            -101.163396,
            19.714624
          ],
          [
            -101.154488,
            19.714624
          ],
          [
            -101.150601,
            19.714624
          ],
          [
            -101.149143,
            19.714624
          ],
          [
            -101.148171,
            19.714472
          ],
          [
            -101.147523,
            19.71432
          ]
        ]
      }
    },
    {
      "type": "Feature",
      "properties": {
        "id": "rio-grande",
        "nombre": "Río Grande",
        "color": "#1976d2",
        "puntaje": 32,
        "longitud_metros": 24219.5,
        "participante": "edgar tajeta v1",
        "fecha": "2026-09-21",
        "dia_semana": "Lunes",
        "hora": "13:26:18",
        "dificultad": "normal",
        "clientId": "b66675ee-7a42-4cff-98de-4b57aba579c2"
      },
      "geometry": {
        "type": "LineString",
        "coordinates": [
          [
            -101.297837,
            19.664927
          ],
          [
            -101.277929,
            19.670395
          ],
          [
            -101.238665,
            19.684194
          ],
          [
            -101.188065,
            19.69695
          ],
          [
            -101.136912,
            19.709185
          ],
          [
            -101.095713,
            19.714131
          ],
          [
            -101.078846,
            19.718035
          ],
          [
            -101.074422,
            19.719337
          ]
        ]
      }
    },
    {
      "type": "Feature",
      "properties": {
        "id": "el-libramiento",
        "nombre": "El Libramiento",
        "color": "#7c3aed",
        "puntaje": 21,
        "longitud_metros": 14590.8,
        "participante": "edgar tajeta v1",
        "fecha": "2026-09-21",
        "dia_semana": "Lunes",
        "hora": "13:26:18",
        "dificultad": "normal",
        "clientId": "b66675ee-7a42-4cff-98de-4b57aba579c2"
      },
      "geometry": {
        "type": "LineString",
        "coordinates": [
          [
            -101.252141,
            19.697501
          ],
          [
            -101.249734,
            19.697501
          ],
          [
            -101.236897,
            19.698634
          ],
          [
            -101.214166,
            19.701656
          ],
          [
            -101.183812,
            19.702159
          ],
          [
            -101.153459,
            19.702159
          ],
          [
            -101.132198,
            19.702159
          ],
          [
            -101.119896,
            19.702159
          ],
          [
            -101.114949,
            19.702411
          ],
          [
            -101.113077,
            19.702663
          ]
        ]
      }
    },
    {
      "type": "Feature",
      "properties": {
        "id": "acueducto-de-morelia",
        "nombre": "Acueducto de Morelia",
        "color": "#fbc02d",
        "puntaje": 2,
        "longitud_metros": 9333.3,
        "participante": "edgar tajeta v1",
        "fecha": "2026-09-21",
        "dia_semana": "Lunes",
        "hora": "13:26:18",
        "dificultad": "normal",
        "clientId": "b66675ee-7a42-4cff-98de-4b57aba579c2"
      },
      "geometry": {
        "type": "LineString",
        "coordinates": [
          [
            -101.220715,
            19.690975
          ],
          [
            -101.219649,
            19.690975
          ],
          [
            -101.2144,
            19.691978
          ],
          [
            -101.205378,
            19.69414
          ],
          [
            -101.191682,
            19.697229
          ],
          [
            -101.176674,
            19.701012
          ],
          [
            -101.162158,
            19.70441
          ],
          [
            -101.149036,
            19.706263
          ],
          [
            -101.140425,
            19.707344
          ],
          [
            -101.136406,
            19.707344
          ],
          [
            -101.13452,
            19.707344
          ],
          [
            -101.133864,
            19.707344
          ],
          [
            -101.133535,
            19.707344
          ]
        ]
      }
    }
  ]
}