{
  "type": "FeatureCollection",
  "name": "Mi Croquis Mental de Morelia - eDFAR",
  "crs": {
    "type": "name",
    "properties": {
      "name": "urn:ogc:def:crs:OGC:1.3:CRS84"
    }
  },
  "properties": {
    "participante": "eDFAR",
    "fecha": "2026-09-22",
    "dia_semana": "Martes",
    "hora": "11:43:44",
    "fecha_hora": "2026-09-22T11:43:44.564196",
    "timestamp": 1790099024,
    "puntaje_global": 95,
    "dificultad": "facil",
    "total_capas_trazadas": 8,
    "clientId": "b66675ee-7a42-4cff-98de-4b57aba579c2",
    "perLineScores": {
      "calzada-la-huerta": 89,
      "calzada-ventura-puente": 100,
      "acueducto-de-morelia": 100,
      "rio-chiquito": 90,
      "el-libramiento": 96,
      "avenida-madero": 91,
      "av-morelos": 100,
      "rio-grande": 95
    },
    "metadatos": {
      "difficulty": "facil",
      "playerName": "eDFAR"
    }
  },
  "features": [
    {
      "type": "Feature",
      "properties": {
        "id": "calzada-la-huerta",
        "nombre": "Calzada la Huerta",
        "color": "#2e7d32",
        "puntaje": 89,
        "longitud_metros": 3161.1,
        "participante": "eDFAR",
        "fecha": "2026-09-22",
        "dia_semana": "Martes",
        "hora": "11:43:44",
        "dificultad": "facil",
        "clientId": "b66675ee-7a42-4cff-98de-4b57aba579c2"
      },
      "geometry": {
        "type": "LineString",
        "coordinates": [
          [
            -101.206948,
            19.701271
          ],
          [
            -101.207409,
            19.700837
          ],
          [
            -101.207639,
            19.700512
          ],
          [
            -101.2081,
            19.700078
          ],
          [
            -101.208331,
            19.699752
          ],
          [
            -101.208676,
            19.699319
          ],
          [
            -101.209022,
            19.699102
          ],
          [
            -101.209252,
            19.698451
          ],
          [
            -101.209713,
            19.698234
          ],
          [
            -101.210174,
            19.697692
          ],
          [
            -101.21075,
            19.697149
          ],
          [
            -101.211326,
            19.69639
          ],
          [
            -101.211787,
            19.695739
          ],
          [
            -101.212248,
            19.695305
          ],
          [
            -101.212594,
            19.694871
          ],
          [
            -101.213285,
            19.69422
          ],
          [
            -101.21363,
            19.693786
          ],
          [
            -101.213861,
            19.693353
          ],
          [
            -101.214437,
            19.692919
          ],
          [
            -101.215243,
            19.691834
          ],
          [
            -101.215935,
            19.690966
          ],
          [
            -101.216511,
            19.690424
          ],
          [
            -101.217087,
            19.689664
          ],
          [
            -101.217663,
            19.689122
          ],
          [
            -101.2187,
            19.687929
          ],
          [
            -101.219276,
            19.686735
          ],
          [
            -101.220198,
            19.685325
          ],
          [
            -101.221235,
            19.683806
          ],
          [
            -101.222156,
            19.682505
          ],
          [
            -101.223193,
            19.681311
          ],
          [
            -101.223884,
            19.680335
          ],
          [
            -101.224345,
            19.679793
          ],
          [
            -101.224691,
            19.67925
          ],
          [
            -101.225037,
            19.678816
          ]
        ]
      }
    },
    {
      "type": "Feature",
      "properties": {
        "id": "calzada-ventura-puente",
        "nombre": "Calzada Ventura Puente",
        "color": "#ea580c",
        "puntaje": 100,
        "longitud_metros": 2194.3,
        "participante": "eDFAR",
        "fecha": "2026-09-22",
        "dia_semana": "Martes",
        "hora": "11:43:44",
        "dificultad": "facil",
        "clientId": "b66675ee-7a42-4cff-98de-4b57aba579c2"
      },
      "geometry": {
        "type": "LineString",
        "coordinates": [
          [
            -101.177404,
            19.699505
          ],
          [
            -101.177486,
            19.699274
          ],
          [
            -101.17765,
            19.698965
          ],
          [
            -101.17765,
            19.698425
          ],
          [
            -101.177732,
            19.697884
          ],
          [
            -101.177732,
            19.697189
          ],
          [
            -101.177732,
            19.696572
          ],
          [
            -101.177814,
            19.695954
          ],
          [
            -101.177896,
            19.695336
          ],
          [
            -101.17806,
            19.694641
          ],
          [
            -101.178142,
            19.693869
          ],
          [
            -101.178388,
            19.692943
          ],
          [
            -101.17847,
            19.691862
          ],
          [
            -101.178552,
            19.691398
          ],
          [
            -101.178716,
            19.690858
          ],
          [
            -101.178798,
            19.690086
          ],
          [
            -101.17888,
            19.689468
          ],
          [
            -101.17888,
            19.68885
          ],
          [
            -101.179044,
            19.688464
          ],
          [
            -101.179126,
            19.687692
          ],
          [
            -101.179208,
            19.687075
          ],
          [
            -101.179208,
            19.686611
          ],
          [
            -101.179372,
            19.686302
          ],
          [
            -101.179454,
            19.685762
          ],
          [
            -101.179454,
            19.684913
          ],
          [
            -101.179454,
            19.68414
          ],
          [
            -101.179536,
            19.683677
          ],
          [
            -101.179536,
            19.683368
          ],
          [
            -101.179536,
            19.683059
          ],
          [
            -101.179782,
            19.682828
          ],
          [
            -101.179864,
            19.682442
          ],
          [
            -101.180028,
            19.68221
          ],
          [
            -101.180192,
            19.681824
          ],
          [
            -101.180274,
            19.681515
          ],
          [
            -101.180438,
            19.681129
          ],
          [
            -101.180438,
            19.68082
          ],
          [
            -101.180602,
            19.680511
          ],
          [
            -101.180684,
            19.68028
          ]
        ]
      }
    },
    {
      "type": "Feature",
      "properties": {
        "id": "acueducto-de-morelia",
        "nombre": "Acueducto de Morelia",
        "color": "#fbc02d",
        "puntaje": 100,
        "longitud_metros": 2077.6,
        "participante": "eDFAR",
        "fecha": "2026-09-22",
        "dia_semana": "Martes",
        "hora": "11:43:44",
        "dificultad": "facil",
        "clientId": "b66675ee-7a42-4cff-98de-4b57aba579c2"
      },
      "geometry": {
        "type": "LineString",
        "coordinates": [
          [
            -101.184281,
            19.704419
          ],
          [
            -101.184219,
            19.704419
          ],
          [
            -101.184117,
            19.704419
          ],
          [
            -101.183973,
            19.704323
          ],
          [
            -101.183809,
            19.704246
          ],
          [
            -101.183707,
            19.704226
          ],
          [
            -101.183645,
            19.704168
          ],
          [
            -101.183584,
            19.70413
          ],
          [
            -101.183522,
            19.703975
          ],
          [
            -101.183502,
            19.703917
          ],
          [
            -101.183461,
            19.703821
          ],
          [
            -101.18344,
            19.703763
          ],
          [
            -101.18344,
            19.703686
          ],
          [
            -101.18344,
            19.703628
          ],
          [
            -101.18344,
            19.703531
          ],
          [
            -101.183399,
            19.703454
          ],
          [
            -101.183379,
            19.703377
          ],
          [
            -101.183358,
            19.7033
          ],
          [
            -101.183358,
            19.703203
          ],
          [
            -101.183358,
            19.703126
          ],
          [
            -101.183317,
            19.70303
          ],
          [
            -101.183317,
            19.702972
          ],
          [
            -101.183297,
            19.702894
          ],
          [
            -101.183276,
            19.702837
          ],
          [
            -101.183235,
            19.702779
          ],
          [
            -101.183174,
            19.702701
          ],
          [
            -101.183153,
            19.702643
          ],
          [
            -101.183071,
            19.702547
          ],
          [
            -101.182969,
            19.702412
          ],
          [
            -101.182846,
            19.702296
          ],
          [
            -101.182723,
            19.702219
          ],
          [
            -101.182579,
            19.702142
          ],
          [
            -101.182476,
            19.702103
          ],
          [
            -101.182394,
            19.702064
          ],
          [
            -101.182292,
            19.702026
          ],
          [
            -101.182148,
            19.701987
          ],
          [
            -101.182005,
            19.701949
          ],
          [
            -101.181902,
            19.701949
          ],
          [
            -101.1818,
            19.70191
          ],
          [
            -101.181738,
            19.701891
          ],
          [
            -101.181656,
            19.701871
          ],
          [
            -101.181492,
            19.701833
          ],
          [
            -101.181328,
            19.701775
          ],
          [
            -101.181267,
            19.701756
          ],
          [
            -101.181205,
            19.701717
          ],
          [
            -101.181144,
            19.701698
          ],
          [
            -101.181082,
            19.701678
          ],
          [
            -101.180959,
            19.70164
          ],
          [
            -101.180898,
            19.70162
          ],
          [
            -101.180836,
            19.701582
          ],
          [
            -101.180713,
            19.701505
          ],
          [
            -101.18057,
            19.701427
          ],
          [
            -101.180508,
            19.701408
          ],
          [
            -101.180406,
            19.701331
          ],
          [
            -101.180344,
            19.701292
          ],
          [
            -101.180242,
            19.701254
          ],
          [
            -101.18018,
            19.701215
          ],
          [
            -101.180119,
            19.701196
          ],
          [
            -101.180037,
            19.701119
          ],
          [
            -101.179955,
            19.70108
          ],
          [
            -101.179852,
            19.701003
          ],
          [
            -101.17977,
            19.700945
          ],
          [
            -101.179688,
            19.700887
          ],
          [
            -101.179586,
            19.70079
          ],
          [
            -101.179524,
            19.700752
          ],
          [
            -101.179483,
            19.700694
          ],
          [
            -101.179422,
            19.700675
          ],
          [
            -101.17936,
            19.700617
          ],
          [
            -101.179278,
            19.700539
          ],
          [
            -101.179175,
            19.700482
          ],
          [
            -101.179093,
            19.700443
          ],
          [
            -101.179011,
            19.700366
          ],
          [
            -101.178888,
            19.700269
          ],
          [
            -101.178827,
            19.70025
          ],
          [
            -101.178745,
            19.700192
          ],
          [
            -101.178663,
            19.700115
          ],
          [
            -101.178601,
            19.700057
          ],
          [
            -101.178519,
            19.699999
          ],
          [
            -101.178396,
            19.699941
          ],
          [
            -101.178335,
            19.699883
          ],
          [
            -101.178253,
            19.699845
          ],
          [
            -101.178171,
            19.699787
          ],
          [
            -101.177945,
            19.699671
          ],
          [
            -101.177761,
            19.699555
          ],
          [
            -101.177515,
            19.69942
          ],
          [
            -101.177453,
            19.699381
          ],
          [
            -101.17733,
            19.699323
          ],
          [
            -101.177289,
            19.699265
          ],
          [
            -101.177187,
            19.699188
          ],
          [
            -101.177002,
            19.699072
          ],
          [
            -101.176818,
            19.698957
          ],
          [
            -101.176674,
            19.698879
          ],
          [
            -101.17651,
            19.698783
          ],
          [
            -101.176326,
            19.698706
          ],
          [
            -101.176121,
            19.698609
          ],
          [
            -101.175792,
            19.698493
          ],
          [
            -101.175444,
            19.698358
          ],
          [
            -101.175321,
            19.69832
          ],
          [
            -101.175198,
            19.698242
          ],
          [
            -101.175034,
            19.698184
          ],
          [
            -101.174849,
            19.698127
          ],
          [
            -101.174624,
            19.69803
          ],
          [
            -101.174521,
            19.697972
          ],
          [
            -101.174357,
            19.697914
          ],
          [
            -101.174255,
            19.697895
          ],
          [
            -101.174111,
            19.697837
          ],
          [
            -101.173865,
            19.69776
          ],
          [
            -101.173599,
            19.697702
          ],
          [
            -101.173312,
            19.697605
          ],
          [
            -101.173086,
            19.697547
          ],
          [
            -101.172943,
            19.69749
          ],
          [
            -101.172881,
            19.69749
          ],
          [
            -101.172737,
            19.697451
          ],
          [
            -101.172512,
            19.697374
          ],
          [
            -101.172245,
            19.697297
          ],
          [
            -101.172102,
            19.697277
          ],
          [
            -101.171979,
            19.697239
          ],
          [
            -101.171876,
            19.697181
          ],
          [
            -101.171671,
            19.697103
          ],
          [
            -101.171425,
            19.697007
          ],
          [
            -101.171036,
            19.696853
          ],
          [
            -101.170872,
            19.696833
          ],
          [
            -101.17079,
            19.696795
          ],
          [
            -101.170564,
            19.696737
          ],
          [
            -101.170216,
            19.69664
          ],
          [
            -101.169847,
            19.696544
          ],
          [
            -101.169539,
            19.696447
          ],
          [
            -101.169272,
            19.69637
          ],
          [
            -101.169088,
            19.696312
          ],
          [
            -101.168903,
            19.696273
          ],
          [
            -101.168678,
            19.696216
          ],
          [
            -101.168432,
            19.696196
          ],
          [
            -101.168186,
            19.696177
          ],
          [
            -101.168083,
            19.696138
          ],
          [
            -101.168022,
            19.696138
          ],
          [
            -101.167919,
            19.696119
          ],
          [
            -101.167817,
            19.6961
          ],
          [
            -101.167714,
            19.696061
          ],
          [
            -101.167653,
            19.696061
          ],
          [
            -101.167591,
            19.696042
          ]
        ]
      }
    },
    {
      "type": "Feature",
      "properties": {
        "id": "rio-chiquito",
        "nombre": "Río Chiquito",
        "color": "#00acc1",
        "puntaje": 90,
        "longitud_metros": 8091.3,
        "participante": "eDFAR",
        "fecha": "2026-09-22",
        "dia_semana": "Martes",
        "hora": "11:43:44",
        "dificultad": "facil",
        "clientId": "b66675ee-7a42-4cff-98de-4b57aba579c2"
      },
      "geometry": {
        "type": "LineString",
        "coordinates": [
          [
            -101.152014,
            19.676185
          ],
          [
            -101.152352,
            19.676396
          ],
          [
            -101.152802,
            19.676608
          ],
          [
            -101.153252,
            19.67682
          ],
          [
            -101.153702,
            19.677138
          ],
          [
            -101.154264,
            19.677562
          ],
          [
            -101.154602,
            19.677773
          ],
          [
            -101.155052,
            19.678197
          ],
          [
            -101.155502,
            19.678515
          ],
          [
            -101.155839,
            19.678833
          ],
          [
            -101.156177,
            19.679256
          ],
          [
            -101.156964,
            19.679786
          ],
          [
            -101.157302,
            19.680104
          ],
          [
            -101.157752,
            19.680421
          ],
          [
            -101.158426,
            19.680951
          ],
          [
            -101.158989,
            19.681375
          ],
          [
            -101.159551,
            19.681798
          ],
          [
            -101.160339,
            19.682222
          ],
          [
            -101.160789,
            19.682434
          ],
          [
            -101.161239,
            19.682752
          ],
          [
            -101.162251,
            19.683175
          ],
          [
            -101.163264,
            19.683811
          ],
          [
            -101.163826,
            19.68434
          ],
          [
            -101.164951,
            19.684764
          ],
          [
            -101.165626,
            19.685294
          ],
          [
            -101.166751,
            19.685717
          ],
          [
            -101.167426,
            19.685929
          ],
          [
            -101.168213,
            19.686247
          ],
          [
            -101.168888,
            19.686671
          ],
          [
            -101.169451,
            19.686776
          ],
          [
            -101.170238,
            19.687094
          ],
          [
            -101.171025,
            19.687624
          ],
          [
            -101.172038,
            19.688047
          ],
          [
            -101.172938,
            19.688259
          ],
          [
            -101.173613,
            19.688577
          ],
          [
            -101.174513,
            19.688895
          ],
          [
            -101.175413,
            19.689213
          ],
          [
            -101.175975,
            19.689318
          ],
          [
            -101.176762,
            19.689636
          ],
          [
            -101.177437,
            19.689742
          ],
          [
            -101.178225,
            19.689954
          ],
          [
            -101.179125,
            19.690166
          ],
          [
            -101.179912,
            19.690378
          ],
          [
            -101.180925,
            19.690695
          ],
          [
            -101.181937,
            19.691013
          ],
          [
            -101.182949,
            19.691119
          ],
          [
            -101.183962,
            19.691543
          ],
          [
            -101.185199,
            19.691754
          ],
          [
            -101.186437,
            19.692178
          ],
          [
            -101.187899,
            19.692602
          ],
          [
            -101.189249,
            19.693025
          ],
          [
            -101.190374,
            19.693131
          ],
          [
            -101.191611,
            19.693555
          ],
          [
            -101.192736,
            19.693979
          ],
          [
            -101.193749,
            19.69419
          ],
          [
            -101.194311,
            19.694508
          ],
          [
            -101.195773,
            19.695144
          ],
          [
            -101.196673,
            19.695355
          ],
          [
            -101.197798,
            19.695885
          ],
          [
            -101.198811,
            19.696309
          ],
          [
            -101.199373,
            19.696415
          ],
          [
            -101.200161,
            19.696732
          ],
          [
            -101.200948,
            19.697156
          ],
          [
            -101.201848,
            19.69758
          ],
          [
            -101.202185,
            19.697791
          ],
          [
            -101.20286,
            19.698003
          ],
          [
            -101.203535,
            19.698321
          ],
          [
            -101.204323,
            19.698744
          ],
          [
            -101.20511,
            19.699168
          ],
          [
            -101.20556,
            19.699486
          ],
          [
            -101.206348,
            19.699909
          ],
          [
            -101.206797,
            19.700227
          ],
          [
            -101.20736,
            19.700545
          ],
          [
            -101.207697,
            19.700757
          ],
          [
            -101.20826,
            19.700969
          ],
          [
            -101.208597,
            19.70118
          ],
          [
            -101.209047,
            19.701392
          ],
          [
            -101.209385,
            19.701816
          ],
          [
            -101.20961,
            19.702133
          ],
          [
            -101.210172,
            19.702875
          ],
          [
            -101.21051,
            19.703298
          ],
          [
            -101.210622,
            19.703616
          ],
          [
            -101.211072,
            19.70404
          ],
          [
            -101.211522,
            19.704569
          ],
          [
            -101.211972,
            19.705311
          ],
          [
            -101.212422,
            19.705946
          ],
          [
            -101.212872,
            19.706476
          ],
          [
            -101.213547,
            19.707429
          ],
          [
            -101.213884,
            19.707852
          ],
          [
            -101.214222,
            19.708382
          ],
          [
            -101.214672,
            19.708699
          ],
          [
            -101.215009,
            19.709017
          ],
          [
            -101.215459,
            19.709441
          ],
          [
            -101.216022,
            19.709758
          ],
          [
            -101.216472,
            19.710076
          ],
          [
            -101.217034,
            19.710394
          ],
          [
            -101.217372,
            19.710606
          ],
          [
            -101.217709,
            19.710606
          ]
        ]
      }
    },
    {
      "type": "Feature",
      "properties": {
        "id": "el-libramiento",
        "nombre": "El Libramiento",
        "color": "#7c3aed",
        "puntaje": 96,
        "longitud_metros": 23543.1,
        "participante": "eDFAR",
        "fecha": "2026-09-22",
        "dia_semana": "Martes",
        "hora": "11:43:44",
        "dificultad": "facil",
        "clientId": "b66675ee-7a42-4cff-98de-4b57aba579c2"
      },
      "geometry": {
        "type": "LineString",
        "coordinates": [
          [
            -101.21791,
            19.731614
          ],
          [
            -101.218311,
            19.731614
          ],
          [
            -101.218979,
            19.731488
          ],
          [
            -101.219514,
            19.731237
          ],
          [
            -101.220049,
            19.730859
          ],
          [
            -101.22045,
            19.730607
          ],
          [
            -101.221119,
            19.730104
          ],
          [
            -101.221654,
            19.729726
          ],
          [
            -101.222055,
            19.729223
          ],
          [
            -101.222189,
            19.728845
          ],
          [
            -101.22259,
            19.728593
          ],
          [
            -101.222723,
            19.728216
          ],
          [
            -101.223258,
            19.727712
          ],
          [
            -101.223526,
            19.727335
          ],
          [
            -101.223927,
            19.726831
          ],
          [
            -101.224462,
            19.726328
          ],
          [
            -101.224729,
            19.725824
          ],
          [
            -101.225264,
            19.725195
          ],
          [
            -101.225665,
            19.724692
          ],
          [
            -101.226066,
            19.724062
          ],
          [
            -101.226735,
            19.723433
          ],
          [
            -101.227136,
            19.723055
          ],
          [
            -101.22727,
            19.722678
          ],
          [
            -101.227671,
            19.722174
          ],
          [
            -101.228072,
            19.721671
          ],
          [
            -101.228339,
            19.720915
          ],
          [
            -101.228874,
            19.720286
          ],
          [
            -101.229142,
            19.719657
          ],
          [
            -101.229409,
            19.719027
          ],
          [
            -101.229677,
            19.718524
          ],
          [
            -101.229944,
            19.717894
          ],
          [
            -101.230211,
            19.717139
          ],
          [
            -101.230479,
            19.71651
          ],
          [
            -101.230746,
            19.71588
          ],
          [
            -101.231281,
            19.715125
          ],
          [
            -101.231415,
            19.71437
          ],
          [
            -101.23195,
            19.713615
          ],
          [
            -101.232351,
            19.712482
          ],
          [
            -101.232752,
            19.711726
          ],
          [
            -101.23302,
            19.711223
          ],
          [
            -101.233421,
            19.710719
          ],
          [
            -101.233554,
            19.710216
          ],
          [
            -101.233688,
            19.709838
          ],
          [
            -101.233956,
            19.709461
          ],
          [
            -101.234089,
            19.709083
          ],
          [
            -101.23449,
            19.708579
          ],
          [
            -101.234892,
            19.70795
          ],
          [
            -101.235025,
            19.707572
          ],
          [
            -101.235426,
            19.706943
          ],
          [
            -101.235694,
            19.706565
          ],
          [
            -101.235961,
            19.706188
          ],
          [
            -101.236229,
            19.705684
          ],
          [
            -101.236496,
            19.704929
          ],
          [
            -101.236764,
            19.704299
          ],
          [
            -101.237031,
            19.703796
          ],
          [
            -101.237031,
            19.703292
          ],
          [
            -101.237031,
            19.702663
          ],
          [
            -101.237031,
            19.702159
          ],
          [
            -101.237031,
            19.70153
          ],
          [
            -101.237031,
            19.7009
          ],
          [
            -101.237031,
            19.700397
          ],
          [
            -101.237031,
            19.699893
          ],
          [
            -101.237031,
            19.69939
          ],
          [
            -101.237031,
            19.698886
          ],
          [
            -101.237165,
            19.698383
          ],
          [
            -101.237165,
            19.698005
          ],
          [
            -101.237165,
            19.697627
          ],
          [
            -101.237165,
            19.69725
          ],
          [
            -101.237165,
            19.696872
          ],
          [
            -101.237165,
            19.696368
          ],
          [
            -101.237165,
            19.695865
          ],
          [
            -101.237165,
            19.695361
          ],
          [
            -101.237165,
            19.694732
          ],
          [
            -101.237165,
            19.694354
          ],
          [
            -101.237031,
            19.69385
          ],
          [
            -101.236897,
            19.693095
          ],
          [
            -101.236897,
            19.692591
          ],
          [
            -101.23663,
            19.692088
          ],
          [
            -101.236362,
            19.691584
          ],
          [
            -101.236229,
            19.691081
          ],
          [
            -101.236095,
            19.690703
          ],
          [
            -101.235828,
            19.690325
          ],
          [
            -101.23556,
            19.689948
          ],
          [
            -101.23556,
            19.68957
          ],
          [
            -101.23556,
            19.689192
          ],
          [
            -101.23556,
            19.688815
          ],
          [
            -101.235694,
            19.688437
          ],
          [
            -101.235828,
            19.688059
          ],
          [
            -101.235828,
            19.68743
          ],
          [
            -101.235828,
            19.687052
          ],
          [
            -101.235961,
            19.686674
          ],
          [
            -101.235961,
            19.686297
          ],
          [
            -101.235961,
            19.685919
          ],
          [
            -101.235961,
            19.685541
          ],
          [
            -101.235961,
            19.685163
          ],
          [
            -101.235961,
            19.684786
          ],
          [
            -101.235961,
            19.684408
          ],
          [
            -101.235961,
            19.68403
          ],
          [
            -101.235961,
            19.683653
          ],
          [
            -101.235828,
            19.683275
          ],
          [
            -101.235828,
            19.682897
          ],
          [
            -101.235694,
            19.68252
          ],
          [
            -101.23556,
            19.682142
          ],
          [
            -101.23556,
            19.681764
          ],
          [
            -101.235293,
            19.681386
          ],
          [
            -101.235293,
            19.681009
          ],
          [
            -101.235159,
            19.680631
          ],
          [
            -101.234892,
            19.680127
          ],
          [
            -101.234758,
            19.67975
          ],
          [
            -101.23449,
            19.678994
          ],
          [
            -101.234357,
            19.678491
          ],
          [
            -101.234223,
            19.678113
          ],
          [
            -101.233956,
            19.677609
          ],
          [
            -101.233287,
            19.67698
          ],
          [
            -101.232886,
            19.676854
          ],
          [
            -101.232217,
            19.676476
          ],
          [
            -101.23088,
            19.676098
          ],
          [
            -101.229275,
            19.675469
          ],
          [
            -101.228473,
            19.675217
          ],
          [
            -101.227938,
            19.675091
          ],
          [
            -101.22727,
            19.675091
          ],
          [
            -101.226869,
            19.675091
          ],
          [
            -101.225933,
            19.675091
          ],
          [
            -101.22513,
            19.675217
          ],
          [
            -101.224328,
            19.675217
          ],
          [
            -101.223927,
            19.675343
          ],
          [
            -101.223258,
            19.675469
          ],
          [
            -101.222723,
            19.675595
          ],
          [
            -101.222055,
            19.675721
          ],
          [
            -101.221253,
            19.675847
          ],
          [
            -101.220718,
            19.675972
          ],
          [
            -101.219915,
            19.676098
          ],
          [
            -101.219113,
            19.67635
          ],
          [
            -101.218578,
            19.67635
          ],
          [
            -101.218177,
            19.676476
          ],
          [
            -101.217509,
            19.676476
          ],
          [
            -101.216572,
            19.676602
          ],
          [
            -101.215636,
            19.676854
          ],
          [
            -101.215102,
            19.676854
          ],
          [
            -101.214567,
            19.67698
          ],
          [
            -101.213898,
            19.677106
          ],
          [
            -101.212695,
            19.677483
          ],
          [
            -101.212026,
            19.677483
          ],
          [
            -101.211358,
            19.677483
          ],
          [
            -101.210689,
            19.677483
          ],
          [
            -101.210288,
            19.677609
          ],
          [
            -101.209486,
            19.677735
          ],
          [
            -101.208817,
            19.677735
          ],
          [
            -101.208015,
            19.677861
          ],
          [
            -101.206945,
            19.677987
          ],
          [
            -101.206143,
            19.678239
          ],
          [
            -101.20534,
            19.678239
          ],
          [
            -101.204672,
            19.678239
          ],
          [
            -101.204137,
            19.678239
          ],
          [
            -101.203736,
            19.678239
          ],
          [
            -101.203335,
            19.678239
          ],
          [
            -101.2028,
            19.678239
          ],
          [
            -101.202131,
            19.678239
          ],
          [
            -101.201596,
            19.678239
          ],
          [
            -101.200928,
            19.678239
          ],
          [
            -101.199992,
            19.678239
          ],
          [
            -101.199457,
            19.678365
          ],
          [
            -101.198655,
            19.678365
          ],
          [
            -101.19812,
            19.678365
          ],
          [
            -101.196916,
            19.678491
          ],
          [
            -101.19598,
            19.678491
          ],
          [
            -101.195312,
            19.678491
          ],
          [
            -101.194509,
            19.678491
          ],
          [
            -101.193039,
            19.678491
          ],
          [
            -101.19237,
            19.678491
          ],
          [
            -101.191568,
            19.678491
          ],
          [
            -101.190899,
            19.678491
          ],
          [
            -101.190364,
            19.678491
          ],
          [
            -101.189696,
            19.678742
          ],
          [
            -101.189027,
            19.678742
          ],
          [
            -101.187824,
            19.678868
          ],
          [
            -101.186888,
            19.678994
          ],
          [
            -101.186219,
            19.67912
          ],
          [
            -101.185417,
            19.679246
          ],
          [
            -101.184882,
            19.679372
          ],
          [
            -101.184347,
            19.679498
          ],
          [
            -101.183678,
            19.679498
          ],
          [
            -101.182876,
            19.679624
          ],
          [
            -101.181806,
            19.679876
          ],
          [
            -101.18087,
            19.680127
          ],
          [
            -101.180336,
            19.680253
          ],
          [
            -101.179934,
            19.680379
          ],
          [
            -101.179266,
            19.680631
          ],
          [
            -101.178731,
            19.680757
          ],
          [
            -101.17833,
            19.680757
          ],
          [
            -101.177795,
            19.681009
          ],
          [
            -101.176993,
            19.681261
          ],
          [
            -101.176591,
            19.681261
          ],
          [
            -101.176057,
            19.681638
          ],
          [
            -101.175254,
            19.682016
          ],
          [
            -101.174719,
            19.682142
          ],
          [
            -101.174185,
            19.682394
          ],
          [
            -101.173783,
            19.682645
          ],
          [
            -101.172981,
            19.683149
          ],
          [
            -101.17258,
            19.683401
          ],
          [
            -101.172179,
            19.683653
          ],
          [
            -101.171778,
            19.683904
          ],
          [
            -101.171377,
            19.684282
          ],
          [
            -101.170574,
            19.68466
          ],
          [
            -101.170173,
            19.685038
          ],
          [
            -101.169638,
            19.685415
          ],
          [
            -101.169103,
            19.685793
          ],
          [
            -101.168569,
            19.686171
          ],
          [
            -101.168034,
            19.686674
          ],
          [
            -101.167633,
            19.686926
          ],
          [
            -101.167365,
            19.687304
          ],
          [
            -101.166964,
            19.687556
          ],
          [
            -101.166563,
            19.687807
          ],
          [
            -101.165894,
            19.688311
          ],
          [
            -101.165761,
            19.688689
          ],
          [
            -101.165359,
            19.68894
          ],
          [
            -101.164958,
            19.689318
          ],
          [
            -101.164557,
            19.68957
          ],
          [
            -101.164022,
            19.689948
          ],
          [
            -101.163487,
            19.690074
          ],
          [
            -101.163086,
            19.690451
          ],
          [
            -101.162685,
            19.690955
          ],
          [
            -101.162284,
            19.691207
          ],
          [
            -101.161883,
            19.691458
          ],
          [
            -101.161482,
            19.691836
          ],
          [
            -101.16108,
            19.692214
          ],
          [
            -101.160412,
            19.692717
          ],
          [
            -101.159877,
            19.693221
          ],
          [
            -101.159208,
            19.69385
          ],
          [
            -101.158807,
            19.694354
          ],
          [
            -101.158139,
            19.695361
          ],
          [
            -101.157738,
            19.695865
          ],
          [
            -101.157336,
            19.696242
          ],
          [
            -101.157069,
            19.69662
          ],
          [
            -101.156935,
            19.69725
          ],
          [
            -101.156534,
            19.697753
          ],
          [
            -101.1564,
            19.698131
          ],
          [
            -101.1564,
            19.69876
          ],
          [
            -101.1564,
            19.699138
          ],
          [
            -101.156267,
            19.699516
          ],
          [
            -101.156267,
            19.699893
          ],
          [
            -101.156133,
            19.700271
          ],
          [
            -101.156133,
            19.700649
          ],
          [
            -101.156133,
            19.701026
          ],
          [
            -101.1564,
            19.702033
          ],
          [
            -101.156668,
            19.702411
          ],
          [
            -101.156802,
            19.702789
          ],
          [
            -101.157069,
            19.703166
          ],
          [
            -101.157203,
            19.703544
          ],
          [
            -101.15747,
            19.703922
          ],
          [
            -101.158139,
            19.704551
          ],
          [
            -101.15854,
            19.704929
          ],
          [
            -101.159075,
            19.705432
          ],
          [
            -101.15961,
            19.705936
          ],
          [
            -101.160011,
            19.706313
          ],
          [
            -101.160412,
            19.706565
          ],
          [
            -101.160947,
            19.706943
          ],
          [
            -101.161615,
            19.707321
          ],
          [
            -101.162418,
            19.70795
          ],
          [
            -101.162952,
            19.708202
          ],
          [
            -101.163354,
            19.708453
          ],
          [
            -101.163889,
            19.708705
          ],
          [
            -101.16429,
            19.708957
          ],
          [
            -101.164423,
            19.709335
          ],
          [
            -101.164825,
            19.709586
          ],
          [
            -101.165226,
            19.709838
          ],
          [
            -101.165627,
            19.709964
          ],
          [
            -101.166028,
            19.710216
          ],
          [
            -101.166563,
            19.710468
          ],
          [
            -101.167098,
            19.710719
          ],
          [
            -101.167633,
            19.710971
          ],
          [
            -101.168034,
            19.711223
          ],
          [
            -101.168702,
            19.711726
          ],
          [
            -101.169237,
            19.711978
          ],
          [
            -101.169638,
            19.712356
          ],
          [
            -101.170574,
            19.712733
          ],
          [
            -101.171109,
            19.712985
          ],
          [
            -101.171911,
            19.713489
          ],
          [
            -101.172446,
            19.71374
          ],
          [
            -101.173249,
            19.714118
          ],
          [
            -101.174185,
            19.714747
          ],
          [
            -101.174987,
            19.715251
          ],
          [
            -101.175923,
            19.715755
          ],
          [
            -101.176725,
            19.716132
          ],
          [
            -101.177394,
            19.71651
          ],
          [
            -101.178062,
            19.716887
          ],
          [
            -101.1794,
            19.717643
          ],
          [
            -101.180336,
            19.717894
          ],
          [
            -101.18087,
            19.718146
          ],
          [
            -101.181405,
            19.718398
          ],
          [
            -101.182341,
            19.718776
          ],
          [
            -101.182742,
            19.719027
          ],
          [
            -101.183411,
            19.719279
          ],
          [
            -101.183946,
            19.719531
          ],
          [
            -101.184614,
            19.719908
          ],
          [
            -101.185149,
            19.72016
          ],
          [
            -101.186219,
            19.720538
          ],
          [
            -101.187556,
            19.721041
          ],
          [
            -101.188492,
            19.721419
          ],
          [
            -101.189562,
            19.721796
          ],
          [
            -101.190364,
            19.722174
          ],
          [
            -101.1913,
            19.722678
          ],
          [
            -101.192504,
            19.723181
          ],
          [
            -101.193707,
            19.72381
          ],
          [
            -101.194777,
            19.724314
          ],
          [
            -101.195847,
            19.724817
          ],
          [
            -101.196515,
            19.725069
          ],
          [
            -101.197317,
            19.725447
          ],
          [
            -101.198387,
            19.726076
          ],
          [
            -101.199858,
            19.72658
          ],
          [
            -101.20066,
            19.726957
          ],
          [
            -101.201329,
            19.727209
          ],
          [
            -101.202131,
            19.727587
          ],
          [
            -101.202933,
            19.727838
          ],
          [
            -101.20387,
            19.728216
          ],
          [
            -101.204806,
            19.728593
          ],
          [
            -101.206009,
            19.728845
          ],
          [
            -101.206678,
            19.729097
          ],
          [
            -101.20748,
            19.729223
          ],
          [
            -101.20855,
            19.7296
          ],
          [
            -101.209486,
            19.729852
          ],
          [
            -101.211358,
            19.730104
          ],
          [
            -101.212561,
            19.73023
          ],
          [
            -101.21323,
            19.73023
          ],
          [
            -101.214166,
            19.73023
          ],
          [
            -101.2147,
            19.730481
          ],
          [
            -101.215102,
            19.730481
          ],
          [
            -101.215904,
            19.730481
          ],
          [
            -101.216305,
            19.730481
          ],
          [
            -101.216706,
            19.730481
          ]
        ]
      }
    },
    {
      "type": "Feature",
      "properties": {
        "id": "avenida-madero",
        "nombre": "Avenida Madero",
        "color": "#f48fb1",
        "puntaje": 91,
        "longitud_metros": 22065.5,
        "participante": "eDFAR",
        "fecha": "2026-09-22",
        "dia_semana": "Martes",
        "hora": "11:43:44",
        "dificultad": "facil",
        "clientId": "b66675ee-7a42-4cff-98de-4b57aba579c2"
      },
      "geometry": {
        "type": "LineString",
        "coordinates": [
          [
            -101.306252,
            19.686872
          ],
          [
            -101.305604,
            19.686872
          ],
          [
            -101.304794,
            19.686872
          ],
          [
            -101.302688,
            19.687177
          ],
          [
            -101.300421,
            19.687634
          ],
          [
            -101.298315,
            19.688244
          ],
          [
            -101.295886,
            19.688854
          ],
          [
            -101.293456,
            19.689159
          ],
          [
            -101.290379,
            19.689922
          ],
          [
            -101.286977,
            19.691142
          ],
          [
            -101.283738,
            19.691904
          ],
          [
            -101.280823,
            19.692362
          ],
          [
            -101.277259,
            19.693582
          ],
          [
            -101.274992,
            19.694039
          ],
          [
            -101.2724,
            19.694802
          ],
          [
            -101.270619,
            19.695107
          ],
          [
            -101.268675,
            19.695717
          ],
          [
            -101.266408,
            19.696022
          ],
          [
            -101.26414,
            19.696632
          ],
          [
            -101.262034,
            19.696937
          ],
          [
            -101.258795,
            19.697547
          ],
          [
            -101.256204,
            19.698461
          ],
          [
            -101.253612,
            19.699071
          ],
          [
            -101.251345,
            19.699529
          ],
          [
            -101.248267,
            19.700291
          ],
          [
            -101.246,
            19.700749
          ],
          [
            -101.244056,
            19.701206
          ],
          [
            -101.242598,
            19.701359
          ],
          [
            -101.241626,
            19.701511
          ],
          [
            -101.240817,
            19.701816
          ],
          [
            -101.239683,
            19.701969
          ],
          [
            -101.238873,
            19.702121
          ],
          [
            -101.238063,
            19.702274
          ],
          [
            -101.237415,
            19.702274
          ],
          [
            -101.236929,
            19.702426
          ],
          [
            -101.236444,
            19.702426
          ],
          [
            -101.235958,
            19.702426
          ],
          [
            -101.235472,
            19.702579
          ],
          [
            -101.234986,
            19.702579
          ],
          [
            -101.2345,
            19.702731
          ],
          [
            -101.233852,
            19.702884
          ],
          [
            -101.233204,
            19.703036
          ],
          [
            -101.232718,
            19.703036
          ],
          [
            -101.23207,
            19.703341
          ],
          [
            -101.231584,
            19.703341
          ],
          [
            -101.230451,
            19.703646
          ],
          [
            -101.229641,
            19.703951
          ],
          [
            -101.228993,
            19.704103
          ],
          [
            -101.228345,
            19.704408
          ],
          [
            -101.227211,
            19.704408
          ],
          [
            -101.22624,
            19.704561
          ],
          [
            -101.225106,
            19.705018
          ],
          [
            -101.224296,
            19.705171
          ],
          [
            -101.223486,
            19.705476
          ],
          [
            -101.222676,
            19.705628
          ],
          [
            -101.221543,
            19.705933
          ],
          [
            -101.220085,
            19.706238
          ],
          [
            -101.218465,
            19.706848
          ],
          [
            -101.216845,
            19.707153
          ],
          [
            -101.21555,
            19.707458
          ],
          [
            -101.21474,
            19.707763
          ],
          [
            -101.21393,
            19.708068
          ],
          [
            -101.212958,
            19.70822
          ],
          [
            -101.211662,
            19.708525
          ],
          [
            -101.211015,
            19.708678
          ],
          [
            -101.210205,
            19.70883
          ],
          [
            -101.209233,
            19.708983
          ],
          [
            -101.208099,
            19.708983
          ],
          [
            -101.206641,
            19.70944
          ],
          [
            -101.205184,
            19.709593
          ],
          [
            -101.203726,
            19.71005
          ],
          [
            -101.203078,
            19.71005
          ],
          [
            -101.202268,
            19.71005
          ],
          [
            -101.201297,
            19.710203
          ],
          [
            -101.199839,
            19.710355
          ],
          [
            -101.199191,
            19.71066
          ],
          [
            -101.196438,
            19.710813
          ],
          [
            -101.19579,
            19.710965
          ],
          [
            -101.195142,
            19.711118
          ],
          [
            -101.194494,
            19.71127
          ],
          [
            -101.194008,
            19.71127
          ],
          [
            -101.193522,
            19.711423
          ],
          [
            -101.192874,
            19.711423
          ],
          [
            -101.192388,
            19.711423
          ],
          [
            -101.191417,
            19.711423
          ],
          [
            -101.190607,
            19.711423
          ],
          [
            -101.190121,
            19.711423
          ],
          [
            -101.189473,
            19.711727
          ],
          [
            -101.188987,
            19.711727
          ],
          [
            -101.188177,
            19.711727
          ],
          [
            -101.187529,
            19.711727
          ],
          [
            -101.187043,
            19.711727
          ],
          [
            -101.186557,
            19.711727
          ],
          [
            -101.185586,
            19.711727
          ],
          [
            -101.184614,
            19.711727
          ],
          [
            -101.183804,
            19.711727
          ],
          [
            -101.182832,
            19.711727
          ],
          [
            -101.182346,
            19.711727
          ],
          [
            -101.181698,
            19.711727
          ],
          [
            -101.181213,
            19.711727
          ],
          [
            -101.180727,
            19.711727
          ],
          [
            -101.180241,
            19.711575
          ],
          [
            -101.179755,
            19.711575
          ],
          [
            -101.178945,
            19.711575
          ],
          [
            -101.178297,
            19.711575
          ],
          [
            -101.177811,
            19.711575
          ],
          [
            -101.177325,
            19.711575
          ],
          [
            -101.176516,
            19.711575
          ],
          [
            -101.17603,
            19.711575
          ],
          [
            -101.175544,
            19.711575
          ],
          [
            -101.175058,
            19.711575
          ],
          [
            -101.174572,
            19.711575
          ],
          [
            -101.174086,
            19.711575
          ],
          [
            -101.173276,
            19.711423
          ],
          [
            -101.17279,
            19.711423
          ],
          [
            -101.172142,
            19.71127
          ],
          [
            -101.171656,
            19.71127
          ],
          [
            -101.171171,
            19.71127
          ],
          [
            -101.170685,
            19.71127
          ],
          [
            -101.170037,
            19.71127
          ],
          [
            -101.169551,
            19.71127
          ],
          [
            -101.169065,
            19.71127
          ],
          [
            -101.168093,
            19.71127
          ],
          [
            -101.167445,
            19.71127
          ],
          [
            -101.166959,
            19.71127
          ],
          [
            -101.166312,
            19.71127
          ],
          [
            -101.16534,
            19.71127
          ],
          [
            -101.16453,
            19.71127
          ],
          [
            -101.163558,
            19.711575
          ],
          [
            -101.163072,
            19.711575
          ],
          [
            -101.162586,
            19.71188
          ],
          [
            -101.161938,
            19.712032
          ],
          [
            -101.161129,
            19.712337
          ],
          [
            -101.159995,
            19.712795
          ],
          [
            -101.159347,
            19.7131
          ],
          [
            -101.158537,
            19.713557
          ],
          [
            -101.157889,
            19.71371
          ],
          [
            -101.156917,
            19.714472
          ],
          [
            -101.156108,
            19.715082
          ],
          [
            -101.155622,
            19.715387
          ],
          [
            -101.154974,
            19.715692
          ],
          [
            -101.154002,
            19.716454
          ],
          [
            -101.15303,
            19.717064
          ],
          [
            -101.15222,
            19.717674
          ],
          [
            -101.151411,
            19.718284
          ],
          [
            -101.150601,
            19.718894
          ],
          [
            -101.149791,
            19.719504
          ],
          [
            -101.149143,
            19.719961
          ],
          [
            -101.148171,
            19.720571
          ],
          [
            -101.147361,
            19.721181
          ],
          [
            -101.146713,
            19.721638
          ],
          [
            -101.145904,
            19.722248
          ],
          [
            -101.145742,
            19.722705
          ],
          [
            -101.14477,
            19.723315
          ],
          [
            -101.144284,
            19.723925
          ],
          [
            -101.143636,
            19.72423
          ],
          [
            -101.14315,
            19.724687
          ],
          [
            -101.142664,
            19.724992
          ],
          [
            -101.141692,
            19.725755
          ],
          [
            -101.141045,
            19.726212
          ],
          [
            -101.140397,
            19.726517
          ],
          [
            -101.139911,
            19.726822
          ],
          [
            -101.139425,
            19.727127
          ],
          [
            -101.138615,
            19.727584
          ],
          [
            -101.138129,
            19.727889
          ],
          [
            -101.137481,
            19.728194
          ],
          [
            -101.136671,
            19.728499
          ],
          [
            -101.135538,
            19.728956
          ],
          [
            -101.134566,
            19.729261
          ],
          [
            -101.13327,
            19.729719
          ],
          [
            -101.131974,
            19.730329
          ],
          [
            -101.131003,
            19.730633
          ],
          [
            -101.130193,
            19.731091
          ],
          [
            -101.129383,
            19.731243
          ],
          [
            -101.128411,
            19.731701
          ],
          [
            -101.127277,
            19.732158
          ],
          [
            -101.126629,
            19.73231
          ],
          [
            -101.125982,
            19.732615
          ],
          [
            -101.125334,
            19.73292
          ],
          [
            -101.124524,
            19.733225
          ],
          [
            -101.123714,
            19.733378
          ],
          [
            -101.12258,
            19.73353
          ],
          [
            -101.12177,
            19.733987
          ],
          [
            -101.120637,
            19.73414
          ],
          [
            -101.119665,
            19.734597
          ],
          [
            -101.119017,
            19.735055
          ],
          [
            -101.118369,
            19.735207
          ],
          [
            -101.117721,
            19.73536
          ],
          [
            -101.117235,
            19.735512
          ],
          [
            -101.116749,
            19.735664
          ],
          [
            -101.116264,
            19.735817
          ],
          [
            -101.115292,
            19.736274
          ],
          [
            -101.114806,
            19.736579
          ],
          [
            -101.114158,
            19.736732
          ],
          [
            -101.113672,
            19.737037
          ],
          [
            -101.113186,
            19.737189
          ],
          [
            -101.112538,
            19.737341
          ],
          [
            -101.112052,
            19.737646
          ],
          [
            -101.111243,
            19.737646
          ],
          [
            -101.110433,
            19.737799
          ],
          [
            -101.109785,
            19.737951
          ],
          [
            -101.109299,
            19.738104
          ],
          [
            -101.108813,
            19.738104
          ],
          [
            -101.108327,
            19.738104
          ],
          [
            -101.107841,
            19.738104
          ],
          [
            -101.107355,
            19.738104
          ]
        ]
      }
    },
    {
      "type": "Feature",
      "properties": {
        "id": "av-morelos",
        "nombre": "Av Morelos",
        "color": "#e91e63",
        "puntaje": 100,
        "longitud_metros": 4463.0,
        "participante": "eDFAR",
        "fecha": "2026-09-22",
        "dia_semana": "Martes",
        "hora": "11:43:44",
        "dificultad": "facil",
        "clientId": "b66675ee-7a42-4cff-98de-4b57aba579c2"
      },
      "geometry": {
        "type": "LineString",
        "coordinates": [
          [
            -101.188319,
            19.721726
          ],
          [
            -101.18874,
            19.721331
          ],
          [
            -101.18895,
            19.720639
          ],
          [
            -101.189055,
            19.720045
          ],
          [
            -101.18937,
            19.719551
          ],
          [
            -101.189475,
            19.719254
          ],
          [
            -101.18958,
            19.71876
          ],
          [
            -101.189685,
            19.718463
          ],
          [
            -101.189895,
            19.717969
          ],
          [
            -101.189895,
            19.717574
          ],
          [
            -101.190105,
            19.717178
          ],
          [
            -101.19021,
            19.716684
          ],
          [
            -101.19021,
            19.716288
          ],
          [
            -101.19042,
            19.715794
          ],
          [
            -101.190525,
            19.715299
          ],
          [
            -101.19063,
            19.714607
          ],
          [
            -101.190735,
            19.713717
          ],
          [
            -101.19084,
            19.713322
          ],
          [
            -101.190945,
            19.712828
          ],
          [
            -101.19105,
            19.712333
          ],
          [
            -101.19105,
            19.711839
          ],
          [
            -101.191155,
            19.711542
          ],
          [
            -101.191155,
            19.711245
          ],
          [
            -101.19126,
            19.710949
          ],
          [
            -101.191365,
            19.710553
          ],
          [
            -101.191365,
            19.710257
          ],
          [
            -101.191365,
            19.70996
          ],
          [
            -101.191365,
            19.709564
          ],
          [
            -101.191365,
            19.709268
          ],
          [
            -101.191365,
            19.708971
          ],
          [
            -101.191365,
            19.708675
          ],
          [
            -101.191365,
            19.708378
          ],
          [
            -101.191365,
            19.707982
          ],
          [
            -101.191365,
            19.707587
          ],
          [
            -101.191365,
            19.70729
          ],
          [
            -101.191365,
            19.706994
          ],
          [
            -101.191365,
            19.706598
          ],
          [
            -101.191365,
            19.706005
          ],
          [
            -101.191365,
            19.705708
          ],
          [
            -101.191365,
            19.705411
          ],
          [
            -101.191365,
            19.705115
          ],
          [
            -101.191365,
            19.704818
          ],
          [
            -101.191365,
            19.704521
          ],
          [
            -101.191365,
            19.704126
          ],
          [
            -101.191365,
            19.70373
          ],
          [
            -101.191365,
            19.703236
          ],
          [
            -101.191365,
            19.702742
          ],
          [
            -101.191365,
            19.702049
          ],
          [
            -101.191365,
            19.701654
          ],
          [
            -101.191365,
            19.701159
          ],
          [
            -101.191365,
            19.700863
          ],
          [
            -101.191365,
            19.700368
          ],
          [
            -101.191365,
            19.699874
          ],
          [
            -101.191365,
            19.699478
          ],
          [
            -101.191365,
            19.699083
          ],
          [
            -101.191365,
            19.698489
          ],
          [
            -101.191365,
            19.698094
          ],
          [
            -101.191365,
            19.697402
          ],
          [
            -101.191365,
            19.696907
          ],
          [
            -101.191365,
            19.696314
          ],
          [
            -101.191365,
            19.695918
          ],
          [
            -101.191365,
            19.695523
          ],
          [
            -101.191365,
            19.694929
          ],
          [
            -101.191365,
            19.694633
          ],
          [
            -101.191365,
            19.694336
          ],
          [
            -101.191365,
            19.693842
          ],
          [
            -101.191365,
            19.693347
          ],
          [
            -101.191365,
            19.692853
          ],
          [
            -101.191365,
            19.692457
          ],
          [
            -101.191365,
            19.691963
          ],
          [
            -101.191365,
            19.691666
          ],
          [
            -101.191365,
            19.691271
          ],
          [
            -101.191365,
            19.690974
          ],
          [
            -101.191365,
            19.690578
          ],
          [
            -101.19147,
            19.690183
          ],
          [
            -101.19147,
            19.689787
          ],
          [
            -101.19147,
            19.689392
          ],
          [
            -101.19147,
            19.689095
          ],
          [
            -101.19147,
            19.688798
          ],
          [
            -101.19147,
            19.688502
          ],
          [
            -101.19147,
            19.688205
          ],
          [
            -101.19147,
            19.687908
          ],
          [
            -101.19147,
            19.687611
          ],
          [
            -101.19147,
            19.687315
          ],
          [
            -101.19147,
            19.687018
          ],
          [
            -101.19147,
            19.686721
          ],
          [
            -101.19147,
            19.686425
          ],
          [
            -101.19147,
            19.686128
          ],
          [
            -101.19147,
            19.685831
          ],
          [
            -101.19147,
            19.685535
          ],
          [
            -101.19147,
            19.685238
          ],
          [
            -101.19147,
            19.684941
          ],
          [
            -101.19147,
            19.684546
          ],
          [
            -101.19147,
            19.684249
          ],
          [
            -101.19147,
            19.683952
          ],
          [
            -101.19147,
            19.683656
          ],
          [
            -101.19147,
            19.683359
          ],
          [
            -101.191576,
            19.683062
          ],
          [
            -101.191576,
            19.682766
          ],
          [
            -101.191576,
            19.682469
          ],
          [
            -101.191576,
            19.682172
          ]
        ]
      }
    },
    {
      "type": "Feature",
      "properties": {
        "id": "rio-grande",
        "nombre": "Río Grande",
        "color": "#1976d2",
        "puntaje": 95,
        "longitud_metros": 25230.0,
        "participante": "eDFAR",
        "fecha": "2026-09-22",
        "dia_semana": "Martes",
        "hora": "11:43:44",
        "dificultad": "facil",
        "clientId": "b66675ee-7a42-4cff-98de-4b57aba579c2"
      },
      "geometry": {
        "type": "LineString",
        "coordinates": [
          [
            -101.260088,
            19.629124
          ],
          [
            -101.260481,
            19.62968
          ],
          [
            -101.261662,
            19.630607
          ],
          [
            -101.262646,
            19.631534
          ],
          [
            -101.263827,
            19.632646
          ],
          [
            -101.264614,
            19.633387
          ],
          [
            -101.265402,
            19.634685
          ],
          [
            -101.266583,
            19.636168
          ],
          [
            -101.26737,
            19.637095
          ],
          [
            -101.268747,
            19.638392
          ],
          [
            -101.269535,
            19.639319
          ],
          [
            -101.269928,
            19.64006
          ],
          [
            -101.270716,
            19.640987
          ],
          [
            -101.271503,
            19.641914
          ],
          [
            -101.2717,
            19.64247
          ],
          [
            -101.272093,
            19.643026
          ],
          [
            -101.272093,
            19.643582
          ],
          [
            -101.272093,
            19.644324
          ],
          [
            -101.272093,
            19.64488
          ],
          [
            -101.272093,
            19.645621
          ],
          [
            -101.272093,
            19.646177
          ],
          [
            -101.272093,
            19.646919
          ],
          [
            -101.271503,
            19.647845
          ],
          [
            -101.270716,
            19.649143
          ],
          [
            -101.270125,
            19.650255
          ],
          [
            -101.269535,
            19.650811
          ],
          [
            -101.268747,
            19.651552
          ],
          [
            -101.268551,
            19.652108
          ],
          [
            -101.26796,
            19.65285
          ],
          [
            -101.26737,
            19.653406
          ],
          [
            -101.266583,
            19.653962
          ],
          [
            -101.265598,
            19.654888
          ],
          [
            -101.265008,
            19.65563
          ],
          [
            -101.264221,
            19.656557
          ],
          [
            -101.263434,
            19.657113
          ],
          [
            -101.262646,
            19.65841
          ],
          [
            -101.261859,
            19.659522
          ],
          [
            -101.261072,
            19.660449
          ],
          [
            -101.260285,
            19.66119
          ],
          [
            -101.259497,
            19.661931
          ],
          [
            -101.258513,
            19.662858
          ],
          [
            -101.257923,
            19.663414
          ],
          [
            -101.257136,
            19.66397
          ],
          [
            -101.256545,
            19.664526
          ],
          [
            -101.255955,
            19.664897
          ],
          [
            -101.255364,
            19.665267
          ],
          [
            -101.254774,
            19.665823
          ],
          [
            -101.253987,
            19.666379
          ],
          [
            -101.253396,
            19.666935
          ],
          [
            -101.252609,
            19.667491
          ],
          [
            -101.252019,
            19.668233
          ],
          [
            -101.251428,
            19.669159
          ],
          [
            -101.250641,
            19.669901
          ],
          [
            -101.25005,
            19.670642
          ],
          [
            -101.249263,
            19.671383
          ],
          [
            -101.248673,
            19.671939
          ],
          [
            -101.248082,
            19.672495
          ],
          [
            -101.247492,
            19.673422
          ],
          [
            -101.246902,
            19.674163
          ],
          [
            -101.246311,
            19.674719
          ],
          [
            -101.245721,
            19.67546
          ],
          [
            -101.244737,
            19.676201
          ],
          [
            -101.244146,
            19.676757
          ],
          [
            -101.243162,
            19.677499
          ],
          [
            -101.242375,
            19.678425
          ],
          [
            -101.241588,
            19.679352
          ],
          [
            -101.2408,
            19.680093
          ],
          [
            -101.240407,
            19.680649
          ],
          [
            -101.23962,
            19.681205
          ],
          [
            -101.239226,
            19.681761
          ],
          [
            -101.238439,
            19.682502
          ],
          [
            -101.238242,
            19.683058
          ],
          [
            -101.237651,
            19.683429
          ],
          [
            -101.237061,
            19.683799
          ],
          [
            -101.236471,
            19.683985
          ],
          [
            -101.23588,
            19.684355
          ],
          [
            -101.23529,
            19.684726
          ],
          [
            -101.234699,
            19.685097
          ],
          [
            -101.234109,
            19.685652
          ],
          [
            -101.233125,
            19.686208
          ],
          [
            -101.232534,
            19.686764
          ],
          [
            -101.232141,
            19.687691
          ],
          [
            -101.231747,
            19.688247
          ],
          [
            -101.231157,
            19.688803
          ],
          [
            -101.23096,
            19.689544
          ],
          [
            -101.230369,
            19.690285
          ],
          [
            -101.229779,
            19.691397
          ],
          [
            -101.229189,
            19.692323
          ],
          [
            -101.228598,
            19.69325
          ],
          [
            -101.228008,
            19.693806
          ],
          [
            -101.227024,
            19.694176
          ],
          [
            -101.226433,
            19.694176
          ],
          [
            -101.225843,
            19.694362
          ],
          [
            -101.225252,
            19.694547
          ],
          [
            -101.224662,
            19.694732
          ],
          [
            -101.224072,
            19.694732
          ],
          [
            -101.223481,
            19.694732
          ],
          [
            -101.222694,
            19.695288
          ],
          [
            -101.221907,
            19.695473
          ],
          [
            -101.221316,
            19.695844
          ],
          [
            -101.220529,
            19.696215
          ],
          [
            -101.219545,
            19.696771
          ],
          [
            -101.218955,
            19.697326
          ],
          [
            -101.218364,
            19.697882
          ],
          [
            -101.217774,
            19.698253
          ],
          [
            -101.217183,
            19.698809
          ],
          [
            -101.216396,
            19.699179
          ],
          [
            -101.215806,
            19.69955
          ],
          [
            -101.215018,
            19.700106
          ],
          [
            -101.214428,
            19.700476
          ],
          [
            -101.213641,
            19.700662
          ],
          [
            -101.212853,
            19.701218
          ],
          [
            -101.212263,
            19.701218
          ],
          [
            -101.211476,
            19.701773
          ],
          [
            -101.210492,
            19.702144
          ],
          [
            -101.209901,
            19.702329
          ],
          [
            -101.209311,
            19.7027
          ],
          [
            -101.20872,
            19.702885
          ],
          [
            -101.20813,
            19.703256
          ],
          [
            -101.20754,
            19.703626
          ],
          [
            -101.206359,
            19.704182
          ],
          [
            -101.205571,
            19.704553
          ],
          [
            -101.204981,
            19.704738
          ],
          [
            -101.204391,
            19.704738
          ],
          [
            -101.203603,
            19.705109
          ],
          [
            -101.202619,
            19.705294
          ],
          [
            -101.201438,
            19.70585
          ],
          [
            -101.200848,
            19.70585
          ],
          [
            -101.200258,
            19.706035
          ],
          [
            -101.199667,
            19.706406
          ],
          [
            -101.199077,
            19.706406
          ],
          [
            -101.198289,
            19.706591
          ],
          [
            -101.197699,
            19.706961
          ],
          [
            -101.197109,
            19.707147
          ],
          [
            -101.196321,
            19.707517
          ],
          [
            -101.195731,
            19.707703
          ],
          [
            -101.19514,
            19.707888
          ],
          [
            -101.194353,
            19.708258
          ],
          [
            -101.193369,
            19.708629
          ],
          [
            -101.192385,
            19.708999
          ],
          [
            -101.191795,
            19.70937
          ],
          [
            -101.190811,
            19.709555
          ],
          [
            -101.19022,
            19.709926
          ],
          [
            -101.189236,
            19.710296
          ],
          [
            -101.188646,
            19.710482
          ],
          [
            -101.188055,
            19.710667
          ],
          [
            -101.187465,
            19.711038
          ],
          [
            -101.186678,
            19.711223
          ],
          [
            -101.185694,
            19.711593
          ],
          [
            -101.184513,
            19.711964
          ],
          [
            -101.183332,
            19.712334
          ],
          [
            -101.182741,
            19.71252
          ],
          [
            -101.181954,
            19.712705
          ],
          [
            -101.181167,
            19.713076
          ],
          [
            -101.180577,
            19.713261
          ],
          [
            -101.179986,
            19.713631
          ],
          [
            -101.179199,
            19.714002
          ],
          [
            -101.178412,
            19.714558
          ],
          [
            -101.177624,
            19.715114
          ],
          [
            -101.177034,
            19.715484
          ],
          [
            -101.176247,
            19.715855
          ],
          [
            -101.175656,
            19.716225
          ],
          [
            -101.175066,
            19.716781
          ],
          [
            -101.174279,
            19.717152
          ],
          [
            -101.173688,
            19.717522
          ],
          [
            -101.173098,
            19.718263
          ],
          [
            -101.172114,
            19.719004
          ],
          [
            -101.171326,
            19.719375
          ],
          [
            -101.170736,
            19.719745
          ],
          [
            -101.170146,
            19.720301
          ],
          [
            -101.168965,
            19.721228
          ],
          [
            -101.167981,
            19.721783
          ],
          [
            -101.167193,
            19.722339
          ],
          [
            -101.166209,
            19.72308
          ],
          [
            -101.165029,
            19.724006
          ],
          [
            -101.164045,
            19.724748
          ],
          [
            -101.16306,
            19.725489
          ],
          [
            -101.162076,
            19.726415
          ],
          [
            -101.161289,
            19.726971
          ],
          [
            -101.160502,
            19.727712
          ],
          [
            -101.159715,
            19.727897
          ],
          [
            -101.159124,
            19.728267
          ],
          [
            -101.158534,
            19.728638
          ],
          [
            -101.15755,
            19.729009
          ],
          [
            -101.156172,
            19.729564
          ],
          [
            -101.154794,
            19.729935
          ],
          [
            -101.15322,
            19.729935
          ],
          [
            -101.15263,
            19.730305
          ],
          [
            -101.151842,
            19.730305
          ],
          [
            -101.149874,
            19.730676
          ],
          [
            -101.147119,
            19.731417
          ],
          [
            -101.143773,
            19.732158
          ],
          [
            -101.142199,
            19.732714
          ],
          [
            -101.141018,
            19.732899
          ],
          [
            -101.140231,
            19.733084
          ],
          [
            -101.138459,
            19.73364
          ],
          [
            -101.137082,
            19.733825
          ],
          [
            -101.136098,
            19.734381
          ],
          [
            -101.13531,
            19.734751
          ],
          [
            -101.13472,
            19.735122
          ],
          [
            -101.134129,
            19.735492
          ],
          [
            -101.133539,
            19.735678
          ],
          [
            -101.132555,
            19.736233
          ],
          [
            -101.131964,
            19.736604
          ],
          [
            -101.131374,
            19.73716
          ],
          [
            -101.130784,
            19.737345
          ],
          [
            -101.129012,
            19.738086
          ],
          [
            -101.128028,
            19.738271
          ],
          [
            -101.127044,
            19.738456
          ],
          [
            -101.12606,
            19.738827
          ],
          [
            -101.125076,
            19.739197
          ],
          [
            -101.123698,
            19.739568
          ],
          [
            -101.121927,
            19.740124
          ],
          [
            -101.120353,
            19.740309
          ],
          [
            -101.119172,
            19.740865
          ],
          [
            -101.117991,
            19.74105
          ],
          [
            -101.117204,
            19.741235
          ],
          [
            -101.116417,
            19.74142
          ],
          [
            -101.115826,
            19.741606
          ],
          [
            -101.114842,
            19.741606
          ],
          [
            -101.114252,
            19.741606
          ],
          [
            -101.113268,
            19.741606
          ],
          [
            -101.112283,
            19.741606
          ],
          [
            -101.110906,
            19.741606
          ],
          [
            -101.109922,
            19.741791
          ],
          [
            -101.108544,
            19.741791
          ],
          [
            -101.104411,
            19.741791
          ],
          [
            -101.099884,
            19.74142
          ],
          [
            -101.096342,
            19.740494
          ],
          [
            -101.094767,
            19.740494
          ],
          [
            -101.093587,
            19.740494
          ],
          [
            -101.092799,
            19.740494
          ],
          [
            -101.092209,
            19.740494
          ],
          [
            -101.091618,
            19.740494
          ]
        ]
      }
    }
  ]
}