{
  "type": "FeatureCollection",
  "name": "Mi Croquis Mental de Morelia - Edgar Mora Prueba1",
  "crs": {
    "type": "name",
    "properties": {
      "name": "urn:ogc:def:crs:OGC:1.3:CRS84"
    }
  },
  "properties": {
    "participante": "Edgar Mora Prueba1",
    "fecha": "2026-09-14",
    "dia_semana": "Lunes",
    "hora": "09:30:38",
    "fecha_hora": "2026-09-14T09:30:38.608269",
    "timestamp": 1789399838,
    "puntaje_global": 14,
    "dificultad": "normal",
    "total_capas_trazadas": 8,
    "clientId": "b66675ee-7a42-4cff-98de-4b57aba579c2",
    "perLineScores": {
      "avenida-madero": 7,
      "calzada-la-huerta": 2,
      "calzada-ventura-puente": 3,
      "av-morelos": 4,
      "el-libramiento": 10,
      "rio-chiquito": 10,
      "acueducto-de-morelia": 2,
      "rio-grande": 74
    },
    "metadatos": {
      "difficulty": "normal",
      "playerName": "Edgar Mora Prueba1"
    }
  },
  "features": [
    {
      "type": "Feature",
      "properties": {
        "id": "avenida-madero",
        "nombre": "Avenida Madero",
        "color": "#f48fb1",
        "puntaje": 7,
        "longitud_metros": 9116.0,
        "participante": "Edgar Mora Prueba1",
        "fecha": "2026-09-14",
        "dia_semana": "Lunes",
        "hora": "09:30:38",
        "dificultad": "normal",
        "clientId": "b66675ee-7a42-4cff-98de-4b57aba579c2"
      },
      "geometry": {
        "type": "LineString",
        "coordinates": [
          [
            -101.202228,
            19.72601
          ],
          [
            -101.202488,
            19.72405
          ],
          [
            -101.20379,
            19.718659
          ],
          [
            -101.20431,
            19.711553
          ],
          [
            -101.20431,
            19.703466
          ],
          [
            -101.202228,
            19.690232
          ],
          [
            -101.198844,
            19.682634
          ],
          [
            -101.193377,
            19.675526
          ],
          [
            -101.184787,
            19.669398
          ],
          [
            -101.178019,
            19.664986
          ],
          [
            -101.172813,
            19.66278
          ],
          [
            -101.168649,
            19.661555
          ],
          [
            -101.167087,
            19.661309
          ]
        ]
      }
    },
    {
      "type": "Feature",
      "properties": {
        "id": "calzada-la-huerta",
        "nombre": "Calzada la Huerta",
        "color": "#2e7d32",
        "puntaje": 2,
        "longitud_metros": 16628.2,
        "participante": "Edgar Mora Prueba1",
        "fecha": "2026-09-14",
        "dia_semana": "Lunes",
        "hora": "09:30:38",
        "dificultad": "normal",
        "clientId": "b66675ee-7a42-4cff-98de-4b57aba579c2"
      },
      "geometry": {
        "type": "LineString",
        "coordinates": [
          [
            -101.268311,
            19.674346
          ],
          [
            -101.267464,
            19.674479
          ],
          [
            -101.2621,
            19.67541
          ],
          [
            -101.248972,
            19.677935
          ],
          [
            -101.229069,
            19.680992
          ],
          [
            -101.209448,
            19.684315
          ],
          [
            -101.188838,
            19.687106
          ],
          [
            -101.172463,
            19.689233
          ],
          [
            -101.156371,
            19.689233
          ],
          [
            -101.142679,
            19.689233
          ],
          [
            -101.132233,
            19.689233
          ],
          [
            -101.12334,
            19.689233
          ],
          [
            -101.117552,
            19.688435
          ],
          [
            -101.11247,
            19.687771
          ],
          [
            -101.111341,
            19.687771
          ],
          [
            -101.110917,
            19.687771
          ]
        ]
      }
    },
    {
      "type": "Feature",
      "properties": {
        "id": "calzada-ventura-puente",
        "nombre": "Calzada Ventura Puente",
        "color": "#ea580c",
        "puntaje": 3,
        "longitud_metros": 8838.3,
        "participante": "Edgar Mora Prueba1",
        "fecha": "2026-09-14",
        "dia_semana": "Lunes",
        "hora": "09:30:38",
        "dificultad": "normal",
        "clientId": "b66675ee-7a42-4cff-98de-4b57aba579c2"
      },
      "geometry": {
        "type": "LineString",
        "coordinates": [
          [
            -101.189722,
            19.714917
          ],
          [
            -101.188311,
            19.713854
          ],
          [
            -101.186758,
            19.712525
          ],
          [
            -101.183653,
            19.710133
          ],
          [
            -101.180547,
            19.707741
          ],
          [
            -101.17603,
            19.70402
          ],
          [
            -101.168689,
            19.697641
          ],
          [
            -101.157961,
            19.688604
          ],
          [
            -101.140598,
            19.676376
          ],
          [
            -101.131564,
            19.671059
          ],
          [
            -101.126906,
            19.6684
          ],
          [
            -101.125212,
            19.667337
          ],
          [
            -101.123941,
            19.666805
          ],
          [
            -101.123518,
            19.666672
          ],
          [
            -101.123094,
            19.666539
          ]
        ]
      }
    },
    {
      "type": "Feature",
      "properties": {
        "id": "av-morelos",
        "nombre": "Av Morelos",
        "color": "#e91e63",
        "puntaje": 4,
        "longitud_metros": 15388.5,
        "participante": "Edgar Mora Prueba1",
        "fecha": "2026-09-14",
        "dia_semana": "Lunes",
        "hora": "09:30:38",
        "dificultad": "normal",
        "clientId": "b66675ee-7a42-4cff-98de-4b57aba579c2"
      },
      "geometry": {
        "type": "LineString",
        "coordinates": [
          [
            -101.240204,
            19.709549
          ],
          [
            -101.238912,
            19.708789
          ],
          [
            -101.234554,
            19.706966
          ],
          [
            -101.225675,
            19.704382
          ],
          [
            -101.21034,
            19.700127
          ],
          [
            -101.183866,
            19.694352
          ],
          [
            -101.163365,
            19.688728
          ],
          [
            -101.143348,
            19.682952
          ],
          [
            -101.124622,
            19.678089
          ],
          [
            -101.10961,
            19.67368
          ],
          [
            -101.102507,
            19.671552
          ],
          [
            -101.099763,
            19.670792
          ],
          [
            -101.099278,
            19.670792
          ]
        ]
      }
    },
    {
      "type": "Feature",
      "properties": {
        "id": "el-libramiento",
        "nombre": "El Libramiento",
        "color": "#7c3aed",
        "puntaje": 10,
        "longitud_metros": 20730.1,
        "participante": "Edgar Mora Prueba1",
        "fecha": "2026-09-14",
        "dia_semana": "Lunes",
        "hora": "09:30:38",
        "dificultad": "normal",
        "clientId": "b66675ee-7a42-4cff-98de-4b57aba579c2"
      },
      "geometry": {
        "type": "LineString",
        "coordinates": [
          [
            -101.250219,
            19.660906
          ],
          [
            -101.248377,
            19.660906
          ],
          [
            -101.23825,
            19.660906
          ],
          [
            -101.214543,
            19.660906
          ],
          [
            -101.180938,
            19.660906
          ],
          [
            -101.160223,
            19.660906
          ],
          [
            -101.140889,
            19.663073
          ],
          [
            -101.123166,
            19.669142
          ],
          [
            -101.111658,
            19.675427
          ],
          [
            -101.103602,
            19.681279
          ],
          [
            -101.10061,
            19.685613
          ],
          [
            -101.098078,
            19.690381
          ],
          [
            -101.096697,
            19.694932
          ],
          [
            -101.095316,
            19.698833
          ],
          [
            -101.094395,
            19.7036
          ],
          [
            -101.094165,
            19.707934
          ],
          [
            -101.094165,
            19.715084
          ],
          [
            -101.094165,
            19.718984
          ],
          [
            -101.094165,
            19.722234
          ],
          [
            -101.094165,
            19.722884
          ]
        ]
      }
    },
    {
      "type": "Feature",
      "properties": {
        "id": "rio-chiquito",
        "nombre": "Río Chiquito",
        "color": "#00acc1",
        "puntaje": 10,
        "longitud_metros": 14242.5,
        "participante": "Edgar Mora Prueba1",
        "fecha": "2026-09-14",
        "dia_semana": "Lunes",
        "hora": "09:30:38",
        "dificultad": "normal",
        "clientId": "b66675ee-7a42-4cff-98de-4b57aba579c2"
      },
      "geometry": {
        "type": "LineString",
        "coordinates": [
          [
            -101.194595,
            19.708214
          ],
          [
            -101.192272,
            19.708214
          ],
          [
            -101.188399,
            19.707667
          ],
          [
            -101.185107,
            19.706573
          ],
          [
            -101.182396,
            19.705479
          ],
          [
            -101.179685,
            19.702927
          ],
          [
            -101.176394,
            19.697276
          ],
          [
            -101.172715,
            19.686702
          ],
          [
            -101.172134,
            19.68342
          ],
          [
            -101.171746,
            19.680868
          ],
          [
            -101.171746,
            19.679409
          ],
          [
            -101.173102,
            19.677404
          ],
          [
            -101.176006,
            19.674851
          ],
          [
            -101.182009,
            19.670475
          ],
          [
            -101.18685,
            19.667193
          ],
          [
            -101.190916,
            19.664093
          ],
          [
            -101.193433,
            19.661358
          ],
          [
            -101.19537,
            19.658805
          ],
          [
            -101.196144,
            19.656617
          ],
          [
            -101.196919,
            19.654611
          ],
          [
            -101.196919,
            19.654064
          ],
          [
            -101.195757,
            19.652788
          ],
          [
            -101.193046,
            19.650782
          ],
          [
            -101.186075,
            19.647135
          ],
          [
            -101.175038,
            19.644217
          ],
          [
            -101.162646,
            19.641117
          ],
          [
            -101.15219,
            19.638746
          ],
          [
            -101.146187,
            19.638199
          ],
          [
            -101.145219,
            19.638017
          ]
        ]
      }
    },
    {
      "type": "Feature",
      "properties": {
        "id": "acueducto-de-morelia",
        "nombre": "Acueducto de Morelia",
        "color": "#fbc02d",
        "puntaje": 2,
        "longitud_metros": 12544.1,
        "participante": "Edgar Mora Prueba1",
        "fecha": "2026-09-14",
        "dia_semana": "Lunes",
        "hora": "09:30:38",
        "dificultad": "normal",
        "clientId": "b66675ee-7a42-4cff-98de-4b57aba579c2"
      },
      "geometry": {
        "type": "LineString",
        "coordinates": [
          [
            -101.214216,
            19.706578
          ],
          [
            -101.212522,
            19.706578
          ],
          [
            -101.209416,
            19.706578
          ],
          [
            -101.204193,
            19.706977
          ],
          [
            -101.195723,
            19.70804
          ],
          [
            -101.186123,
            19.70897
          ],
          [
            -101.178076,
            19.70897
          ],
          [
            -101.169324,
            19.70897
          ],
          [
            -101.160289,
            19.708571
          ],
          [
            -101.146595,
            19.706445
          ],
          [
            -101.138408,
            19.705382
          ],
          [
            -101.130784,
            19.704319
          ],
          [
            -101.125561,
            19.704186
          ],
          [
            -101.120338,
            19.703787
          ],
          [
            -101.114973,
            19.703787
          ],
          [
            -101.108621,
            19.703388
          ],
          [
            -101.101703,
            19.703388
          ],
          [
            -101.098739,
            19.703388
          ],
          [
            -101.096621,
            19.703388
          ],
          [
            -101.095633,
            19.703255
          ],
          [
            -101.094927,
            19.703255
          ]
        ]
      }
    },
    {
      "type": "Feature",
      "properties": {
        "id": "rio-grande",
        "nombre": "Río Grande",
        "color": "#1976d2",
        "puntaje": 74,
        "longitud_metros": 23971.3,
        "participante": "Edgar Mora Prueba1",
        "fecha": "2026-09-14",
        "dia_semana": "Lunes",
        "hora": "09:30:38",
        "dificultad": "normal",
        "clientId": "b66675ee-7a42-4cff-98de-4b57aba579c2"
      },
      "geometry": {
        "type": "LineString",
        "coordinates": [
          [
            -101.261928,
            19.628346
          ],
          [
            -101.256217,
            19.633726
          ],
          [
            -101.248126,
            19.641794
          ],
          [
            -101.237655,
            19.656138
          ],
          [
            -101.231467,
            19.666447
          ],
          [
            -101.224328,
            19.676755
          ],
          [
            -101.216237,
            19.687958
          ],
          [
            -101.20767,
            19.698265
          ],
          [
            -101.198151,
            19.709467
          ],
          [
            -101.19006,
            19.716636
          ],
          [
            -101.183396,
            19.721116
          ],
          [
            -101.176733,
            19.725149
          ],
          [
            -101.17007,
            19.728285
          ],
          [
            -101.161978,
            19.732317
          ],
          [
            -101.151983,
            19.735453
          ],
          [
            -101.140085,
            19.740381
          ],
          [
            -101.131993,
            19.743517
          ],
          [
            -101.123426,
            19.74486
          ],
          [
            -101.115811,
            19.747548
          ],
          [
            -101.106292,
            19.749788
          ],
          [
            -101.101057,
            19.75158
          ],
          [
            -101.095345,
            19.753372
          ],
          [
            -101.091537,
            19.756059
          ],
          [
            -101.089634,
            19.757403
          ]
        ]
      }
    }
  ]
}