{
  "type": "FeatureCollection",
  "name": "Mi Croquis Mental de Morelia - Edgar Mora Prueba1",
  "crs": {
    "type": "name",
    "properties": {
      "name": "urn:ogc:def:crs:OGC:1.3:CRS84"
    }
  },
  "properties": {
    "participante": "Edgar Mora Prueba1",
    "fecha": "2026-09-22",
    "dia_semana": "Martes",
    "hora": "15:35:09",
    "fecha_hora": "2026-09-22T15:35:09.728193",
    "timestamp": 1790112909,
    "puntaje_global": 0,
    "dificultad": "facil",
    "total_capas_trazadas": 1,
    "clientId": "b66675ee-7a42-4cff-98de-4b57aba579c2",
    "perLineScores": {
      "calzada-ventura-puente": 3
    },
    "metadatos": {
      "difficulty": "facil",
      "playerName": "Edgar Mora Prueba1"
    }
  },
  "features": [
    {
      "type": "Feature",
      "properties": {
        "id": "calzada-ventura-puente",
        "nombre": "Calzada Ventura Puente",
        "color": "#ea580c",
        "puntaje": 3,
        "longitud_metros": 8706.9,
        "participante": "Edgar Mora Prueba1",
        "fecha": "2026-09-22",
        "dia_semana": "Martes",
        "hora": "15:35:09",
        "dificultad": "facil",
        "clientId": "b66675ee-7a42-4cff-98de-4b57aba579c2"
      },
      "geometry": {
        "type": "LineString",
        "coordinates": [
          [
            -101.223478,
            19.706276
          ],
          [
            -101.223128,
            19.706276
          ],
          [
            -101.222428,
            19.706276
          ],
          [
            -101.221494,
            19.706276
          ],
          [
            -101.220677,
            19.706276
          ],
          [
            -101.219801,
            19.706221
          ],
          [
            -101.219159,
            19.706056
          ],
          [
            -101.218517,
            19.705727
          ],
          [
            -101.217816,
            19.705562
          ],
          [
            -101.216532,
            19.705012
          ],
          [
            -101.215949,
            19.704792
          ],
          [
            -101.214548,
            19.704188
          ],
          [
            -101.213906,
            19.703858
          ],
          [
            -101.21338,
            19.703528
          ],
          [
            -101.213088,
            19.703309
          ],
          [
            -101.212213,
            19.702484
          ],
          [
            -101.211571,
            19.70177
          ],
          [
            -101.210987,
            19.701165
          ],
          [
            -101.210462,
            19.700506
          ],
          [
            -101.209936,
            19.700011
          ],
          [
            -101.209469,
            19.699627
          ],
          [
            -101.208244,
            19.698912
          ],
          [
            -101.20731,
            19.698198
          ],
          [
            -101.206317,
            19.697703
          ],
          [
            -101.205909,
            19.697483
          ],
          [
            -101.204683,
            19.696879
          ],
          [
            -101.203982,
            19.696494
          ],
          [
            -101.202698,
            19.69611
          ],
          [
            -101.200947,
            19.69567
          ],
          [
            -101.20013,
            19.695395
          ],
          [
            -101.19727,
            19.695065
          ],
          [
            -101.195694,
            19.694846
          ],
          [
            -101.194351,
            19.694681
          ],
          [
            -101.192542,
            19.694351
          ],
          [
            -101.189039,
            19.693801
          ],
          [
            -101.18688,
            19.693527
          ],
          [
            -101.185537,
            19.693307
          ],
          [
            -101.18472,
            19.693142
          ],
          [
            -101.183786,
            19.692922
          ],
          [
            -101.183144,
            19.692812
          ],
          [
            -101.180109,
            19.691658
          ],
          [
            -101.179058,
            19.691108
          ],
          [
            -101.176606,
            19.690119
          ],
          [
            -101.175205,
            19.689625
          ],
          [
            -101.172987,
            19.68847
          ],
          [
            -101.171995,
            19.687976
          ],
          [
            -101.16966,
            19.686492
          ],
          [
            -101.168142,
            19.685668
          ],
          [
            -101.167559,
            19.685393
          ],
          [
            -101.165983,
            19.684568
          ],
          [
            -101.16464,
            19.683579
          ],
          [
            -101.163356,
            19.682535
          ],
          [
            -101.162247,
            19.68171
          ],
          [
            -101.161255,
            19.681216
          ],
          [
            -101.160554,
            19.680886
          ],
          [
            -101.159912,
            19.680611
          ],
          [
            -101.15927,
            19.680391
          ],
          [
            -101.158628,
            19.680281
          ],
          [
            -101.158161,
            19.680171
          ],
          [
            -101.157577,
            19.679952
          ],
          [
            -101.156702,
            19.679567
          ],
          [
            -101.156235,
            19.679402
          ],
          [
            -101.155943,
            19.679237
          ],
          [
            -101.155593,
            19.679127
          ],
          [
            -101.154659,
            19.678523
          ],
          [
            -101.152849,
            19.677313
          ],
          [
            -101.150631,
            19.676104
          ],
          [
            -101.149872,
            19.675665
          ],
          [
            -101.149522,
            19.6755
          ],
          [
            -101.149289,
            19.67539
          ],
          [
            -101.149113,
            19.67528
          ]
        ]
      }
    }
  ]
}