{
  "type": "FeatureCollection",
  "name": "Mi Croquis Mental de Morelia - Edgar LOGOS",
  "crs": {
    "type": "name",
    "properties": {
      "name": "urn:ogc:def:crs:OGC:1.3:CRS84"
    }
  },
  "properties": {
    "participante": "Edgar LOGOS",
    "fecha": "2026-09-21",
    "dia_semana": "Lunes",
    "hora": "13:01:15",
    "fecha_hora": "2026-09-21T13:01:15.965445",
    "timestamp": 1790017275,
    "puntaje_global": 94,
    "dificultad": "normal",
    "total_capas_trazadas": 8,
    "clientId": "b66675ee-7a42-4cff-98de-4b57aba579c2",
    "perLineScores": {
      "acueducto-de-morelia": 100,
      "rio-grande": 78,
      "rio-chiquito": 98,
      "av-morelos": 89,
      "avenida-madero": 92,
      "calzada-ventura-puente": 100,
      "el-libramiento": 92,
      "calzada-la-huerta": 100
    },
    "metadatos": {
      "difficulty": "normal",
      "playerName": "Edgar LOGOS"
    }
  },
  "features": [
    {
      "type": "Feature",
      "properties": {
        "id": "acueducto-de-morelia",
        "nombre": "Acueducto de Morelia",
        "color": "#fbc02d",
        "puntaje": 100,
        "longitud_metros": 1887.1,
        "participante": "Edgar LOGOS",
        "fecha": "2026-09-21",
        "dia_semana": "Lunes",
        "hora": "13:01:15",
        "dificultad": "normal",
        "clientId": "b66675ee-7a42-4cff-98de-4b57aba579c2"
      },
      "geometry": {
        "type": "LineString",
        "coordinates": [
          [
            -101.184203,
            19.703418
          ],
          [
            -101.184085,
            19.703362
          ],
          [
            -101.183996,
            19.703278
          ],
          [
            -101.183908,
            19.703195
          ],
          [
            -101.183789,
            19.703028
          ],
          [
            -101.18376,
            19.702889
          ],
          [
            -101.183701,
            19.702777
          ],
          [
            -101.183642,
            19.702638
          ],
          [
            -101.183612,
            19.702554
          ],
          [
            -101.183582,
            19.702415
          ],
          [
            -101.183553,
            19.702332
          ],
          [
            -101.183494,
            19.702165
          ],
          [
            -101.183434,
            19.701998
          ],
          [
            -101.183316,
            19.701775
          ],
          [
            -101.183227,
            19.701636
          ],
          [
            -101.18305,
            19.701441
          ],
          [
            -101.182902,
            19.701357
          ],
          [
            -101.182754,
            19.701246
          ],
          [
            -101.182547,
            19.701107
          ],
          [
            -101.182429,
            19.700995
          ],
          [
            -101.182281,
            19.700884
          ],
          [
            -101.182104,
            19.700772
          ],
          [
            -101.181867,
            19.700689
          ],
          [
            -101.18166,
            19.700578
          ],
          [
            -101.181512,
            19.70055
          ],
          [
            -101.181305,
            19.700466
          ],
          [
            -101.180802,
            19.700355
          ],
          [
            -101.180418,
            19.700299
          ],
          [
            -101.180122,
            19.700243
          ],
          [
            -101.179886,
            19.700216
          ],
          [
            -101.179679,
            19.700188
          ],
          [
            -101.179531,
            19.700188
          ],
          [
            -101.179146,
            19.700132
          ],
          [
            -101.178762,
            19.700076
          ],
          [
            -101.178377,
            19.700049
          ],
          [
            -101.178052,
            19.699993
          ],
          [
            -101.177815,
            19.699965
          ],
          [
            -101.17752,
            19.699937
          ],
          [
            -101.176869,
            19.699826
          ],
          [
            -101.176455,
            19.699798
          ],
          [
            -101.176189,
            19.699687
          ],
          [
            -101.175982,
            19.699659
          ],
          [
            -101.175834,
            19.699603
          ],
          [
            -101.175509,
            19.699519
          ],
          [
            -101.175154,
            19.699408
          ],
          [
            -101.17471,
            19.699269
          ],
          [
            -101.174237,
            19.699158
          ],
          [
            -101.173823,
            19.699018
          ],
          [
            -101.173497,
            19.698963
          ],
          [
            -101.173143,
            19.698907
          ],
          [
            -101.172758,
            19.698851
          ],
          [
            -101.172462,
            19.698768
          ],
          [
            -101.172078,
            19.698656
          ],
          [
            -101.171753,
            19.698601
          ],
          [
            -101.171427,
            19.698489
          ],
          [
            -101.171191,
            19.698461
          ],
          [
            -101.170984,
            19.698434
          ],
          [
            -101.170747,
            19.69835
          ],
          [
            -101.170422,
            19.698239
          ],
          [
            -101.170037,
            19.698127
          ],
          [
            -101.169741,
            19.698099
          ],
          [
            -101.169534,
            19.698099
          ],
          [
            -101.169357,
            19.698072
          ],
          [
            -101.169091,
            19.697988
          ],
          [
            -101.168766,
            19.69796
          ],
          [
            -101.16847,
            19.697932
          ],
          [
            -101.168322,
            19.697905
          ],
          [
            -101.168233,
            19.697905
          ],
          [
            -101.168144,
            19.697877
          ]
        ]
      }
    },
    {
      "type": "Feature",
      "properties": {
        "id": "rio-grande",
        "nombre": "Río Grande",
        "color": "#1976d2",
        "puntaje": 78,
        "longitud_metros": 25309.1,
        "participante": "Edgar LOGOS",
        "fecha": "2026-09-21",
        "dia_semana": "Lunes",
        "hora": "13:01:15",
        "dificultad": "normal",
        "clientId": "b66675ee-7a42-4cff-98de-4b57aba579c2"
      },
      "geometry": {
        "type": "LineString",
        "coordinates": [
          [
            -101.260786,
            19.615187
          ],
          [
            -101.261615,
            19.616229
          ],
          [
            -101.261892,
            19.61701
          ],
          [
            -101.262445,
            19.618052
          ],
          [
            -101.264104,
            19.620657
          ],
          [
            -101.265486,
            19.623001
          ],
          [
            -101.267145,
            19.627168
          ],
          [
            -101.267698,
            19.628731
          ],
          [
            -101.268251,
            19.629772
          ],
          [
            -101.268528,
            19.630814
          ],
          [
            -101.268804,
            19.631856
          ],
          [
            -101.269081,
            19.632637
          ],
          [
            -101.269357,
            19.633418
          ],
          [
            -101.26991,
            19.63472
          ],
          [
            -101.26991,
            19.636543
          ],
          [
            -101.26991,
            19.638366
          ],
          [
            -101.270187,
            19.640189
          ],
          [
            -101.27074,
            19.641491
          ],
          [
            -101.271016,
            19.643575
          ],
          [
            -101.271016,
            19.644616
          ],
          [
            -101.271016,
            19.645918
          ],
          [
            -101.271016,
            19.6467
          ],
          [
            -101.271016,
            19.647741
          ],
          [
            -101.27074,
            19.648522
          ],
          [
            -101.27074,
            19.649564
          ],
          [
            -101.270463,
            19.650866
          ],
          [
            -101.269634,
            19.652168
          ],
          [
            -101.268804,
            19.653991
          ],
          [
            -101.267975,
            19.655553
          ],
          [
            -101.266592,
            19.657116
          ],
          [
            -101.26521,
            19.658678
          ],
          [
            -101.263827,
            19.660501
          ],
          [
            -101.261892,
            19.662844
          ],
          [
            -101.261062,
            19.663625
          ],
          [
            -101.25968,
            19.665187
          ],
          [
            -101.257744,
            19.66701
          ],
          [
            -101.254426,
            19.670135
          ],
          [
            -101.251937,
            19.671957
          ],
          [
            -101.249725,
            19.673519
          ],
          [
            -101.24696,
            19.676904
          ],
          [
            -101.245854,
            19.678466
          ],
          [
            -101.244195,
            19.680028
          ],
          [
            -101.241983,
            19.681851
          ],
          [
            -101.239495,
            19.683673
          ],
          [
            -101.237006,
            19.685756
          ],
          [
            -101.235071,
            19.687318
          ],
          [
            -101.232582,
            19.68914
          ],
          [
            -101.229817,
            19.691223
          ],
          [
            -101.227605,
            19.692525
          ],
          [
            -101.225946,
            19.693826
          ],
          [
            -101.223458,
            19.694868
          ],
          [
            -101.218204,
            19.698773
          ],
          [
            -101.214056,
            19.701376
          ],
          [
            -101.210462,
            19.703719
          ],
          [
            -101.206314,
            19.705801
          ],
          [
            -101.202996,
            19.707623
          ],
          [
            -101.200508,
            19.709185
          ],
          [
            -101.197466,
            19.711528
          ],
          [
            -101.193872,
            19.714131
          ],
          [
            -101.190001,
            19.716213
          ],
          [
            -101.187512,
            19.718035
          ],
          [
            -101.1853,
            19.719597
          ],
          [
            -101.183917,
            19.720378
          ],
          [
            -101.181429,
            19.721679
          ],
          [
            -101.17977,
            19.7222
          ],
          [
            -101.177558,
            19.72272
          ],
          [
            -101.175069,
            19.723761
          ],
          [
            -101.172028,
            19.724803
          ],
          [
            -101.169539,
            19.725323
          ],
          [
            -101.167051,
            19.726625
          ],
          [
            -101.164009,
            19.727666
          ],
          [
            -101.161797,
            19.728186
          ],
          [
            -101.160968,
            19.728446
          ],
          [
            -101.157097,
            19.728967
          ],
          [
            -101.154608,
            19.729488
          ],
          [
            -101.149631,
            19.730529
          ],
          [
            -101.147142,
            19.731309
          ],
          [
            -101.145207,
            19.73209
          ],
          [
            -101.144101,
            19.73209
          ],
          [
            -101.142442,
            19.732871
          ],
          [
            -101.140783,
            19.733131
          ],
          [
            -101.138847,
            19.733912
          ],
          [
            -101.137188,
            19.734433
          ],
          [
            -101.135806,
            19.734953
          ],
          [
            -101.134976,
            19.734953
          ],
          [
            -101.133317,
            19.735474
          ],
          [
            -101.132488,
            19.735474
          ],
          [
            -101.129723,
            19.736255
          ],
          [
            -101.128064,
            19.736775
          ],
          [
            -101.125852,
            19.737556
          ],
          [
            -101.124193,
            19.738076
          ],
          [
            -101.121704,
            19.738597
          ],
          [
            -101.119769,
            19.739117
          ],
          [
            -101.11811,
            19.739117
          ],
          [
            -101.117004,
            19.739117
          ],
          [
            -101.115345,
            19.739378
          ],
          [
            -101.113132,
            19.739638
          ],
          [
            -101.110644,
            19.740158
          ],
          [
            -101.108708,
            19.740158
          ],
          [
            -101.107049,
            19.740419
          ],
          [
            -101.10622,
            19.740679
          ],
          [
            -101.105114,
            19.740939
          ],
          [
            -101.104008,
            19.740939
          ],
          [
            -101.103178,
            19.741199
          ],
          [
            -101.102072,
            19.741199
          ],
          [
            -101.101243,
            19.74146
          ]
        ]
      }
    },
    {
      "type": "Feature",
      "properties": {
        "id": "rio-chiquito",
        "nombre": "Río Chiquito",
        "color": "#00acc1",
        "puntaje": 98,
        "longitud_metros": 7875.3,
        "participante": "Edgar LOGOS",
        "fecha": "2026-09-21",
        "dia_semana": "Lunes",
        "hora": "13:01:15",
        "dificultad": "normal",
        "clientId": "b66675ee-7a42-4cff-98de-4b57aba579c2"
      },
      "geometry": {
        "type": "LineString",
        "coordinates": [
          [
            -101.149877,
            19.673113
          ],
          [
            -101.149877,
            19.673537
          ],
          [
            -101.150102,
            19.673854
          ],
          [
            -101.15044,
            19.674384
          ],
          [
            -101.150665,
            19.674702
          ],
          [
            -101.151002,
            19.675019
          ],
          [
            -101.15134,
            19.675443
          ],
          [
            -101.151565,
            19.675867
          ],
          [
            -101.151902,
            19.676079
          ],
          [
            -101.152239,
            19.676502
          ],
          [
            -101.152577,
            19.676714
          ],
          [
            -101.153027,
            19.676926
          ],
          [
            -101.153702,
            19.677456
          ],
          [
            -101.154377,
            19.677773
          ],
          [
            -101.155164,
            19.678197
          ],
          [
            -101.155727,
            19.678303
          ],
          [
            -101.156289,
            19.678621
          ],
          [
            -101.157077,
            19.679044
          ],
          [
            -101.158089,
            19.679468
          ],
          [
            -101.159326,
            19.680104
          ],
          [
            -101.160001,
            19.680421
          ],
          [
            -101.160901,
            19.680739
          ],
          [
            -101.161914,
            19.681057
          ],
          [
            -101.162814,
            19.681481
          ],
          [
            -101.164613,
            19.682222
          ],
          [
            -101.165513,
            19.68254
          ],
          [
            -101.166638,
            19.683069
          ],
          [
            -101.168101,
            19.683599
          ],
          [
            -101.169451,
            19.684234
          ],
          [
            -101.170575,
            19.684552
          ],
          [
            -101.171813,
            19.685082
          ],
          [
            -101.172938,
            19.685611
          ],
          [
            -101.174288,
            19.686035
          ],
          [
            -101.175863,
            19.686459
          ],
          [
            -101.177437,
            19.686776
          ],
          [
            -101.17845,
            19.687094
          ],
          [
            -101.1798,
            19.687518
          ],
          [
            -101.1807,
            19.68773
          ],
          [
            -101.18205,
            19.688047
          ],
          [
            -101.183512,
            19.688471
          ],
          [
            -101.185087,
            19.688895
          ],
          [
            -101.186437,
            19.689424
          ],
          [
            -101.188124,
            19.689954
          ],
          [
            -101.189249,
            19.690166
          ],
          [
            -101.190149,
            19.690483
          ],
          [
            -101.191049,
            19.690589
          ],
          [
            -101.191836,
            19.691013
          ],
          [
            -101.192511,
            19.691437
          ],
          [
            -101.194086,
            19.692178
          ],
          [
            -101.194873,
            19.692602
          ],
          [
            -101.195211,
            19.692814
          ],
          [
            -101.195773,
            19.693131
          ],
          [
            -101.196223,
            19.693449
          ],
          [
            -101.196673,
            19.693661
          ],
          [
            -101.197236,
            19.694084
          ],
          [
            -101.198023,
            19.694826
          ],
          [
            -101.198811,
            19.69525
          ],
          [
            -101.199711,
            19.695779
          ],
          [
            -101.200386,
            19.696203
          ],
          [
            -101.201173,
            19.696626
          ],
          [
            -101.202073,
            19.697262
          ],
          [
            -101.202523,
            19.69758
          ],
          [
            -101.202973,
            19.698003
          ],
          [
            -101.203423,
            19.698427
          ],
          [
            -101.20376,
            19.698744
          ],
          [
            -101.20421,
            19.699062
          ],
          [
            -101.204773,
            19.699698
          ],
          [
            -101.20511,
            19.699909
          ],
          [
            -101.20556,
            19.700227
          ],
          [
            -101.205898,
            19.700545
          ],
          [
            -101.206235,
            19.700863
          ],
          [
            -101.206572,
            19.701286
          ],
          [
            -101.206797,
            19.70171
          ],
          [
            -101.207022,
            19.702133
          ],
          [
            -101.207247,
            19.702451
          ],
          [
            -101.20736,
            19.702981
          ],
          [
            -101.207472,
            19.703404
          ],
          [
            -101.207697,
            19.703722
          ],
          [
            -101.207922,
            19.704252
          ],
          [
            -101.208147,
            19.704781
          ],
          [
            -101.20826,
            19.705311
          ],
          [
            -101.208372,
            19.705628
          ],
          [
            -101.208485,
            19.706052
          ],
          [
            -101.208597,
            19.70637
          ],
          [
            -101.208935,
            19.706687
          ],
          [
            -101.209272,
            19.706899
          ],
          [
            -101.209947,
            19.707323
          ],
          [
            -101.21051,
            19.707535
          ],
          [
            -101.210847,
            19.70764
          ],
          [
            -101.211185,
            19.707852
          ],
          [
            -101.211522,
            19.707852
          ],
          [
            -101.21186,
            19.707852
          ]
        ]
      }
    },
    {
      "type": "Feature",
      "properties": {
        "id": "av-morelos",
        "nombre": "Av Morelos",
        "color": "#e91e63",
        "puntaje": 89,
        "longitud_metros": 4319.1,
        "participante": "Edgar LOGOS",
        "fecha": "2026-09-21",
        "dia_semana": "Lunes",
        "hora": "13:01:15",
        "dificultad": "normal",
        "clientId": "b66675ee-7a42-4cff-98de-4b57aba579c2"
      },
      "geometry": {
        "type": "LineString",
        "coordinates": [
          [
            -101.185967,
            19.722328
          ],
          [
            -101.186061,
            19.721534
          ],
          [
            -101.186155,
            19.720739
          ],
          [
            -101.186343,
            19.72021
          ],
          [
            -101.186343,
            19.71968
          ],
          [
            -101.186343,
            19.719062
          ],
          [
            -101.186343,
            19.718444
          ],
          [
            -101.186343,
            19.71765
          ],
          [
            -101.186343,
            19.716502
          ],
          [
            -101.186343,
            19.715619
          ],
          [
            -101.186343,
            19.714824
          ],
          [
            -101.186343,
            19.714207
          ],
          [
            -101.186343,
            19.713677
          ],
          [
            -101.186343,
            19.713235
          ],
          [
            -101.186343,
            19.712882
          ],
          [
            -101.186343,
            19.712529
          ],
          [
            -101.186343,
            19.712264
          ],
          [
            -101.186343,
            19.711823
          ],
          [
            -101.186343,
            19.71147
          ],
          [
            -101.186343,
            19.711205
          ],
          [
            -101.186343,
            19.710852
          ],
          [
            -101.186343,
            19.710587
          ],
          [
            -101.186343,
            19.710234
          ],
          [
            -101.186343,
            19.709527
          ],
          [
            -101.186343,
            19.709086
          ],
          [
            -101.186436,
            19.708556
          ],
          [
            -101.186436,
            19.708203
          ],
          [
            -101.186436,
            19.707938
          ],
          [
            -101.186436,
            19.707585
          ],
          [
            -101.186624,
            19.70732
          ],
          [
            -101.186624,
            19.706967
          ],
          [
            -101.186624,
            19.706614
          ],
          [
            -101.186624,
            19.706349
          ],
          [
            -101.186624,
            19.706084
          ],
          [
            -101.186624,
            19.705819
          ],
          [
            -101.186624,
            19.705554
          ],
          [
            -101.186718,
            19.705201
          ],
          [
            -101.186811,
            19.70476
          ],
          [
            -101.186811,
            19.704318
          ],
          [
            -101.186811,
            19.703965
          ],
          [
            -101.186811,
            19.703612
          ],
          [
            -101.186905,
            19.703347
          ],
          [
            -101.186905,
            19.703082
          ],
          [
            -101.186999,
            19.702729
          ],
          [
            -101.187093,
            19.702464
          ],
          [
            -101.187187,
            19.702023
          ],
          [
            -101.18728,
            19.701581
          ],
          [
            -101.18728,
            19.701228
          ],
          [
            -101.187374,
            19.700699
          ],
          [
            -101.187468,
            19.700169
          ],
          [
            -101.187655,
            19.699816
          ],
          [
            -101.187655,
            19.699374
          ],
          [
            -101.187843,
            19.698933
          ],
          [
            -101.188031,
            19.698226
          ],
          [
            -101.188124,
            19.697432
          ],
          [
            -101.188406,
            19.696725
          ],
          [
            -101.188687,
            19.696107
          ],
          [
            -101.188687,
            19.695489
          ],
          [
            -101.189062,
            19.69443
          ],
          [
            -101.18925,
            19.693988
          ],
          [
            -101.18925,
            19.69337
          ],
          [
            -101.189344,
            19.693017
          ],
          [
            -101.189437,
            19.692399
          ],
          [
            -101.189437,
            19.692046
          ],
          [
            -101.189531,
            19.691693
          ],
          [
            -101.189625,
            19.691074
          ],
          [
            -101.189719,
            19.69028
          ],
          [
            -101.189812,
            19.689662
          ],
          [
            -101.189906,
            19.689397
          ],
          [
            -101.189906,
            19.689132
          ],
          [
            -101.19,
            19.68869
          ],
          [
            -101.190094,
            19.688161
          ],
          [
            -101.190094,
            19.687719
          ],
          [
            -101.190281,
            19.687278
          ],
          [
            -101.190281,
            19.686925
          ],
          [
            -101.190375,
            19.686571
          ],
          [
            -101.190469,
            19.685865
          ],
          [
            -101.190469,
            19.684982
          ],
          [
            -101.190469,
            19.684364
          ],
          [
            -101.190469,
            19.684099
          ]
        ]
      }
    },
    {
      "type": "Feature",
      "properties": {
        "id": "avenida-madero",
        "nombre": "Avenida Madero",
        "color": "#f48fb1",
        "puntaje": 92,
        "longitud_metros": 21541.0,
        "participante": "Edgar LOGOS",
        "fecha": "2026-09-21",
        "dia_semana": "Lunes",
        "hora": "13:01:15",
        "dificultad": "normal",
        "clientId": "b66675ee-7a42-4cff-98de-4b57aba579c2"
      },
      "geometry": {
        "type": "LineString",
        "coordinates": [
          [
            -101.305604,
            19.687634
          ],
          [
            -101.304794,
            19.687787
          ],
          [
            -101.304146,
            19.687787
          ],
          [
            -101.303012,
            19.688244
          ],
          [
            -101.301231,
            19.688702
          ],
          [
            -101.298801,
            19.689312
          ],
          [
            -101.296695,
            19.689922
          ],
          [
            -101.295076,
            19.690379
          ],
          [
            -101.293456,
            19.690684
          ],
          [
            -101.291836,
            19.691294
          ],
          [
            -101.289731,
            19.691752
          ],
          [
            -101.287463,
            19.692362
          ],
          [
            -101.284062,
            19.693429
          ],
          [
            -101.281147,
            19.693887
          ],
          [
            -101.278717,
            19.694649
          ],
          [
            -101.275316,
            19.695259
          ],
          [
            -101.271591,
            19.695564
          ],
          [
            -101.267379,
            19.696479
          ],
          [
            -101.26414,
            19.696937
          ],
          [
            -101.26171,
            19.697242
          ],
          [
            -101.258957,
            19.697547
          ],
          [
            -101.25507,
            19.698004
          ],
          [
            -101.250697,
            19.698766
          ],
          [
            -101.246809,
            19.699224
          ],
          [
            -101.242436,
            19.699986
          ],
          [
            -101.239521,
            19.700291
          ],
          [
            -101.235796,
            19.701206
          ],
          [
            -101.232394,
            19.701664
          ],
          [
            -101.228507,
            19.701969
          ],
          [
            -101.22624,
            19.702426
          ],
          [
            -101.224134,
            19.702731
          ],
          [
            -101.222352,
            19.703341
          ],
          [
            -101.219923,
            19.703646
          ],
          [
            -101.217169,
            19.704103
          ],
          [
            -101.21474,
            19.704256
          ],
          [
            -101.213282,
            19.704408
          ],
          [
            -101.210853,
            19.704866
          ],
          [
            -101.209557,
            19.705018
          ],
          [
            -101.207127,
            19.705323
          ],
          [
            -101.20567,
            19.705476
          ],
          [
            -101.204374,
            19.705628
          ],
          [
            -101.203564,
            19.705781
          ],
          [
            -101.202592,
            19.705781
          ],
          [
            -101.201297,
            19.706086
          ],
          [
            -101.199839,
            19.706543
          ],
          [
            -101.198543,
            19.706848
          ],
          [
            -101.197733,
            19.707001
          ],
          [
            -101.196761,
            19.707306
          ],
          [
            -101.194332,
            19.707611
          ],
          [
            -101.193522,
            19.707916
          ],
          [
            -101.19255,
            19.70822
          ],
          [
            -101.19174,
            19.708373
          ],
          [
            -101.191093,
            19.708678
          ],
          [
            -101.190121,
            19.70883
          ],
          [
            -101.189311,
            19.709135
          ],
          [
            -101.188501,
            19.709288
          ],
          [
            -101.188015,
            19.70944
          ],
          [
            -101.187529,
            19.70944
          ],
          [
            -101.186719,
            19.709593
          ],
          [
            -101.18591,
            19.709745
          ],
          [
            -101.1851,
            19.709745
          ],
          [
            -101.184452,
            19.709898
          ],
          [
            -101.183966,
            19.710203
          ],
          [
            -101.182994,
            19.710355
          ],
          [
            -101.182346,
            19.710355
          ],
          [
            -101.18186,
            19.710508
          ],
          [
            -101.181213,
            19.710813
          ],
          [
            -101.180727,
            19.710813
          ],
          [
            -101.180241,
            19.710965
          ],
          [
            -101.179755,
            19.711118
          ],
          [
            -101.179269,
            19.711118
          ],
          [
            -101.178783,
            19.71127
          ],
          [
            -101.178135,
            19.711423
          ],
          [
            -101.177487,
            19.711575
          ],
          [
            -101.177001,
            19.711727
          ],
          [
            -101.176516,
            19.71188
          ],
          [
            -101.17603,
            19.71188
          ],
          [
            -101.175382,
            19.71188
          ],
          [
            -101.174896,
            19.71188
          ],
          [
            -101.174086,
            19.712032
          ],
          [
            -101.173276,
            19.712032
          ],
          [
            -101.172466,
            19.712337
          ],
          [
            -101.171818,
            19.712337
          ],
          [
            -101.171333,
            19.712337
          ],
          [
            -101.170685,
            19.71249
          ],
          [
            -101.170037,
            19.712642
          ],
          [
            -101.169389,
            19.712642
          ],
          [
            -101.168741,
            19.712795
          ],
          [
            -101.167283,
            19.712947
          ],
          [
            -101.166474,
            19.7131
          ],
          [
            -101.165664,
            19.713405
          ],
          [
            -101.164854,
            19.71371
          ],
          [
            -101.163396,
            19.714015
          ],
          [
            -101.161453,
            19.714472
          ],
          [
            -101.159509,
            19.715082
          ],
          [
            -101.157403,
            19.715844
          ],
          [
            -101.155784,
            19.716607
          ],
          [
            -101.154812,
            19.717064
          ],
          [
            -101.153516,
            19.717521
          ],
          [
            -101.152058,
            19.717979
          ],
          [
            -101.150439,
            19.718894
          ],
          [
            -101.149791,
            19.719199
          ],
          [
            -101.149143,
            19.719656
          ],
          [
            -101.148495,
            19.719961
          ],
          [
            -101.147847,
            19.720418
          ],
          [
            -101.147199,
            19.720876
          ],
          [
            -101.146551,
            19.721333
          ],
          [
            -101.146066,
            19.721638
          ],
          [
            -101.14558,
            19.722096
          ],
          [
            -101.145094,
            19.7224
          ],
          [
            -101.144446,
            19.72301
          ],
          [
            -101.143474,
            19.72362
          ],
          [
            -101.142502,
            19.724383
          ],
          [
            -101.141854,
            19.724992
          ],
          [
            -101.140883,
            19.725602
          ],
          [
            -101.140235,
            19.72606
          ],
          [
            -101.139749,
            19.726517
          ],
          [
            -101.139101,
            19.726974
          ],
          [
            -101.138453,
            19.727584
          ],
          [
            -101.137805,
            19.728194
          ],
          [
            -101.136833,
            19.728651
          ],
          [
            -101.136348,
            19.729109
          ],
          [
            -101.1357,
            19.729414
          ],
          [
            -101.13489,
            19.730024
          ],
          [
            -101.134242,
            19.730481
          ],
          [
            -101.133756,
            19.730786
          ],
          [
            -101.13327,
            19.730786
          ],
          [
            -101.132298,
            19.731243
          ],
          [
            -101.131812,
            19.731396
          ],
          [
            -101.131327,
            19.731548
          ],
          [
            -101.130841,
            19.731853
          ],
          [
            -101.130355,
            19.732006
          ],
          [
            -101.129869,
            19.73231
          ],
          [
            -101.129221,
            19.732463
          ],
          [
            -101.128735,
            19.73292
          ],
          [
            -101.127925,
            19.733225
          ],
          [
            -101.127439,
            19.733378
          ],
          [
            -101.126629,
            19.733835
          ],
          [
            -101.12582,
            19.734445
          ],
          [
            -101.12501,
            19.73475
          ],
          [
            -101.124362,
            19.735055
          ],
          [
            -101.123876,
            19.735207
          ],
          [
            -101.123066,
            19.735512
          ],
          [
            -101.121932,
            19.735969
          ],
          [
            -101.120961,
            19.736274
          ],
          [
            -101.120151,
            19.736732
          ],
          [
            -101.119665,
            19.736732
          ],
          [
            -101.119017,
            19.736884
          ],
          [
            -101.118207,
            19.737189
          ],
          [
            -101.117397,
            19.737646
          ],
          [
            -101.11594,
            19.738104
          ],
          [
            -101.115292,
            19.738409
          ],
          [
            -101.114806,
            19.738561
          ],
          [
            -101.11432,
            19.738561
          ],
          [
            -101.113672,
            19.738714
          ],
          [
            -101.113186,
            19.738866
          ],
          [
            -101.112376,
            19.739018
          ],
          [
            -101.11189,
            19.739018
          ],
          [
            -101.111405,
            19.739018
          ],
          [
            -101.110757,
            19.739018
          ]
        ]
      }
    },
    {
      "type": "Feature",
      "properties": {
        "id": "calzada-ventura-puente",
        "nombre": "Calzada Ventura Puente",
        "color": "#ea580c",
        "puntaje": 100,
        "longitud_metros": 2043.5,
        "participante": "Edgar LOGOS",
        "fecha": "2026-09-21",
        "dia_semana": "Lunes",
        "hora": "13:01:15",
        "dificultad": "normal",
        "clientId": "b66675ee-7a42-4cff-98de-4b57aba579c2"
      },
      "geometry": {
        "type": "LineString",
        "coordinates": [
          [
            -101.178388,
            19.699428
          ],
          [
            -101.178306,
            19.699042
          ],
          [
            -101.178388,
            19.698656
          ],
          [
            -101.17847,
            19.69827
          ],
          [
            -101.178552,
            19.697807
          ],
          [
            -101.178716,
            19.69688
          ],
          [
            -101.17888,
            19.696031
          ],
          [
            -101.178962,
            19.695105
          ],
          [
            -101.179208,
            19.694178
          ],
          [
            -101.17929,
            19.693329
          ],
          [
            -101.179372,
            19.692557
          ],
          [
            -101.179618,
            19.691707
          ],
          [
            -101.179782,
            19.690317
          ],
          [
            -101.179782,
            19.689623
          ],
          [
            -101.179946,
            19.688696
          ],
          [
            -101.179946,
            19.688078
          ],
          [
            -101.179946,
            19.687692
          ],
          [
            -101.180028,
            19.687383
          ],
          [
            -101.180028,
            19.68692
          ],
          [
            -101.180028,
            19.686457
          ],
          [
            -101.180028,
            19.686225
          ],
          [
            -101.180028,
            19.685916
          ],
          [
            -101.180028,
            19.685685
          ],
          [
            -101.18011,
            19.685299
          ],
          [
            -101.180356,
            19.684604
          ],
          [
            -101.180438,
            19.684295
          ],
          [
            -101.18052,
            19.683986
          ],
          [
            -101.180602,
            19.683368
          ],
          [
            -101.180766,
            19.682905
          ],
          [
            -101.18093,
            19.682519
          ],
          [
            -101.181012,
            19.681824
          ],
          [
            -101.181094,
            19.681592
          ],
          [
            -101.181176,
            19.681361
          ]
        ]
      }
    },
    {
      "type": "Feature",
      "properties": {
        "id": "el-libramiento",
        "nombre": "El Libramiento",
        "color": "#7c3aed",
        "puntaje": 92,
        "longitud_metros": 25098.8,
        "participante": "Edgar LOGOS",
        "fecha": "2026-09-21",
        "dia_semana": "Lunes",
        "hora": "13:01:15",
        "dificultad": "normal",
        "clientId": "b66675ee-7a42-4cff-98de-4b57aba579c2"
      },
      "geometry": {
        "type": "LineString",
        "coordinates": [
          [
            -101.226869,
            19.72079
          ],
          [
            -101.227671,
            19.720034
          ],
          [
            -101.228072,
            19.719405
          ],
          [
            -101.228741,
            19.718398
          ],
          [
            -101.229677,
            19.716636
          ],
          [
            -101.23195,
            19.712733
          ],
          [
            -101.233153,
            19.710468
          ],
          [
            -101.233822,
            19.708453
          ],
          [
            -101.234357,
            19.707195
          ],
          [
            -101.234892,
            19.705936
          ],
          [
            -101.235293,
            19.704425
          ],
          [
            -101.235961,
            19.702663
          ],
          [
            -101.236496,
            19.7009
          ],
          [
            -101.236897,
            19.699767
          ],
          [
            -101.237031,
            19.699264
          ],
          [
            -101.237031,
            19.69876
          ],
          [
            -101.237165,
            19.698131
          ],
          [
            -101.237432,
            19.69725
          ],
          [
            -101.237566,
            19.69662
          ],
          [
            -101.237566,
            19.696242
          ],
          [
            -101.237566,
            19.695361
          ],
          [
            -101.237566,
            19.69448
          ],
          [
            -101.237566,
            19.693599
          ],
          [
            -101.237566,
            19.692843
          ],
          [
            -101.237566,
            19.69171
          ],
          [
            -101.237566,
            19.690325
          ],
          [
            -101.237566,
            19.689192
          ],
          [
            -101.237566,
            19.688185
          ],
          [
            -101.237298,
            19.687807
          ],
          [
            -101.236897,
            19.68743
          ],
          [
            -101.236229,
            19.687178
          ],
          [
            -101.234892,
            19.6868
          ],
          [
            -101.234089,
            19.686548
          ],
          [
            -101.233421,
            19.686422
          ],
          [
            -101.232752,
            19.686171
          ],
          [
            -101.232351,
            19.686171
          ],
          [
            -101.231014,
            19.685793
          ],
          [
            -101.230345,
            19.685793
          ],
          [
            -101.229944,
            19.685667
          ],
          [
            -101.229409,
            19.685415
          ],
          [
            -101.228473,
            19.685038
          ],
          [
            -101.227671,
            19.684786
          ],
          [
            -101.227002,
            19.684282
          ],
          [
            -101.226066,
            19.683904
          ],
          [
            -101.225398,
            19.683779
          ],
          [
            -101.224328,
            19.683401
          ],
          [
            -101.22259,
            19.682771
          ],
          [
            -101.221253,
            19.682142
          ],
          [
            -101.219247,
            19.681512
          ],
          [
            -101.21791,
            19.681135
          ],
          [
            -101.217375,
            19.681009
          ],
          [
            -101.216572,
            19.680883
          ],
          [
            -101.21577,
            19.680631
          ],
          [
            -101.214834,
            19.680505
          ],
          [
            -101.213764,
            19.680379
          ],
          [
            -101.212828,
            19.680379
          ],
          [
            -101.211892,
            19.680379
          ],
          [
            -101.210823,
            19.680379
          ],
          [
            -101.209486,
            19.680379
          ],
          [
            -101.208148,
            19.680379
          ],
          [
            -101.206811,
            19.680379
          ],
          [
            -101.205608,
            19.680379
          ],
          [
            -101.204271,
            19.680379
          ],
          [
            -101.203201,
            19.680379
          ],
          [
            -101.201596,
            19.680379
          ],
          [
            -101.200527,
            19.680379
          ],
          [
            -101.199724,
            19.680379
          ],
          [
            -101.198788,
            19.680379
          ],
          [
            -101.197852,
            19.680379
          ],
          [
            -101.196649,
            19.680379
          ],
          [
            -101.195178,
            19.680379
          ],
          [
            -101.194509,
            19.680379
          ],
          [
            -101.193707,
            19.680379
          ],
          [
            -101.192905,
            19.680379
          ],
          [
            -101.191969,
            19.680379
          ],
          [
            -101.191033,
            19.680379
          ],
          [
            -101.190097,
            19.680379
          ],
          [
            -101.189428,
            19.680379
          ],
          [
            -101.188492,
            19.680379
          ],
          [
            -101.187289,
            19.680379
          ],
          [
            -101.185952,
            19.680379
          ],
          [
            -101.184882,
            19.680379
          ],
          [
            -101.183812,
            19.680379
          ],
          [
            -101.182475,
            19.680379
          ],
          [
            -101.181806,
            19.680379
          ],
          [
            -101.181004,
            19.680379
          ],
          [
            -101.180336,
            19.680379
          ],
          [
            -101.179533,
            19.680379
          ],
          [
            -101.178865,
            19.680379
          ],
          [
            -101.178062,
            19.680379
          ],
          [
            -101.176725,
            19.680379
          ],
          [
            -101.175522,
            19.680379
          ],
          [
            -101.174318,
            19.680379
          ],
          [
            -101.173382,
            19.680379
          ],
          [
            -101.171911,
            19.680379
          ],
          [
            -101.170842,
            19.680379
          ],
          [
            -101.169638,
            19.680505
          ],
          [
            -101.168167,
            19.680631
          ],
          [
            -101.166697,
            19.680883
          ],
          [
            -101.164958,
            19.681261
          ],
          [
            -101.163354,
            19.681638
          ],
          [
            -101.162551,
            19.681764
          ],
          [
            -101.161883,
            19.682016
          ],
          [
            -101.161214,
            19.682268
          ],
          [
            -101.160278,
            19.682645
          ],
          [
            -101.159075,
            19.683023
          ],
          [
            -101.15747,
            19.683779
          ],
          [
            -101.156534,
            19.684282
          ],
          [
            -101.155999,
            19.684534
          ],
          [
            -101.155063,
            19.685038
          ],
          [
            -101.154395,
            19.685541
          ],
          [
            -101.153726,
            19.686171
          ],
          [
            -101.153191,
            19.686674
          ],
          [
            -101.152656,
            19.687178
          ],
          [
            -101.152122,
            19.687681
          ],
          [
            -101.151186,
            19.688059
          ],
          [
            -101.150517,
            19.68894
          ],
          [
            -101.149848,
            19.68957
          ],
          [
            -101.148779,
            19.690829
          ],
          [
            -101.148244,
            19.691584
          ],
          [
            -101.147709,
            19.692591
          ],
          [
            -101.146773,
            19.69385
          ],
          [
            -101.146372,
            19.694858
          ],
          [
            -101.145703,
            19.695739
          ],
          [
            -101.145436,
            19.696368
          ],
          [
            -101.145302,
            19.697124
          ],
          [
            -101.145168,
            19.697753
          ],
          [
            -101.145168,
            19.698257
          ],
          [
            -101.145035,
            19.698886
          ],
          [
            -101.145035,
            19.699516
          ],
          [
            -101.145035,
            19.700397
          ],
          [
            -101.145035,
            19.7009
          ],
          [
            -101.145035,
            19.701404
          ],
          [
            -101.145168,
            19.701907
          ],
          [
            -101.145436,
            19.702285
          ],
          [
            -101.145569,
            19.702789
          ],
          [
            -101.145703,
            19.703166
          ],
          [
            -101.145971,
            19.703544
          ],
          [
            -101.146104,
            19.704048
          ],
          [
            -101.146505,
            19.704551
          ],
          [
            -101.14704,
            19.70518
          ],
          [
            -101.147575,
            19.70581
          ],
          [
            -101.147843,
            19.706188
          ],
          [
            -101.148377,
            19.706817
          ],
          [
            -101.148511,
            19.707195
          ],
          [
            -101.14918,
            19.707824
          ],
          [
            -101.149447,
            19.708328
          ],
          [
            -101.150116,
            19.708957
          ],
          [
            -101.150784,
            19.709335
          ],
          [
            -101.151453,
            19.709712
          ],
          [
            -101.151854,
            19.709964
          ],
          [
            -101.152255,
            19.71009
          ],
          [
            -101.152656,
            19.710342
          ],
          [
            -101.153191,
            19.710468
          ],
          [
            -101.15386,
            19.710593
          ],
          [
            -101.155331,
            19.710971
          ],
          [
            -101.156267,
            19.711349
          ],
          [
            -101.157336,
            19.711475
          ],
          [
            -101.158139,
            19.711726
          ],
          [
            -101.158807,
            19.711852
          ],
          [
            -101.160144,
            19.711978
          ],
          [
            -101.16108,
            19.71223
          ],
          [
            -101.162284,
            19.712482
          ],
          [
            -101.162685,
            19.712482
          ],
          [
            -101.163621,
            19.712608
          ],
          [
            -101.164423,
            19.712608
          ],
          [
            -101.165493,
            19.712733
          ],
          [
            -101.16683,
            19.712859
          ],
          [
            -101.167231,
            19.712985
          ],
          [
            -101.1679,
            19.713111
          ],
          [
            -101.168435,
            19.713237
          ],
          [
            -101.16897,
            19.713489
          ],
          [
            -101.169772,
            19.71374
          ],
          [
            -101.170441,
            19.713866
          ],
          [
            -101.171377,
            19.713992
          ],
          [
            -101.172179,
            19.71437
          ],
          [
            -101.173516,
            19.714873
          ],
          [
            -101.174586,
            19.715377
          ],
          [
            -101.175388,
            19.715629
          ],
          [
            -101.176993,
            19.716258
          ],
          [
            -101.177929,
            19.716636
          ],
          [
            -101.178865,
            19.717139
          ],
          [
            -101.179934,
            19.717517
          ],
          [
            -101.181138,
            19.71802
          ],
          [
            -101.182475,
            19.718398
          ],
          [
            -101.183678,
            19.719027
          ],
          [
            -101.185016,
            19.719531
          ],
          [
            -101.185952,
            19.719908
          ],
          [
            -101.186754,
            19.720286
          ],
          [
            -101.187824,
            19.720664
          ],
          [
            -101.188626,
            19.721041
          ],
          [
            -101.189829,
            19.721671
          ],
          [
            -101.191033,
            19.722174
          ],
          [
            -101.192236,
            19.722552
          ],
          [
            -101.193172,
            19.722803
          ],
          [
            -101.194509,
            19.723181
          ],
          [
            -101.195713,
            19.723559
          ],
          [
            -101.197184,
            19.723936
          ],
          [
            -101.198655,
            19.724188
          ],
          [
            -101.199457,
            19.724314
          ],
          [
            -101.200393,
            19.724314
          ],
          [
            -101.201463,
            19.724314
          ],
          [
            -101.202532,
            19.724314
          ],
          [
            -101.204271,
            19.724314
          ],
          [
            -101.20534,
            19.724314
          ],
          [
            -101.206276,
            19.724314
          ],
          [
            -101.20748,
            19.724314
          ],
          [
            -101.208683,
            19.724314
          ],
          [
            -101.210555,
            19.724314
          ],
          [
            -101.211759,
            19.724314
          ],
          [
            -101.212962,
            19.724062
          ],
          [
            -101.213764,
            19.72381
          ],
          [
            -101.214299,
            19.723685
          ],
          [
            -101.214968,
            19.723433
          ],
          [
            -101.216038,
            19.723181
          ],
          [
            -101.21791,
            19.723055
          ],
          [
            -101.219247,
            19.722552
          ],
          [
            -101.220985,
            19.722048
          ],
          [
            -101.222991,
            19.721419
          ],
          [
            -101.225264,
            19.720664
          ],
          [
            -101.226869,
            19.720034
          ],
          [
            -101.228206,
            19.719783
          ],
          [
            -101.228874,
            19.719531
          ],
          [
            -101.229409,
            19.719279
          ],
          [
            -101.229944,
            19.718901
          ],
          [
            -101.230345,
            19.71865
          ],
          [
            -101.230479,
            19.718146
          ],
          [
            -101.230613,
            19.717517
          ],
          [
            -101.230746,
            19.71651
          ]
        ]
      }
    },
    {
      "type": "Feature",
      "properties": {
        "id": "calzada-la-huerta",
        "nombre": "Calzada la Huerta",
        "color": "#2e7d32",
        "puntaje": 100,
        "longitud_metros": 3161.1,
        "participante": "Edgar LOGOS",
        "fecha": "2026-09-21",
        "dia_semana": "Lunes",
        "hora": "13:01:15",
        "dificultad": "normal",
        "clientId": "b66675ee-7a42-4cff-98de-4b57aba579c2"
      },
      "geometry": {
        "type": "LineString",
        "coordinates": [
          [
            -101.207495,
            19.701431
          ],
          [
            -101.207577,
            19.701199
          ],
          [
            -101.207742,
            19.700967
          ],
          [
            -101.207906,
            19.700581
          ],
          [
            -101.208398,
            19.699886
          ],
          [
            -101.208726,
            19.699269
          ],
          [
            -101.208972,
            19.698805
          ],
          [
            -101.209218,
            19.698419
          ],
          [
            -101.209546,
            19.697956
          ],
          [
            -101.209874,
            19.697261
          ],
          [
            -101.210366,
            19.696566
          ],
          [
            -101.210776,
            19.69564
          ],
          [
            -101.211268,
            19.694636
          ],
          [
            -101.211678,
            19.693787
          ],
          [
            -101.211924,
            19.693246
          ],
          [
            -101.212334,
            19.692397
          ],
          [
            -101.212662,
            19.691779
          ],
          [
            -101.213072,
            19.691007
          ],
          [
            -101.2134,
            19.690081
          ],
          [
            -101.21381,
            19.689386
          ],
          [
            -101.21422,
            19.688536
          ],
          [
            -101.214548,
            19.687533
          ],
          [
            -101.214958,
            19.686761
          ],
          [
            -101.215368,
            19.685834
          ],
          [
            -101.215696,
            19.685062
          ],
          [
            -101.21586,
            19.684599
          ],
          [
            -101.216188,
            19.684058
          ],
          [
            -101.216516,
            19.683595
          ],
          [
            -101.216762,
            19.6829
          ],
          [
            -101.217254,
            19.681819
          ],
          [
            -101.218074,
            19.680583
          ],
          [
            -101.218484,
            19.679811
          ],
          [
            -101.218976,
            19.67873
          ],
          [
            -101.21914,
            19.678421
          ],
          [
            -101.219387,
            19.678112
          ],
          [
            -101.219633,
            19.677726
          ],
          [
            -101.219797,
            19.677495
          ],
          [
            -101.219961,
            19.677186
          ],
          [
            -101.220207,
            19.676877
          ],
          [
            -101.220617,
            19.676336
          ],
          [
            -101.220781,
            19.676028
          ]
        ]
      }
    }
  ]
}