{
"type": "FeatureCollection",
"name": "lineas_morelia_libramiento",
"crs": { "type": "name", "properties": { "name": "urn:ogc:def:crs:OGC:1.3:CRS84" } },
"features": [
{ "type": "Feature", "properties": { "Nombre": "El Libramiento" }, "geometry": { "type": "MultiLineString", "coordinates": [ [ [ -101.243414686402772, 19.700276807401245 ], [ -101.242579781910592, 19.69827310013585 ], [ -101.241920041993382, 19.696158778238605 ], [ -101.240892817013631, 19.693981983075684 ], [ -101.239657008666214, 19.691141693625866 ], [ -101.238620544925183, 19.688715306660367 ], [ -101.237457416585244, 19.685894554858219 ], [ -101.235944344435751, 19.68233414398815 ], [ -101.235103271704943, 19.680428768477981 ], [ -101.234590533450358, 19.679222478797325 ], [ -101.234410577660967, 19.678886930264561 ], [ -101.234171842593156, 19.678586078766536 ], [ -101.234156179962255, 19.678569730262257 ], [ -101.234004863541855, 19.678438466282312 ], [ -101.233831782423096, 19.678334085384815 ], [ -101.233642195522137, 19.678259759081904 ], [ -101.233462756098646, 19.678220526192778 ], [ -101.231887076367641, 19.677637538085719 ], [ -101.230201189986872, 19.677010889471852 ], [ -101.229975422587046, 19.676947843785136 ], [ -101.229806559802356, 19.676925911838204 ], [ -101.229178142091413, 19.676882596579159 ], [ -101.228030006085817, 19.676845728019874 ], [ -101.225688806640605, 19.676771443888121 ], [ -101.223367661819694, 19.676673792491432 ], [ -101.222737331617154, 19.67669940639064 ], [ -101.2226755869317, 19.676707573890393 ], [ -101.222561976741531, 19.67672450918198 ], [ -101.222448695847334, 19.676743319973269 ], [ -101.222335778751884, 19.676764000535336 ], [ -101.222276983482175, 19.676775538176241 ], [ -101.220946552629457, 19.677069761765082 ], [ -101.220662055063059, 19.677108312453193 ], [ -101.220374812413752, 19.677099481413727 ], [ -101.220133937036707, 19.67705459895274 ], [ -101.219468784215948, 19.676743064676966 ], [ -101.2188348886542, 19.676446166634776 ], [ -101.217007400802089, 19.675526793700829 ], [ -101.21541652472024, 19.674761769928264 ], [ -101.213796532387022, 19.673997172618847 ], [ -101.212245128417564, 19.67324031156295 ], [ -101.210360539062265, 19.672322026657341 ], [ -101.210264503517152, 19.672276231004528 ], [ -101.21016763890492, 19.672232029926182 ], [ -101.210069974729009, 19.672189436885251 ], [ -101.209971540736248, 19.67214846485501 ], [ -101.209872366907902, 19.672109126314936 ], [ -101.209772483450536, 19.672071433246984 ], [ -101.209671920786789, 19.672035397131999 ], [ -101.209570709546114, 19.672001028945999 ], [ -101.209566940957757, 19.671999785593201 ], [ -101.209341631889231, 19.671945842211496 ], [ -101.209109857137662, 19.671929779221681 ], [ -101.208878658897035, 19.671952084693995 ], [ -101.208748291636411, 19.671982188721767 ], [ -101.208515439495869, 19.672069450207367 ], [ -101.208302120987625, 19.672193687681485 ], [ -101.208293356492575, 19.672199899167111 ], [ -101.206859577370608, 19.673049054758835 ], [ -101.20525604928325, 19.674001863348419 ], [ -101.204953513363549, 19.674181625423905 ], [ -101.203715107480903, 19.674916981927534 ], [ -101.203521887239333, 19.675033950529397 ], [ -101.203330851205607, 19.675154095395531 ], [ -101.203232067458643, 19.675218027938985 ], [ -101.203059048586766, 19.675353626534307 ], [ -101.202913515856878, 19.675515624322738 ], [ -101.202838209706755, 19.675628647412442 ], [ -101.202593244214071, 19.676146933923636 ], [ -101.202554534607671, 19.676259254122019 ], [ -101.202151130939797, 19.677476056775966 ], [ -101.2018146717175, 19.678522319629188 ], [ -101.20137335046978, 19.679803617100927 ], [ -101.201349620848376, 19.679870525446386 ], [ -101.201324662039497, 19.679937031320748 ], [ -101.2012984816444, 19.680003114465318 ], [ -101.201271087636485, 19.680068754749989 ], [ -101.201242488358872, 19.680133932179768 ], [ -101.201212692521835, 19.680198626900705 ], [ -101.201181709200185, 19.68026281920536 ], [ -101.201156219064103, 19.68031351454265 ], [ -101.201056706479292, 19.680471230763619 ], [ -101.20092979208728, 19.680610182867284 ], [ -101.200779332089766, 19.680726148813221 ], [ -101.200646451470845, 19.680799330829014 ], [ -101.200590095724607, 19.680825038158495 ], [ -101.200533274882957, 19.680849809934703 ], [ -101.200476006254789, 19.680873638611573 ], [ -101.200418307285432, 19.680896516929973 ], [ -101.200360195551255, 19.680918437920649 ], [ -101.200301688754465, 19.680939394905533 ], [ -101.200242804717661, 19.680959381500763 ], [ -101.200183561378296, 19.6809783916176 ], [ -101.20012397678336, 19.680996419464925 ], [ -101.200113291672039, 19.680999537977026 ], [ -101.19950994278561, 19.681121386113546 ], [ -101.199314594361226, 19.681139030167984 ], [ -101.199109312168005, 19.681153849375388 ], [ -101.198904334216678, 19.681172059625524 ], [ -101.198699722932943, 19.68119365537386 ], [ -101.198616124627677, 19.681203465957001 ], [ -101.19838223089468, 19.681212237024329 ], [ -101.198150282590049, 19.681182403508775 ], [ -101.197927327510428, 19.681114871891658 ], [ -101.197925123269272, 19.68111399491514 ], [ -101.197779306891633, 19.681097678482271 ], [ -101.197448039940383, 19.681064868510337 ], [ -101.197204831067282, 19.681067845413359 ], [ -101.196981204557929, 19.681079798650508 ], [ -101.19645788374163, 19.681233663469389 ], [ -101.196351122975926, 19.681253402329403 ], [ -101.196071806920742, 19.681363685517343 ], [ -101.195956566755555, 19.681410650915961 ], [ -101.1958404787256, 19.681455704054837 ], [ -101.195723578195498, 19.681498831208334 ], [ -101.195605900777537, 19.681540019237737 ], [ -101.195500050344961, 19.681632465865913 ], [ -101.195354249925032, 19.681643465300198 ], [ -101.195170289417035, 19.681710229198035 ], [ -101.195073130922765, 19.681720633590405 ], [ -101.194007022395468, 19.682028589195859 ], [ -101.193638220385239, 19.682097610664194 ], [ -101.192220250340384, 19.682290043173115 ], [ -101.191899221237534, 19.682312876596043 ], [ -101.191130080145612, 19.682367579504497 ], [ -101.191049796067119, 19.682377779997868 ], [ -101.190969336256558, 19.682386651732685 ], [ -101.190888725224681, 19.682394192006139 ], [ -101.190807987528359, 19.682400398521061 ], [ -101.190727147763027, 19.682405269386475 ], [ -101.190646230555231, 19.682408803118406 ], [ -101.190565260555132, 19.68241099864013 ], [ -101.190484262428981, 19.682411855282623 ], [ -101.190403260851639, 19.68241137278477 ], [ -101.190330478707921, 19.682409796647971 ], [ -101.190071849455961, 19.682380762502245 ], [ -101.189822472286906, 19.682309629856398 ], [ -101.189589924583032, 19.682198560076422 ], [ -101.189480747506124, 19.682128032473415 ], [ -101.188177017545996, 19.681503061926712 ], [ -101.187682920029147, 19.681314329804021 ], [ -101.187021059976416, 19.681123108772788 ], [ -101.186742352223334, 19.681076937171639 ], [ -101.186579086728955, 19.681069161957481 ], [ -101.186416876161758, 19.681088358780435 ], [ -101.18635405577615, 19.681103305877997 ], [ -101.18415386737064, 19.68123627457096 ], [ -101.181629821063837, 19.681358914389858 ], [ -101.178675008014608, 19.681560450744517 ], [ -101.175079581583262, 19.681760769672657 ], [ -101.170496077574839, 19.682038830215983 ], [ -101.169452333515466, 19.682189471407735 ], [ -101.16916494711154, 19.682262773710598 ], [ -101.168434154162668, 19.682535147695042 ], [ -101.16796403886147, 19.682791514259318 ], [ -101.165453215690164, 19.684525524045078 ], [ -101.162717466699945, 19.686474342147797 ], [ -101.160701127527204, 19.687887896643812 ], [ -101.160589511654408, 19.687952698262404 ], [ -101.160467711036887, 19.687998157438884 ], [ -101.160339426559261, 19.688022892899216 ], [ -101.160208556126349, 19.688026153054814 ], [ -101.160079076221749, 19.688007838841347 ], [ -101.160012259277138, 19.68798951484985 ], [ -101.156966315891836, 19.687604813703764 ], [ -101.155405870136974, 19.687418241232557 ], [ -101.153924918552946, 19.687277363992941 ], [ -101.153737488281664, 19.687275085325616 ], [ -101.153552487673053, 19.687303668584224 ], [ -101.15337553777924, 19.687362245306314 ], [ -101.153212015056326, 19.687449035706567 ], [ -101.153066888012901, 19.687561402750212 ], [ -101.152971330114042, 19.687662197148768 ], [ -101.152025824193331, 19.688609571303701 ], [ -101.151326202929226, 19.689383243081043 ], [ -101.151120727087303, 19.689614520306705 ], [ -101.150936082484577, 19.68982955089831 ], [ -101.150777603185361, 19.690054934036606 ], [ -101.150662852179664, 19.690302958401251 ], [ -101.15061896206727, 19.690449312207527 ], [ -101.149888582108417, 19.692682380671037 ], [ -101.149529650068501, 19.693950761475008 ], [ -101.149421054192757, 19.694659764766097 ], [ -101.1494207251273, 19.694665534052685 ], [ -101.149378535131689, 19.69540522297984 ], [ -101.149387065883701, 19.69564778359236 ], [ -101.14943993901224, 19.695885256119812 ], [ -101.149535548168515, 19.696110425024848 ], [ -101.149670988446886, 19.696316448586455 ], [ -101.149706037945734, 19.696358911469684 ], [ -101.151403423290333, 19.697635805752348 ], [ -101.153354161562689, 19.69918046398022 ], [ -101.155385362430948, 19.700823014868664 ], [ -101.157044592403963, 19.702085743168322 ], [ -101.15857043241995, 19.703259694004409 ], [ -101.159510540172107, 19.70399073461698 ], [ -101.160645920543701, 19.704935711109336 ], [ -101.162004999508198, 19.706042640525741 ], [ -101.162230743619986, 19.706229769903555 ], [ -101.162453005446437, 19.706420601646869 ], [ -101.162671717289953, 19.706615077639054 ], [ -101.162886812533301, 19.706813138653601 ], [ -101.163098225659922, 19.707014724372051 ], [ -101.163219441679956, 19.70713354090228 ], [ -101.16430963844212, 19.708375328861521 ], [ -101.165677008980381, 19.710037080415631 ], [ -101.165843480178523, 19.710206566909541 ], [ -101.166044640532149, 19.710411370149036 ], [ -101.166395953771925, 19.710670805544087 ], [ -101.167589001475648, 19.711579908927668 ], [ -101.16762423133963, 19.711612105705022 ], [ -101.169447151110731, 19.713030076317434 ], [ -101.171440789670271, 19.714529792826887 ], [ -101.173089234442926, 19.715770797952281 ], [ -101.175370303006645, 19.71750601500715 ], [ -101.177161902312662, 19.718893678336837 ], [ -101.178469228781523, 19.719833931556956 ], [ -101.178725973240816, 19.719987133538126 ], [ -101.17900691041153, 19.720095788379403 ], [ -101.179303503940261, 19.720156594586189 ], [ -101.1796067417161, 19.720167704562975 ], [ -101.179907409731328, 19.720128780755118 ], [ -101.180196372078242, 19.720041005903589 ], [ -101.180464848570651, 19.719907047100307 ], [ -101.180569046390701, 19.719838275563617 ], [ -101.181619142039764, 19.719272729909068 ], [ -101.181959989288202, 19.71912476084508 ], [ -101.182322790939011, 19.719035088449061 ], [ -101.182696523799606, 19.719006437238754 ], [ -101.18306983260112, 19.719039677694447 ], [ -101.183431374972514, 19.719133799818735 ], [ -101.183770166021162, 19.719285943825422 ], [ -101.183877813471369, 19.719349799449933 ], [ -101.185676349863584, 19.720120633506767 ], [ -101.186634394138821, 19.720594192222666 ], [ -101.188140756132057, 19.721264638247103 ], [ -101.188816236051807, 19.721565271486966 ], [ -101.190764311830392, 19.722517887253328 ], [ -101.192414838320929, 19.723274097469748 ], [ -101.19453044247183, 19.72412552789676 ], [ -101.195463707168983, 19.724413100739397 ], [ -101.196384422221996, 19.724540059424541 ], [ -101.199686870461662, 19.724897046001782 ], [ -101.203039215509875, 19.725294487087101 ], [ -101.207588769531185, 19.725855564064279 ], [ -101.212182400034351, 19.726496329102936 ], [ -101.215847443093722, 19.726908970773835 ], [ -101.218940492044865, 19.72730793132698 ], [ -101.220475972818633, 19.727467779648254 ], [ -101.221031440535782, 19.727479471694195 ], [ -101.221580612967244, 19.727399647422406 ], [ -101.222106802919512, 19.727230732470943 ], [ -101.222594021690071, 19.726977859573285 ], [ -101.223027464958932, 19.726648712562096 ], [ -101.223393962661547, 19.726253292849332 ], [ -101.223420210455842, 19.726218919023733 ], [ -101.225829985976659, 19.722604604506305 ], [ -101.228287242861143, 19.719252970108382 ], [ -101.231005325816184, 19.715122247083098 ], [ -101.233294724898926, 19.711765266128904 ], [ -101.235403957786644, 19.708781750816033 ], [ -101.236110541034193, 19.707949552687108 ], [ -101.236958972385693, 19.70724619392174 ], [ -101.237923472800588, 19.70669304388689 ], [ -101.238974737859053, 19.706306907997469 ], [ -101.239133804994282, 19.706265222228534 ], [ -101.242434050249884, 19.705500399837856 ], [ -101.24307790695525, 19.705295622968833 ], [ -101.243866451486184, 19.704969918417916 ], [ -101.244065019123397, 19.704861810102962 ], [ -101.244302966228759, 19.704658676951549 ], [ -101.244500052559189, 19.704419497763144 ], [ -101.244502626185053, 19.704415729305911 ], [ -101.24463185166681, 19.704129280467821 ], [ -101.244706592323894, 19.703825931402104 ], [ -101.244724577509075, 19.703514899255541 ], [ -101.244719569023616, 19.703430572449228 ], [ -101.244656560048156, 19.703047935641404 ], [ -101.244524351692419, 19.702681474130806 ], [ -101.244376919418315, 19.702415920999535 ], [ -101.243409830198985, 19.70028082706045 ] ] ] } }
]
}
