{
  "type": "FeatureCollection",
  "name": "lineas_morelia",
  "crs": {
    "type": "name",
    "properties": {
      "name": "urn:ogc:def:crs:OGC:1.3:CRS84"
    }
  },
  "features": [
    {
      "type": "Feature",
      "properties": {
        "Nombre": "Acueducto de Morelia",
        "kicker": "Monomuento Histórico",
        "color": "#fbc02d",
        "textColor": "#b45309"
      },
      "geometry": {
        "type": "MultiLineString",
        "coordinates": [
          [
            [
              -101.18339210257861,
              19.70368443229593
            ],
            [
              -101.18234055706229,
              19.703514398482934
            ],
            [
              -101.18203810060233,
              19.702893030677842
            ],
            [
              -101.18217287394718,
              19.702598409877446
            ],
            [
              -101.1788711807894,
              19.69968712312162
            ],
            [
              -101.17788308830991,
              19.698820713111093
            ],
            [
              -101.17738172204409,
              19.69853849053806
            ],
            [
              -101.17536196919916,
              19.698038229249637
            ],
            [
              -101.17313524120138,
              19.697619658208577
            ],
            [
              -101.16873471775887,
              19.6967984546526
            ]
          ]
        ]
      }
    },
    {
      "type": "Feature",
      "properties": {
        "Nombre": "El Libramiento",
        "kicker": "Circuito periférico de la ciudad",
        "color": "#7c3aed",
        "textColor": "#6d28d9"
      },
      "geometry": {
        "type": "MultiLineString",
        "coordinates": [
          [
            [
              -101.24341468640277,
              19.700276807401245
            ],
            [
              -101.24257978191059,
              19.69827310013585
            ],
            [
              -101.24192004199338,
              19.696158778238605
            ],
            [
              -101.24089281701363,
              19.693981983075684
            ],
            [
              -101.23965700866621,
              19.691141693625866
            ],
            [
              -101.23862054492518,
              19.688715306660367
            ],
            [
              -101.23745741658524,
              19.68589455485822
            ],
            [
              -101.23594434443575,
              19.68233414398815
            ],
            [
              -101.23510327170494,
              19.68042876847798
            ],
            [
              -101.23459053345036,
              19.679222478797325
            ],
            [
              -101.23441057766097,
              19.67888693026456
            ],
            [
              -101.23417184259316,
              19.678586078766536
            ],
            [
              -101.23415617996226,
              19.678569730262257
            ],
            [
              -101.23400486354186,
              19.678438466282312
            ],
            [
              -101.2338317824231,
              19.678334085384815
            ],
            [
              -101.23364219552214,
              19.678259759081904
            ],
            [
              -101.23346275609865,
              19.678220526192778
            ],
            [
              -101.23188707636764,
              19.67763753808572
            ],
            [
              -101.23020118998687,
              19.677010889471852
            ],
            [
              -101.22997542258705,
              19.676947843785136
            ],
            [
              -101.22980655980236,
              19.676925911838204
            ],
            [
              -101.22917814209141,
              19.67688259657916
            ],
            [
              -101.22803000608582,
              19.676845728019874
            ],
            [
              -101.2256888066406,
              19.67677144388812
            ],
            [
              -101.2233676618197,
              19.67667379249143
            ],
            [
              -101.22273733161715,
              19.67669940639064
            ],
            [
              -101.2226755869317,
              19.676707573890393
            ],
            [
              -101.22256197674153,
              19.67672450918198
            ],
            [
              -101.22244869584733,
              19.67674331997327
            ],
            [
              -101.22233577875188,
              19.676764000535336
            ],
            [
              -101.22227698348217,
              19.67677553817624
            ],
            [
              -101.22094655262946,
              19.677069761765082
            ],
            [
              -101.22066205506306,
              19.677108312453193
            ],
            [
              -101.22037481241375,
              19.677099481413727
            ],
            [
              -101.2201339370367,
              19.67705459895274
            ],
            [
              -101.21946878421595,
              19.676743064676966
            ],
            [
              -101.2188348886542,
              19.676446166634776
            ],
            [
              -101.21700740080209,
              19.67552679370083
            ],
            [
              -101.21541652472024,
              19.674761769928264
            ],
            [
              -101.21379653238702,
              19.673997172618847
            ],
            [
              -101.21224512841756,
              19.67324031156295
            ],
            [
              -101.21036053906226,
              19.67232202665734
            ],
            [
              -101.21026450351715,
              19.672276231004528
            ],
            [
              -101.21016763890492,
              19.67223202992618
            ],
            [
              -101.21006997472901,
              19.67218943688525
            ],
            [
              -101.20997154073625,
              19.67214846485501
            ],
            [
              -101.2098723669079,
              19.672109126314936
            ],
            [
              -101.20977248345054,
              19.672071433246984
            ],
            [
              -101.20967192078679,
              19.672035397132
            ],
            [
              -101.20957070954611,
              19.672001028946
            ],
            [
              -101.20956694095776,
              19.6719997855932
            ],
            [
              -101.20934163188923,
              19.671945842211496
            ],
            [
              -101.20910985713766,
              19.67192977922168
            ],
            [
              -101.20887865889704,
              19.671952084693995
            ],
            [
              -101.20874829163641,
              19.671982188721767
            ],
            [
              -101.20851543949587,
              19.672069450207367
            ],
            [
              -101.20830212098763,
              19.672193687681485
            ],
            [
              -101.20829335649258,
              19.67219989916711
            ],
            [
              -101.20685957737061,
              19.673049054758835
            ],
            [
              -101.20525604928325,
              19.67400186334842
            ],
            [
              -101.20495351336355,
              19.674181625423905
            ],
            [
              -101.2037151074809,
              19.674916981927534
            ],
            [
              -101.20352188723933,
              19.675033950529397
            ],
            [
              -101.2033308512056,
              19.67515409539553
            ],
            [
              -101.20323206745864,
              19.675218027938985
            ],
            [
              -101.20305904858677,
              19.675353626534307
            ],
            [
              -101.20291351585688,
              19.67551562432274
            ],
            [
              -101.20283820970675,
              19.67562864741244
            ],
            [
              -101.20259324421407,
              19.676146933923636
            ],
            [
              -101.20255453460767,
              19.67625925412202
            ],
            [
              -101.2021511309398,
              19.677476056775966
            ],
            [
              -101.2018146717175,
              19.678522319629188
            ],
            [
              -101.20137335046978,
              19.679803617100927
            ],
            [
              -101.20134962084838,
              19.679870525446386
            ],
            [
              -101.2013246620395,
              19.679937031320748
            ],
            [
              -101.2012984816444,
              19.68000311446532
            ],
            [
              -101.20127108763648,
              19.68006875474999
            ],
            [
              -101.20124248835887,
              19.680133932179768
            ],
            [
              -101.20121269252184,
              19.680198626900705
            ],
            [
              -101.20118170920018,
              19.68026281920536
            ],
            [
              -101.2011562190641,
              19.68031351454265
            ],
            [
              -101.20105670647929,
              19.68047123076362
            ],
            [
              -101.20092979208728,
              19.680610182867284
            ],
            [
              -101.20077933208977,
              19.68072614881322
            ],
            [
              -101.20064645147085,
              19.680799330829014
            ],
            [
              -101.2005900957246,
              19.680825038158495
            ],
            [
              -101.20053327488296,
              19.680849809934703
            ],
            [
              -101.20047600625479,
              19.680873638611573
            ],
            [
              -101.20041830728543,
              19.680896516929973
            ],
            [
              -101.20036019555126,
              19.68091843792065
            ],
            [
              -101.20030168875446,
              19.680939394905533
            ],
            [
              -101.20024280471766,
              19.680959381500763
            ],
            [
              -101.2001835613783,
              19.6809783916176
            ],
            [
              -101.20012397678336,
              19.680996419464925
            ],
            [
              -101.20011329167204,
              19.680999537977026
            ],
            [
              -101.19950994278561,
              19.681121386113546
            ],
            [
              -101.19931459436123,
              19.681139030167984
            ],
            [
              -101.199109312168,
              19.681153849375388
            ],
            [
              -101.19890433421668,
              19.681172059625524
            ],
            [
              -101.19869972293294,
              19.68119365537386
            ],
            [
              -101.19861612462768,
              19.681203465957
            ],
            [
              -101.19838223089468,
              19.68121223702433
            ],
            [
              -101.19815028259005,
              19.681182403508775
            ],
            [
              -101.19792732751043,
              19.68111487189166
            ],
            [
              -101.19792512326927,
              19.68111399491514
            ],
            [
              -101.19777930689163,
              19.68109767848227
            ],
            [
              -101.19744803994038,
              19.681064868510337
            ],
            [
              -101.19720483106728,
              19.68106784541336
            ],
            [
              -101.19698120455793,
              19.681079798650508
            ],
            [
              -101.19645788374163,
              19.68123366346939
            ],
            [
              -101.19635112297593,
              19.681253402329403
            ],
            [
              -101.19607180692074,
              19.681363685517343
            ],
            [
              -101.19595656675556,
              19.68141065091596
            ],
            [
              -101.1958404787256,
              19.681455704054837
            ],
            [
              -101.1957235781955,
              19.681498831208334
            ],
            [
              -101.19560590077754,
              19.681540019237737
            ],
            [
              -101.19550005034496,
              19.681632465865913
            ],
            [
              -101.19535424992503,
              19.681643465300198
            ],
            [
              -101.19517028941704,
              19.681710229198035
            ],
            [
              -101.19507313092276,
              19.681720633590405
            ],
            [
              -101.19400702239547,
              19.68202858919586
            ],
            [
              -101.19363822038524,
              19.682097610664194
            ],
            [
              -101.19222025034038,
              19.682290043173115
            ],
            [
              -101.19189922123753,
              19.682312876596043
            ],
            [
              -101.19113008014561,
              19.682367579504497
            ],
            [
              -101.19104979606712,
              19.682377779997868
            ],
            [
              -101.19096933625656,
              19.682386651732685
            ],
            [
              -101.19088872522468,
              19.68239419200614
            ],
            [
              -101.19080798752836,
              19.68240039852106
            ],
            [
              -101.19072714776303,
              19.682405269386475
            ],
            [
              -101.19064623055523,
              19.682408803118406
            ],
            [
              -101.19056526055513,
              19.68241099864013
            ],
            [
              -101.19048426242898,
              19.682411855282623
            ],
            [
              -101.19040326085164,
              19.68241137278477
            ],
            [
              -101.19033047870792,
              19.68240979664797
            ],
            [
              -101.19007184945596,
              19.682380762502245
            ],
            [
              -101.1898224722869,
              19.682309629856398
            ],
            [
              -101.18958992458303,
              19.682198560076422
            ],
            [
              -101.18948074750612,
              19.682128032473415
            ],
            [
              -101.188177017546,
              19.681503061926712
            ],
            [
              -101.18768292002915,
              19.68131432980402
            ],
            [
              -101.18702105997642,
              19.681123108772788
            ],
            [
              -101.18674235222333,
              19.68107693717164
            ],
            [
              -101.18657908672895,
              19.68106916195748
            ],
            [
              -101.18641687616176,
              19.681088358780435
            ],
            [
              -101.18635405577615,
              19.681103305877997
            ],
            [
              -101.18415386737064,
              19.68123627457096
            ],
            [
              -101.18162982106384,
              19.681358914389858
            ],
            [
              -101.17867500801461,
              19.681560450744517
            ],
            [
              -101.17507958158326,
              19.681760769672657
            ],
            [
              -101.17049607757484,
              19.682038830215983
            ],
            [
              -101.16945233351547,
              19.682189471407735
            ],
            [
              -101.16916494711154,
              19.682262773710598
            ],
            [
              -101.16843415416267,
              19.68253514769504
            ],
            [
              -101.16796403886147,
              19.682791514259318
            ],
            [
              -101.16545321569016,
              19.68452552404508
            ],
            [
              -101.16271746669995,
              19.686474342147797
            ],
            [
              -101.1607011275272,
              19.68788789664381
            ],
            [
              -101.16058951165441,
              19.687952698262404
            ],
            [
              -101.16046771103689,
              19.687998157438884
            ],
            [
              -101.16033942655926,
              19.688022892899216
            ],
            [
              -101.16020855612635,
              19.688026153054814
            ],
            [
              -101.16007907622175,
              19.688007838841347
            ],
            [
              -101.16001225927714,
              19.68798951484985
            ],
            [
              -101.15696631589184,
              19.687604813703764
            ],
            [
              -101.15540587013697,
              19.687418241232557
            ],
            [
              -101.15392491855295,
              19.68727736399294
            ],
            [
              -101.15373748828166,
              19.687275085325616
            ],
            [
              -101.15355248767305,
              19.687303668584224
            ],
            [
              -101.15337553777924,
              19.687362245306314
            ],
            [
              -101.15321201505633,
              19.687449035706567
            ],
            [
              -101.1530668880129,
              19.687561402750212
            ],
            [
              -101.15297133011404,
              19.687662197148768
            ],
            [
              -101.15202582419333,
              19.6886095713037
            ],
            [
              -101.15132620292923,
              19.689383243081043
            ],
            [
              -101.1511207270873,
              19.689614520306705
            ],
            [
              -101.15093608248458,
              19.68982955089831
            ],
            [
              -101.15077760318536,
              19.690054934036606
            ],
            [
              -101.15066285217966,
              19.69030295840125
            ],
            [
              -101.15061896206727,
              19.690449312207527
            ],
            [
              -101.14988858210842,
              19.692682380671037
            ],
            [
              -101.1495296500685,
              19.69395076147501
            ],
            [
              -101.14942105419276,
              19.694659764766097
            ],
            [
              -101.1494207251273,
              19.694665534052685
            ],
            [
              -101.14937853513169,
              19.69540522297984
            ],
            [
              -101.1493870658837,
              19.69564778359236
            ],
            [
              -101.14943993901224,
              19.695885256119812
            ],
            [
              -101.14953554816852,
              19.696110425024848
            ],
            [
              -101.14967098844689,
              19.696316448586455
            ],
            [
              -101.14970603794573,
              19.696358911469684
            ],
            [
              -101.15140342329033,
              19.69763580575235
            ],
            [
              -101.15335416156269,
              19.69918046398022
            ],
            [
              -101.15538536243095,
              19.700823014868664
            ],
            [
              -101.15704459240396,
              19.702085743168322
            ],
            [
              -101.15857043241995,
              19.70325969400441
            ],
            [
              -101.1595105401721,
              19.70399073461698
            ],
            [
              -101.1606459205437,
              19.704935711109336
            ],
            [
              -101.1620049995082,
              19.70604264052574
            ],
            [
              -101.16223074361999,
              19.706229769903555
            ],
            [
              -101.16245300544644,
              19.70642060164687
            ],
            [
              -101.16267171728995,
              19.706615077639054
            ],
            [
              -101.1628868125333,
              19.7068131386536
            ],
            [
              -101.16309822565992,
              19.70701472437205
            ],
            [
              -101.16321944167996,
              19.70713354090228
            ],
            [
              -101.16430963844212,
              19.70837532886152
            ],
            [
              -101.16567700898038,
              19.71003708041563
            ],
            [
              -101.16584348017852,
              19.71020656690954
            ],
            [
              -101.16604464053215,
              19.710411370149036
            ],
            [
              -101.16639595377193,
              19.710670805544087
            ],
            [
              -101.16758900147565,
              19.711579908927668
            ],
            [
              -101.16762423133963,
              19.711612105705022
            ],
            [
              -101.16944715111073,
              19.713030076317434
            ],
            [
              -101.17144078967027,
              19.714529792826887
            ],
            [
              -101.17308923444293,
              19.71577079795228
            ],
            [
              -101.17537030300664,
              19.71750601500715
            ],
            [
              -101.17716190231266,
              19.718893678336837
            ],
            [
              -101.17846922878152,
              19.719833931556956
            ],
            [
              -101.17872597324082,
              19.719987133538126
            ],
            [
              -101.17900691041153,
              19.720095788379403
            ],
            [
              -101.17930350394026,
              19.72015659458619
            ],
            [
              -101.1796067417161,
              19.720167704562975
            ],
            [
              -101.17990740973133,
              19.720128780755118
            ],
            [
              -101.18019637207824,
              19.72004100590359
            ],
            [
              -101.18046484857065,
              19.719907047100307
            ],
            [
              -101.1805690463907,
              19.719838275563617
            ],
            [
              -101.18161914203976,
              19.71927272990907
            ],
            [
              -101.1819599892882,
              19.71912476084508
            ],
            [
              -101.18232279093901,
              19.71903508844906
            ],
            [
              -101.1826965237996,
              19.719006437238754
            ],
            [
              -101.18306983260112,
              19.719039677694447
            ],
            [
              -101.18343137497251,
              19.719133799818735
            ],
            [
              -101.18377016602116,
              19.719285943825422
            ],
            [
              -101.18387781347137,
              19.719349799449933
            ],
            [
              -101.18567634986358,
              19.720120633506767
            ],
            [
              -101.18663439413882,
              19.720594192222666
            ],
            [
              -101.18814075613206,
              19.721264638247103
            ],
            [
              -101.1888162360518,
              19.721565271486966
            ],
            [
              -101.19076431183039,
              19.72251788725333
            ],
            [
              -101.19241483832093,
              19.723274097469748
            ],
            [
              -101.19453044247183,
              19.72412552789676
            ],
            [
              -101.19546370716898,
              19.724413100739397
            ],
            [
              -101.196384422222,
              19.72454005942454
            ],
            [
              -101.19968687046166,
              19.724897046001782
            ],
            [
              -101.20303921550988,
              19.7252944870871
            ],
            [
              -101.20758876953118,
              19.72585556406428
            ],
            [
              -101.21218240003435,
              19.726496329102936
            ],
            [
              -101.21584744309372,
              19.726908970773835
            ],
            [
              -101.21894049204487,
              19.72730793132698
            ],
            [
              -101.22047597281863,
              19.727467779648254
            ],
            [
              -101.22103144053578,
              19.727479471694195
            ],
            [
              -101.22158061296724,
              19.727399647422406
            ],
            [
              -101.22210680291951,
              19.727230732470943
            ],
            [
              -101.22259402169007,
              19.726977859573285
            ],
            [
              -101.22302746495893,
              19.726648712562096
            ],
            [
              -101.22339396266155,
              19.726253292849332
            ],
            [
              -101.22342021045584,
              19.726218919023733
            ],
            [
              -101.22582998597666,
              19.722604604506305
            ],
            [
              -101.22828724286114,
              19.719252970108382
            ],
            [
              -101.23100532581618,
              19.715122247083098
            ],
            [
              -101.23329472489893,
              19.711765266128904
            ],
            [
              -101.23540395778664,
              19.708781750816033
            ],
            [
              -101.2361105410342,
              19.707949552687108
            ],
            [
              -101.2369589723857,
              19.70724619392174
            ],
            [
              -101.23792347280059,
              19.70669304388689
            ],
            [
              -101.23897473785905,
              19.70630690799747
            ],
            [
              -101.23913380499428,
              19.706265222228534
            ],
            [
              -101.24243405024988,
              19.705500399837856
            ],
            [
              -101.24307790695525,
              19.705295622968833
            ],
            [
              -101.24386645148618,
              19.704969918417916
            ],
            [
              -101.2440650191234,
              19.704861810102962
            ],
            [
              -101.24430296622876,
              19.70465867695155
            ],
            [
              -101.24450005255919,
              19.704419497763144
            ],
            [
              -101.24450262618505,
              19.70441572930591
            ],
            [
              -101.24463185166681,
              19.70412928046782
            ],
            [
              -101.2447065923239,
              19.703825931402104
            ],
            [
              -101.24472457750907,
              19.70351489925554
            ],
            [
              -101.24471956902362,
              19.70343057244923
            ],
            [
              -101.24465656004816,
              19.703047935641404
            ],
            [
              -101.24452435169242,
              19.702681474130806
            ],
            [
              -101.24437691941831,
              19.702415920999535
            ],
            [
              -101.24340983019898,
              19.70028082706045
            ]
          ]
        ]
      }
    },
    {
      "type": "Feature",
      "properties": {
        "Nombre": "Avenida Madero",
        "kicker": "Avenida principal de Morelia E-O",
        "color": "#f48fb1",
        "textColor": "#c2185b"
      },
      "geometry": {
        "type": "MultiLineString",
        "coordinates": [
          [
            [
              -101.30486507482638,
              19.687623329000154
            ],
            [
              -101.30262413971197,
              19.68777027556504
            ],
            [
              -101.29891373894871,
              19.687127384343682
            ],
            [
              -101.2938073458191,
              19.68635591487806
            ],
            [
              -101.28906831910169,
              19.68793559045053
            ],
            [
              -101.28752538017045,
              19.68936831945812
            ],
            [
              -101.27939386000047,
              19.691466433
            ],
            [
              -101.27279697028136,
              19.69349613499326
            ],
            [
              -101.2722458836734,
              19.693652843141006
            ],
            [
              -101.27191480847593,
              19.69371692700771
            ],
            [
              -101.27167877876829,
              19.69379477969334
            ],
            [
              -101.27147457160953,
              19.693887202010266
            ],
            [
              -101.27130134196065,
              19.69393431352529
            ],
            [
              -101.27112790094597,
              19.693966454745624
            ],
            [
              -101.27097089932613,
              19.694043306156715
            ],
            [
              -101.2708136863254,
              19.69410518730436
            ],
            [
              -101.27056184957023,
              19.69418323867812
            ],
            [
              -101.2667690913276,
              19.695399079910402
            ],
            [
              -101.26505340374814,
              19.695929826629765
            ],
            [
              -101.26485034739368,
              19.69599638368605
            ],
            [
              -101.26457922182932,
              19.69609300037259
            ],
            [
              -101.2642661710083,
              19.696168639521883
            ],
            [
              -101.2639641184673,
              19.696219048644537
            ],
            [
              -101.26365071412307,
              19.696269600512057
            ],
            [
              -101.26340526769802,
              19.696308541288733
            ],
            [
              -101.26308333177938,
              19.696358956994278
            ],
            [
              -101.26242094864271,
              19.696472121862723
            ],
            [
              -101.26081208859388,
              19.69673197077603
            ],
            [
              -101.25846201078164,
              19.69712092205341
            ],
            [
              -101.25748454458962,
              19.697312900288807
            ],
            [
              -101.25551211850286,
              19.697577277841685
            ],
            [
              -101.25384084295987,
              19.69789774252831
            ],
            [
              -101.25232636584335,
              19.698126385751078
            ],
            [
              -101.2516803984969,
              19.69828422489748
            ],
            [
              -101.251254672488,
              19.698364433085807
            ],
            [
              -101.25095560688027,
              19.698458023922345
            ],
            [
              -101.25064010623866,
              19.69850690158672
            ],
            [
              -101.25037244345363,
              19.698585124523987
            ],
            [
              -101.25016779688947,
              19.69864758363731
            ],
            [
              -101.24991510272953,
              19.698665726260607
            ],
            [
              -101.24652715794242,
              19.699456838384776
            ],
            [
              -101.24341707946932,
              19.700279591428494
            ]
          ],
          [
            [
              -101.2434178384528,
              19.700278447366134
            ],
            [
              -101.24341003839444,
              19.70028055665251
            ],
            [
              -101.24002945358679,
              19.701060029308433
            ],
            [
              -101.23479768332253,
              19.70233423771949
            ],
            [
              -101.23032468404199,
              19.70338823691472
            ],
            [
              -101.22498398712104,
              19.704684093308433
            ],
            [
              -101.22019796558422,
              19.7055445488332
            ],
            [
              -101.22000516959093,
              19.70556292812039
            ],
            [
              -101.21989207247675,
              19.705558869430362
            ],
            [
              -101.21970427647777,
              19.705527226893935
            ],
            [
              -101.21955705094594,
              19.705478747323752
            ],
            [
              -101.21953757263793,
              19.705470627914448
            ],
            [
              -101.21951824692246,
              19.70546218779212
            ],
            [
              -101.21949907968641,
              19.70545342952775
            ],
            [
              -101.21948007676845,
              19.705444355789236
            ],
            [
              -101.2194612439571,
              19.705434969340565
            ],
            [
              -101.21944258698913,
              19.705425273041
            ],
            [
              -101.21942411154772,
              19.70541526984416
            ],
            [
              -101.21940582326077,
              19.70540496279717
            ],
            [
              -101.21940015941009,
              19.7054016869946
            ],
            [
              -101.216414620418,
              19.703873764530012
            ],
            [
              -101.2127308185248,
              19.701940643592632
            ],
            [
              -101.21264789315236,
              19.701905691505857
            ],
            [
              -101.21262717168412,
              19.701896957637583
            ],
            [
              -101.21251708966385,
              19.701870980982495
            ],
            [
              -101.21241759919272,
              19.701863410923025
            ],
            [
              -101.21236804145666,
              19.701863660324072
            ],
            [
              -101.21231849586233,
              19.701864728807603
            ],
            [
              -101.21226897750105,
              19.701866616048214
            ],
            [
              -101.21221950145582,
              19.701869321471147
            ],
            [
              -101.21217901314002,
              19.70187214681964
            ],
            [
              -101.20629897728028,
              19.702298794541218
            ]
          ],
          [
            [
              -101.20629897603175,
              19.70229870350203
            ],
            [
              -101.20519950750081,
              19.702360285773644
            ],
            [
              -101.20415001005891,
              19.702478692826087
            ],
            [
              -101.20269237609354,
              19.702723619866664
            ],
            [
              -101.20163095873875,
              19.702844446300585
            ],
            [
              -101.20016244411909,
              19.703042124430652
            ],
            [
              -101.19843093509839,
              19.703054341889025
            ],
            [
              -101.19682660651509,
              19.703038069382366
            ],
            [
              -101.19508892291272,
              19.702987481805945
            ],
            [
              -101.19307848415939,
              19.702922375397517
            ],
            [
              -101.19153270582046,
              19.702971754488846
            ],
            [
              -101.18975747040813,
              19.7028918836925
            ],
            [
              -101.18853494870334,
              19.702852113925445
            ],
            [
              -101.18679750533401,
              19.702819409028145
            ],
            [
              -101.18496418406153,
              19.7028866831818
            ],
            [
              -101.18321846577886,
              19.70294387278967
            ],
            [
              -101.18281797297249,
              19.70297380282967
            ]
          ],
          [
            [
              -101.18281797297249,
              19.70297380282971
            ],
            [
              -101.18221335186246,
              19.70301898629255
            ],
            [
              -101.18183801924381,
              19.70310229687999
            ],
            [
              -101.1802504240612,
              19.703805061324065
            ],
            [
              -101.17887321928131,
              19.70442670466024
            ],
            [
              -101.17759817135166,
              19.704967957494432
            ],
            [
              -101.17528302180625,
              19.70600077022409
            ],
            [
              -101.17520091543933,
              19.70603794548828
            ],
            [
              -101.17301901475219,
              19.70702582439211
            ],
            [
              -101.16926629370177,
              19.70868454975405
            ],
            [
              -101.16653841927369,
              19.709888404876803
            ],
            [
              -101.16588141160388,
              19.710173152435058
            ]
          ],
          [
            [
              -101.165828089898,
              19.710211733111354
            ],
            [
              -101.16248382563784,
              19.71167916857464
            ],
            [
              -101.15865482279081,
              19.713455733676422
            ],
            [
              -101.15552067611505,
              19.715528636709262
            ],
            [
              -101.1536561924623,
              19.716963474989882
            ]
          ],
          [
            [
              -101.15374142854819,
              19.716883841255616
            ],
            [
              -101.15140995869253,
              19.718700179674045
            ],
            [
              -101.14932372131098,
              19.720314846291767
            ],
            [
              -101.14860427728229,
              19.720720882108942
            ],
            [
              -101.14753705385536,
              19.721510428547294
            ]
          ],
          [
            [
              -101.14391944793432,
              19.724164004742278
            ],
            [
              -101.14650748277545,
              19.72226339027149
            ],
            [
              -101.14753705385536,
              19.721510428547276
            ]
          ],
          [
            [
              -101.143239442937,
              19.724668902065233
            ],
            [
              -101.14391944793431,
              19.724164004742278
            ]
          ],
          [
            [
              -101.14325897644123,
              19.724671782322833
            ],
            [
              -101.14279543970059,
              19.724990333987922
            ],
            [
              -101.14163447677625,
              19.725907419332653
            ],
            [
              -101.14137963532022,
              19.726109170414464
            ],
            [
              -101.139867481303,
              19.727156891327425
            ],
            [
              -101.13876166221208,
              19.72791975664886
            ],
            [
              -101.1375518884244,
              19.728756112834795
            ],
            [
              -101.13602654357118,
              19.72953299999792
            ],
            [
              -101.13419582387769,
              19.72973270399879
            ],
            [
              -101.1243871406719,
              19.73021028033465
            ],
            [
              -101.11483561395465,
              19.731238906288816
            ],
            [
              -101.10888427807699,
              19.732047112395662
            ],
            [
              -101.106716816245,
              19.732781845220064
            ],
            [
              -101.1038146215886,
              19.735537093311578
            ],
            [
              -101.10315336204664,
              19.737263715448925
            ]
          ]
        ]
      }
    },
    {
      "type": "Feature",
      "properties": {
        "Nombre": "Río Chiquito",
        "kicker": "Río que atravieza media ciudad",
        "color": "#00acc1",
        "textColor": "#007c91"
      },
      "geometry": {
        "type": "MultiLineString",
        "coordinates": [
          [
            [
              -101.14160932995443,
              19.663919838070402
            ],
            [
              -101.14167729111948,
              19.66439556622573
            ],
            [
              -101.14196612607093,
              19.664811828361636
            ],
            [
              -101.14281564063401,
              19.6654914400121
            ],
            [
              -101.1433933105369,
              19.666069109914993
            ],
            [
              -101.14345277655632,
              19.666714740982933
            ],
            [
              -101.14380107752717,
              19.66785309049746
            ],
            [
              -101.14423432995434,
              19.66829483807026
            ],
            [
              -101.14491394160481,
              19.668762071079954
            ],
            [
              -101.14510932995432,
              19.669586100206143
            ],
            [
              -101.14504136878928,
              19.670282702147865
            ],
            [
              -101.14509233966305,
              19.67074993515756
            ],
            [
              -101.14553995904463,
              19.671375787527328
            ],
            [
              -101.14589836299943,
              19.67220011662338
            ],
            [
              -101.14643596893163,
              19.6716147234972
            ],
            [
              -101.1470452556548,
              19.671602776698705
            ],
            [
              -101.1475948083855,
              19.671985074250497
            ],
            [
              -101.14782179755687,
              19.67265409496613
            ],
            [
              -101.14804878672825,
              19.67322754129382
            ],
            [
              -101.14840719068306,
              19.673311168883274
            ],
            [
              -101.14870586064539,
              19.673311168883274
            ],
            [
              -101.14896869021226,
              19.673311168883274
            ],
            [
              -101.14930320057007,
              19.673406743271222
            ],
            [
              -101.14953018974144,
              19.67364567924109
            ],
            [
              -101.14956603013692,
              19.674039923591376
            ],
            [
              -101.14945850895049,
              19.674553635926596
            ],
            [
              -101.14978107250981,
              19.674720891105505
            ],
            [
              -101.15019921045707,
              19.674553635926596
            ],
            [
              -101.15059345480736,
              19.673992136397402
            ],
            [
              -101.15092796516518,
              19.673717360032054
            ],
            [
              -101.15133415631396,
              19.67425496596426
            ],
            [
              -101.15187176224616,
              19.674828412291948
            ],
            [
              -101.15246910217084,
              19.67515097585127
            ],
            [
              -101.15264830414824,
              19.675927517753347
            ],
            [
              -101.15280361252866,
              19.676847421237344
            ],
            [
              -101.1532575908714,
              19.67726555918462
            ],
            [
              -101.15379519680361,
              19.677349186774073
            ],
            [
              -101.153998292378,
              19.676333708902124
            ],
            [
              -101.15432085593733,
              19.67614256012623
            ],
            [
              -101.15483456827255,
              19.676668219259945
            ],
            [
              -101.15534828060777,
              19.677468654759007
            ],
            [
              -101.15614871610684,
              19.677862899109293
            ],
            [
              -101.15662658804658,
              19.67865138780986
            ],
            [
              -101.15749870433662,
              19.67994164204716
            ],
            [
              -101.15780932109745,
              19.680670396755264
            ],
            [
              -101.15817967185075,
              19.68167392782872
            ],
            [
              -101.15896816055131,
              19.68236684214134
            ],
            [
              -101.16194291337617,
              19.683310639222324
            ],
            [
              -101.16438006026884,
              19.683967713139467
            ],
            [
              -101.17452289218984,
              19.68652432801708
            ],
            [
              -101.18682809463813,
              19.689941112386215
            ],
            [
              -101.19583598070223,
              19.692246844495457
            ],
            [
              -101.20068638089059,
              19.693787981501117
            ],
            [
              -101.20292043220887,
              19.69512602293239
            ],
            [
              -101.20519032392262,
              19.697718478205477
            ],
            [
              -101.20620580179457,
              19.699833061538826
            ],
            [
              -101.20693455650267,
              19.70232994242396
            ],
            [
              -101.20811728955354,
              19.706356013516267
            ],
            [
              -101.20859516149329,
              19.70767016135055
            ],
            [
              -101.20928807580592,
              19.70853033084208
            ],
            [
              -101.21055443644623,
              19.70968917029595
            ],
            [
              -101.2108229560318,
              19.710657373060723
            ]
          ]
        ]
      }
    },
    {
      "type": "Feature",
      "properties": {
        "Nombre": "Río Grande",
        "kicker": "Rio que atravieza la ciudad entera",
        "color": "#1976d2",
        "textColor": "#115293"
      },
      "geometry": {
        "type": "MultiLineString",
        "coordinates": [
          [
            [
              -101.1060073398614,
              19.73974573477135
            ],
            [
              -101.10648491619727,
              19.739750326851503
            ],
            [
              -101.10726097774305,
              19.73958041988586
            ],
            [
              -101.10803244720869,
              19.739479394122505
            ],
            [
              -101.10884983747583,
              19.73930489507671
            ],
            [
              -101.10940088709413,
              19.73934163171793
            ],
            [
              -101.10969478022389,
              19.739929417977454
            ],
            [
              -101.11004377831546,
              19.7409304914507
            ],
            [
              -101.11035603976583,
              19.741196832099547
            ],
            [
              -101.11094382602536,
              19.741251937061378
            ],
            [
              -101.11118261419328,
              19.74163767179419
            ],
            [
              -101.11109995675054,
              19.74209687980944
            ],
            [
              -101.11061319625436,
              19.742675481908663
            ],
            [
              -101.11057645961314,
              19.743327557290318
            ],
            [
              -101.1112101666742,
              19.74336429393154
            ],
            [
              -101.11172447965127,
              19.74300611167964
            ],
            [
              -101.11197245197951,
              19.743125505763608
            ],
            [
              -101.11245002831538,
              19.74345613553459
            ],
            [
              -101.11298270961306,
              19.743740844504046
            ],
            [
              -101.11334089186496,
              19.74367655538191
            ],
            [
              -101.11368070579624,
              19.743667371221605
            ],
            [
              -101.11391030980387,
              19.74373166034374
            ],
            [
              -101.1141490979718,
              19.743704107862825
            ],
            [
              -101.11433278117791,
              19.74341939889337
            ],
            [
              -101.11456238518554,
              19.74321734736666
            ],
            [
              -101.11476443671225,
              19.743327557290318
            ],
            [
              -101.114847094155,
              19.74356634545825
            ],
            [
              -101.11503077736108,
              19.74391534354984
            ],
            [
              -101.11528793384963,
              19.744053105954418
            ],
            [
              -101.11566448442214,
              19.74412657923686
            ],
            [
              -101.11565530026184,
              19.744374551565095
            ],
            [
              -101.11543488041451,
              19.74469599717577
            ],
            [
              -101.11511208488042,
              19.745048215910185
            ],
            [
              -101.11514098728475,
              19.74534807255743
            ],
            [
              -101.11582061514733,
              19.745338888397125
            ],
            [
              -101.1161512449183,
              19.745127652710107
            ],
            [
              -101.11665637373508,
              19.745219494313158
            ],
            [
              -101.1174186590404,
              19.744989890305533
            ],
            [
              -101.11801562946023,
              19.744953153664312
            ],
            [
              -101.118676889002,
              19.74493708138375
            ],
            [
              -101.11921875446,
              19.745387105238695
            ],
            [
              -101.11977898823861,
              19.745341184437173
            ],
            [
              -101.12042505817689,
              19.74466454053744
            ],
            [
              -101.12027493289507,
              19.744275821841786
            ],
            [
              -101.11988001400196,
              19.743963560391414
            ],
            [
              -101.11946672678823,
              19.743384958292197
            ],
            [
              -101.11962285751342,
              19.742714514589927
            ],
            [
              -101.1197698040783,
              19.74162159951363
            ],
            [
              -101.12008206552866,
              19.741125654857157
            ],
            [
              -101.12020586808961,
              19.740179459268468
            ],
            [
              -101.11979672887601,
              19.738379246728677
            ],
            [
              -101.12008312632553,
              19.737581425262178
            ],
            [
              -101.12116734524155,
              19.73674268987432
            ],
            [
              -101.12298801474202,
              19.736579034188885
            ],
            [
              -101.12423588934347,
              19.73674268987432
            ],
            [
              -101.12568833355171,
              19.738072392318486
            ],
            [
              -101.12773402961965,
              19.74017945926847
            ],
            [
              -101.12924784470992,
              19.740588598482063
            ],
            [
              -101.1310685142104,
              19.74032265799323
            ],
            [
              -101.13233684577251,
              19.739933975740318
            ],
            [
              -101.13311421027834,
              19.739095240352462
            ],
            [
              -101.13383020390212,
              19.735924411447144
            ],
            [
              -101.13413705831232,
              19.73459470900298
            ],
            [
              -101.13452574056522,
              19.733919629300555
            ],
            [
              -101.13536447595308,
              19.733326377440854
            ],
            [
              -101.1374306289817,
              19.73306043695202
            ],
            [
              -101.14101059710062,
              19.732876324305906
            ],
            [
              -101.14326086277535,
              19.732651297738432
            ],
            [
              -101.14446782345544,
              19.731812562350573
            ],
            [
              -101.14602255246709,
              19.729869151086024
            ],
            [
              -101.14682037393358,
              19.728641733445254
            ],
            [
              -101.14745453971464,
              19.72808939550691
            ],
            [
              -101.14794221581403,
              19.72789127985758
            ],
            [
              -101.14851163375295,
              19.727813214494986
            ],
            [
              -101.14902594673002,
              19.72776729369346
            ],
            [
              -101.14967802211167,
              19.72794179273926
            ],
            [
              -101.15238734940166,
              19.72908981277739
            ],
            [
              -101.15631597128588,
              19.730811110032448
            ],
            [
              -101.15726413852364,
              19.73077969827352
            ],
            [
              -101.15837542192055,
              19.730393963540706
            ],
            [
              -101.16061635703498,
              19.729392890067462
            ],
            [
              -101.1648135182944,
              19.727427479762177
            ],
            [
              -101.16829431505,
              19.725875356670624
            ],
            [
              -101.17179348012623,
              19.72423139197602
            ],
            [
              -101.17496201543146,
              19.72179758949519
            ],
            [
              -101.1782866814619,
              19.71918928796855
            ],
            [
              -101.18038067001144,
              19.717582059915166
            ],
            [
              -101.18273181504954,
              19.71589217441904
            ],
            [
              -101.18580850875173,
              19.71374308090766
            ],
            [
              -101.18878417669055,
              19.712558324228308
            ],
            [
              -101.19170473966754,
              19.712108300373362
            ],
            [
              -101.20075113756802,
              19.714128815640475
            ],
            [
              -101.20312065092672,
              19.71462476029695
            ],
            [
              -101.20561874252968,
              19.71457883949542
            ],
            [
              -101.20702391905635,
              19.714165552281695
            ],
            [
              -101.20821286394158,
              19.713512145813873
            ],
            [
              -101.20944853737689,
              19.712585876709227
            ],
            [
              -101.21036924944745,
              19.711341422987896
            ],
            [
              -101.21096621986729,
              19.710441375278002
            ],
            [
              -101.21189247787758,
              19.708590064834556
            ],
            [
              -101.21342166808475,
              19.702807814363712
            ],
            [
              -101.21452077354614,
              19.70108747538065
            ],
            [
              -101.22001630085315,
              19.698411392518107
            ],
            [
              -101.22383927637107,
              19.693345949956868
            ],
            [
              -101.2245082970867,
              19.692581354853285
            ],
            [
              -101.23234539689841,
              19.69215127010752
            ],
            [
              -101.23549935170068,
              19.690144207960614
            ],
            [
              -101.24085151742577,
              19.685269914175272
            ],
            [
              -101.24940542514713,
              19.676907155229834
            ],
            [
              -101.25146027448801,
              19.671411627922833
            ],
            [
              -101.25447086770836,
              19.667588652404916
            ],
            [
              -101.25614341949745,
              19.65191445278146
            ],
            [
              -101.2560478451095,
              19.649811816246608
            ],
            [
              -101.25547439878181,
              19.64861713639726
            ],
            [
              -101.2593451614937,
              19.646227776698563
            ],
            [
              -101.26034869256716,
              19.64617998950459
            ],
            [
              -101.2604204337067,
              19.645537887805038
            ],
            [
              -101.26005220841448,
              19.64499066410686
            ],
            [
              -101.26038974826568,
              19.644550839452254
            ],
            [
              -101.2609983428459,
              19.6445252682514
            ],
            [
              -101.26111085612963,
              19.644325812884777
            ],
            [
              -101.2604357764272,
              19.64347173477641
            ],
            [
              -101.26049714730924,
              19.643103509484177
            ],
            [
              -101.259857867288,
              19.642223860174962
            ],
            [
              -101.25954078439747,
              19.64196814816647
            ],
            [
              -101.25960726951968,
              19.64110895581793
            ],
            [
              -101.25896287525828,
              19.640883929250457
            ],
            [
              -101.25839519459942,
              19.641226583341837
            ],
            [
              -101.25806788322855,
              19.64188632032375
            ],
            [
              -101.25717289119882,
              19.642469343703116
            ],
            [
              -101.2568864937493,
              19.642039747528838
            ],
            [
              -101.25707060639543,
              19.6412828399837
            ],
            [
              -101.2573467753646,
              19.639901995137834
            ],
            [
              -101.25752065953037,
              19.638674577497067
            ],
            [
              -101.25773545761751,
              19.637508530738337
            ],
            [
              -101.25896287525829,
              19.635360549866995
            ],
            [
              -101.25988343848887,
              19.634757069526948
            ],
            [
              -101.26129496877574,
              19.63470592712525
            ],
            [
              -101.26258375729854,
              19.63428655943132
            ],
            [
              -101.26385208886067,
              19.633386453161425
            ],
            [
              -101.26456808248446,
              19.632875029144436
            ],
            [
              -101.26453739704344,
              19.63237383360779
            ],
            [
              -101.26377281813805,
              19.63215647840058
            ],
            [
              -101.26298011091173,
              19.632013279675824
            ],
            [
              -101.26140492493941,
              19.631512084139178
            ],
            [
              -101.26071961675665,
              19.631281943331533
            ],
            [
              -101.26001385161321,
              19.63096997468117
            ],
            [
              -101.25949731335605,
              19.630801204755567
            ],
            [
              -101.25901657478008,
              19.63072960539319
            ],
            [
              -101.25859209284599,
              19.63067334875132
            ],
            [
              -101.25823409603409,
              19.630545492747075
            ]
          ]
        ]
      }
    },
    {
      "type": "Feature",
      "properties": {
        "Nombre": "Calzada la Huerta",
        "kicker": "Avenida para salir de la ciudad al sur",
        "color": "#2e7d32",
        "textColor": "#1b5e20"
      },
      "geometry": {
        "type": "MultiLineString",
        "coordinates": [
          [
            [
              -101.20733320631183,
              19.702223752233582
            ],
            [
              -101.20836418432131,
              19.700151634185733
            ],
            [
              -101.20992304354456,
              19.696766318651864
            ],
            [
              -101.21135872315617,
              19.693746294380116
            ],
            [
              -101.21215726684547,
              19.692217168166575
            ],
            [
              -101.21425556781625,
              19.687799692438556
            ],
            [
              -101.21955551034661,
              19.67678368415788
            ]
          ]
        ]
      }
    },
    {
      "type": "Feature",
      "properties": {
        "Nombre": "Av Morelos",
        "kicker": "Avenida principal de Morelia N-S",
        "color": "#e91e63",
        "textColor": "#ad1457"
      },
      "geometry": {
        "type": "MultiLineString",
        "coordinates": [
          [
            [
              -101.19189922123753,
              19.682312876596043
            ],
            [
              -101.19192607752576,
              19.686754789525963
            ],
            [
              -101.19182473729622,
              19.691220093862356
            ],
            [
              -101.19168821344807,
              19.69592954680722
            ],
            [
              -101.19143861684753,
              19.70296752126933
            ],
            [
              -101.19136539791411,
              19.705410129331185
            ],
            [
              -101.19116151441897,
              19.70608974098165
            ],
            [
              -101.19054986393355,
              19.7077038186515
            ],
            [
              -101.18886782509865,
              19.71044775069024
            ],
            [
              -101.1883836017977,
              19.711254789525167
            ],
            [
              -101.1882986503414,
              19.71162857593292
            ],
            [
              -101.18828166005011,
              19.71208731379698
            ],
            [
              -101.18896127170058,
              19.7147123137969
            ],
            [
              -101.18909719403067,
              19.71525600311727
            ],
            [
              -101.18875738820545,
              19.71653027496189
            ],
            [
              -101.1884770483996,
              19.719834886612265
            ],
            [
              -101.18841758238018,
              19.72075236234039
            ],
            [
              -101.18814075613206,
              19.721264638247103
            ]
          ]
        ]
      }
    },
    {
      "type": "Feature",
      "properties": {
        "Nombre": "Calzada Ventura Puente",
        "kicker": "Conecta el Centro con la Av. Camelinas",
        "color": "#ea580c",
        "textColor": "#c2410c"
      },
      "geometry": {
        "type": "MultiLineString",
        "coordinates": [
          [
            [
              -101.18132232496632,
              19.681379887507795
            ],
            [
              -101.18118821344848,
              19.68205697399214
            ],
            [
              -101.18023843348394,
              19.688111361813302
            ],
            [
              -101.17810008645468,
              19.699010988180273
            ]
          ]
        ]
      }
    }
  ]
}