{
    "type": "FeatureCollection",
    "name": "lineas_morelia_acueducto",
    "crs": {
        "type": "name",
        "properties": {
            "name": "urn:ogc:def:crs:EPSG::32614"
        }
    },
    "features": [
        {
            "type": "Feature",
            "properties": {
                "Nombre": "Acueducto de Morelia"
            },
            "geometry": {
                "type": "MultiLineString",
                "coordinates": [
                    [
                        [
                            271138.353914145496674,
                            2180162.292112272232771
                        ],
                        [
                            271248.375791980070062,
                            2180142.04913506610319
                        ],
                        [
                            271279.207244548480958,
                            2180072.844598813913763
                        ],
                        [
                            271264.655955628782976,
                            2180040.406091463752091
                        ],
                        [
                            271606.73500416520983,
                            2179713.628286477178335
                        ],
                        [
                            271709.117777596227825,
                            2179616.372112609446049
                        ],
                        [
                            271761.291410583071411,
                            2179584.450996838510036
                        ],
                        [
                            271972.37708814907819,
                            2179526.349833471700549
                        ],
                        [
                            272205.283444805070758,
                            2179477.018299404531717
                        ],
                        [
                            272665.570927132153884,
                            2179380.200282463803887
                        ]
                    ]
                ]
            }
        }
    ]
}