{
"type": "FeatureCollection",
"name": "lineas_morelia_madero",
"crs": { "type": "name", "properties": { "name": "urn:ogc:def:crs:OGC:1.3:CRS84" } },
"features": [
{ "type": "Feature", "properties": { "Nombre": "Avenida Madero" }, "geometry": { "type": "MultiLineString", "coordinates": [ [ [ -101.279393860000468, 19.691466433 ], [ -101.272796970281362, 19.693496134993261 ], [ -101.272245883673406, 19.693652843141006 ], [ -101.271914808475927, 19.69371692700771 ], [ -101.27167877876829, 19.693794779693341 ], [ -101.271474571609531, 19.693887202010266 ], [ -101.271301341960651, 19.69393431352529 ], [ -101.27112790094597, 19.693966454745624 ], [ -101.27097089932613, 19.694043306156715 ], [ -101.270813686325397, 19.694105187304359 ], [ -101.270561849570228, 19.694183238678121 ], [ -101.266769091327603, 19.695399079910402 ], [ -101.265053403748141, 19.695929826629765 ], [ -101.264850347393676, 19.695996383686051 ], [ -101.264579221829322, 19.696093000372588 ], [ -101.264266171008302, 19.696168639521883 ], [ -101.2639641184673, 19.696219048644537 ], [ -101.263650714123074, 19.696269600512057 ], [ -101.263405267698019, 19.696308541288733 ], [ -101.263083331779384, 19.696358956994278 ], [ -101.262420948642713, 19.696472121862723 ], [ -101.26081208859388, 19.696731970776032 ], [ -101.258462010781642, 19.697120922053411 ], [ -101.257484544589616, 19.697312900288807 ], [ -101.255512118502864, 19.697577277841685 ], [ -101.253840842959875, 19.697897742528308 ], [ -101.252326365843345, 19.698126385751078 ], [ -101.251680398496902, 19.698284224897481 ], [ -101.251254672488002, 19.698364433085807 ], [ -101.250955606880268, 19.698458023922345 ], [ -101.250640106238663, 19.698506901586718 ], [ -101.250372443453628, 19.698585124523987 ], [ -101.250167796889471, 19.69864758363731 ], [ -101.249915102729531, 19.698665726260607 ], [ -101.246527157942424, 19.699456838384776 ], [ -101.243417079469324, 19.700279591428494 ] ], [ [ -101.2434178384528, 19.700278447366134 ], [ -101.243410038394444, 19.700280556652508 ], [ -101.240029453586786, 19.701060029308433 ], [ -101.234797683322526, 19.702334237719491 ], [ -101.230324684041989, 19.703388236914719 ], [ -101.224983987121036, 19.704684093308433 ], [ -101.220197965584219, 19.705544548833199 ], [ -101.220005169590934, 19.70556292812039 ], [ -101.219892072476753, 19.705558869430362 ], [ -101.219704276477771, 19.705527226893935 ], [ -101.219557050945937, 19.705478747323752 ], [ -101.219537572637932, 19.705470627914448 ], [ -101.219518246922462, 19.705462187792119 ], [ -101.219499079686415, 19.705453429527751 ], [ -101.219480076768448, 19.705444355789236 ], [ -101.219461243957099, 19.705434969340565 ], [ -101.219442586989132, 19.705425273041001 ], [ -101.219424111547724, 19.70541526984416 ], [ -101.219405823260772, 19.705404962797171 ], [ -101.219400159410085, 19.705401686994598 ], [ -101.216414620418007, 19.703873764530012 ], [ -101.212730818524804, 19.701940643592632 ], [ -101.212647893152365, 19.701905691505857 ], [ -101.212627171684119, 19.701896957637583 ], [ -101.212517089663848, 19.701870980982495 ], [ -101.212417599192719, 19.701863410923025 ], [ -101.212368041456656, 19.701863660324072 ], [ -101.212318495862334, 19.701864728807603 ], [ -101.212268977501054, 19.701866616048214 ], [ -101.21221950145582, 19.701869321471147 ], [ -101.212179013140016, 19.701872146819639 ], [ -101.206298977280284, 19.702298794541218 ] ], [ [ -101.206298976031746, 19.702298703502031 ], [ -101.205199507500808, 19.702360285773644 ], [ -101.20415001005891, 19.702478692826087 ], [ -101.202692376093538, 19.702723619866664 ], [ -101.201630958738747, 19.702844446300585 ], [ -101.200162444119087, 19.703042124430652 ], [ -101.198430935098386, 19.703054341889025 ], [ -101.196826606515089, 19.703038069382366 ], [ -101.195088922912717, 19.702987481805945 ], [ -101.193078484159386, 19.702922375397517 ], [ -101.191532705820464, 19.702971754488846 ], [ -101.189757470408125, 19.702891883692502 ], [ -101.188534948703335, 19.702852113925445 ], [ -101.186797505334013, 19.702819409028145 ], [ -101.184964184061528, 19.702886683181799 ], [ -101.183218465778864, 19.702943872789671 ], [ -101.182817972972487, 19.702973802829671 ] ], [ [ -101.182817972972487, 19.70297380282971 ], [ -101.182213351862458, 19.703018986292552 ], [ -101.181838019243813, 19.70310229687999 ], [ -101.1802504240612, 19.703805061324065 ], [ -101.178873219281314, 19.704426704660239 ], [ -101.177598171351661, 19.704967957494432 ], [ -101.175283021806251, 19.70600077022409 ], [ -101.175200915439333, 19.70603794548828 ], [ -101.173019014752185, 19.707025824392112 ], [ -101.169266293701767, 19.70868454975405 ], [ -101.166538419273692, 19.709888404876803 ], [ -101.165881411603877, 19.710173152435058 ] ], [ [ -101.165828089898, 19.710211733111354 ], [ -101.162483825637835, 19.711679168574641 ], [ -101.158654822790808, 19.713455733676422 ], [ -101.155520676115046, 19.715528636709262 ], [ -101.153656192462293, 19.716963474989882 ] ], [ [ -101.153741428548187, 19.716883841255616 ], [ -101.151409958692525, 19.718700179674045 ], [ -101.149323721310978, 19.720314846291767 ], [ -101.148604277282288, 19.720720882108942 ], [ -101.147537053855359, 19.721510428547294 ] ], [ [ -101.143919447934323, 19.724164004742278 ], [ -101.146507482775448, 19.72226339027149 ], [ -101.147537053855359, 19.721510428547276 ] ], [ [ -101.143239442937002, 19.724668902065233 ], [ -101.143919447934309, 19.724164004742278 ] ], [ [ -101.143258976441231, 19.724671782322833 ], [ -101.142795439700592, 19.724990333987922 ], [ -101.141634476776247, 19.725907419332653 ], [ -101.14137963532022, 19.726109170414464 ], [ -101.139867481303, 19.727156891327425 ], [ -101.138761662212076, 19.727919756648859 ], [ -101.137551888424397, 19.728756112834795 ], [ -101.136026543571177, 19.729532999997922 ] ] ] } }
]
}
