{
  "type": "FeatureCollection",
  "name": "morelia_valle",
  "crs": {
    "type": "name",
    "properties": {
      "name": "urn:ogc:def:crs:OGC:1.3:CRS84"
    }
  },
  "features": [
    {
      "type": "Feature",
      "properties": {
        "kind": "silhouette",
        "name": "Valle de Guayangareo - Morelia"
      },
      "geometry": {
        "type": "Polygon",
        "coordinates": [
          [
            [
              -101.285,
              19.755
            ],
            [
              -101.24,
              19.77
            ],
            [
              -101.18,
              19.76
            ],
            [
              -101.115,
              19.735
            ],
            [
              -101.085,
              19.69
            ],
            [
              -101.125,
              19.635
            ],
            [
              -101.17,
              19.625
            ],
            [
              -101.225,
              19.63
            ],
            [
              -101.275,
              19.655
            ],
            [
              -101.305,
              19.7
            ],
            [
              -101.285,
              19.755
            ]
          ]
        ]
      }
    },
    {
      "type": "Feature",
      "properties": {
        "kind": "urban_core",
        "name": "Mancha Urbana Central"
      },
      "geometry": {
        "type": "Polygon",
        "coordinates": [
          [
            [
              -101.245,
              19.735
            ],
            [
              -101.205,
              19.74
            ],
            [
              -101.15,
              19.725
            ],
            [
              -101.135,
              19.685
            ],
            [
              -101.155,
              19.66
            ],
            [
              -101.215,
              19.665
            ],
            [
              -101.255,
              19.695
            ],
            [
              -101.245,
              19.735
            ]
          ]
        ]
      }
    }
  ]
}