{"type":"FeatureCollection","name":"pol_morelia","crs":{"type":"name","properties":{"name":"urn:ogc:def:crs:OGC:1.3:CRS84"}},"features":[{"type":"Feature","properties":{"fid":1,"name":null},"geometry":{"type":"Polygon","coordinates":[[[-101.27469875951408,19.645365362788194],[-101.2744588206303,19.645382919291883],[-101.2739204211838,19.645470701810332],[-101.27314208285354,19.645628710343544],[-101.27239300536277,19.64608517943949],[-101.27203602312107,19.646377787834325],[-101.27176682339783,19.6467757352513],[-101.2716380757041,19.647513108406287],[-101.27141569332402,19.647495551902598],[-101.27124012828712,19.647302430362007],[-101.2714508063314,19.64697470895979],[-101.27140398898823,19.646623578885986],[-101.27148591933879,19.64638949217012],[-101.27177267556573,19.646249040140596],[-101.27194824060263,19.646102735943177],[-101.27247493571333,19.64531854544502],[-101.27304259599931,19.645061050057564],[-101.27402576020596,19.644698215647967],[-101.27460512482773,19.64473332865535],[-101.27473972468935,19.644862076349074],[-101.2748509158794,19.645189797751293],[-101.27469875951408,19.645365362788194]]]}},{"type":"Feature","properties":{"fid":2,"name":null},"geometry":{"type":"Polygon","coordinates":[[[-101.2838691066082,19.59870017597977],[-101.28539067026136,19.599472662142123],[-101.28525021823184,19.60010469627497],[-101.28475863612852,19.60092399978051],[-101.28529703557501,19.602000798673505],[-101.28522680956026,19.60300737155174],[-101.28471181878534,19.60541846472519],[-101.2826518556857,19.605465282068362],[-101.28080257063033,19.60488006527869],[-101.28026417118383,19.605465282068362],[-101.28143460476318,19.606916619706748],[-101.2819495955381,19.607665697197532],[-101.28108347468938,19.60946816490972],[-101.28000667579639,19.61031087708685],[-101.27911714627608,19.611972892769515],[-101.28026417118384,19.612651744245536],[-101.28127074406208,19.6143137599282],[-101.28082597930192,19.615648054208652],[-101.27993644978163,19.61731006989132],[-101.277478539265,19.616888713802755],[-101.27548880218012,19.6175207479356],[-101.27586334092551,19.619744571736355],[-101.2753483501506,19.620025475795398],[-101.27204772745685,19.61738029590608],[-101.27031548575941,19.616514175057368],[-101.26750644516899,19.615507602179132],[-101.26497830863761,19.616092818968806],[-101.26443990919111,19.61787187800941],[-101.2635503796708,19.617965512695758],[-101.26179472930178,19.62040001454079],[-101.26237994609146,19.621710900149658],[-101.26207563336084,19.62325587247439],[-101.26041361767817,19.626977851256704],[-101.26078815642356,19.628616458267786],[-101.25811956786266,19.63053596933791],[-101.25753435107299,19.630325291293627],[-101.25610642210619,19.628990997013176],[-101.25524030125747,19.62838237155192],[-101.25343783354529,19.628265328193983],[-101.25186945254896,19.628920770998416],[-101.25116719240135,19.62931871841539],[-101.25097992302867,19.628195102179223],[-101.25069901896963,19.626977851256704],[-101.24997335015043,19.626369225795447],[-101.24866246454157,19.62597127837847],[-101.24721112690318,19.626931033913532],[-101.24718771823159,19.62590105236371],[-101.246087510667,19.624285854024215],[-101.24456594701385,19.62398154129359],[-101.24437867764115,19.623326098489155],[-101.24508093778876,19.622272708267744],[-101.24597046730906,19.621219318046336],[-101.24606410199542,19.619885023765885],[-101.24646204941239,19.6193232156478],[-101.24845178649727,19.620165927824928],[-101.24992653280725,19.620400014540795],[-101.25065220162644,19.619674345721602],[-101.25023084553787,19.618176190740044],[-101.25023084553787,19.616514175057375],[-101.25032448022422,19.615179880776925],[-101.25130764443087,19.61459466398725],[-101.25416350236448,19.614196716570277],[-101.25753435107298,19.613494456422668],[-101.25943045347151,19.612768787603475],[-101.26130314719846,19.610498146459552],[-101.26174791195862,19.60885953944847],[-101.26308220623906,19.607642288525955],[-101.26490808262284,19.607127297751042],[-101.26563375144204,19.608250913987213],[-101.26451013520587,19.608999991477994],[-101.2628481195232,19.61066200716066],[-101.26352697099922,19.611668580038895],[-101.26497830863761,19.612019710112698],[-101.26841938336088,19.61096631989129],[-101.27136887598083,19.60974906896877],[-101.27270317026127,19.60771251454072],[-101.27242226620223,19.607057071736286],[-101.26863006140515,19.606846393692003],[-101.266429646276,19.606822985020415],[-101.26633601158964,19.606822985020415],[-101.26621896823171,19.606307994245505],[-101.26619555956012,19.605488690739964],[-101.26596147284425,19.603686223027776],[-101.26654668963393,19.60312441490969],[-101.26863006140515,19.603264866939213],[-101.2712050152797,19.602937145536995],[-101.27504403741995,19.60162625992813],[-101.27684650513214,19.600666504393065],[-101.28017053649747,19.59994083557387],[-101.2838691066082,19.59870017597977]]]}},{"type":"Feature","properties":{"fid":3,"name":null},"geometry":{"type":"Polygon","coordinates":[[[-101.23410812298246,19.679079702041165],[-101.23541900859134,19.681619542908344],[-101.23534293040868,19.682193055362223],[-101.2353078174013,19.68274901131241],[-101.23525514789023,19.68274901131241],[-101.23486890480903,19.682936280685105],[-101.2340378969677,19.682825089495065],[-101.23238173345294,19.68362098432902],[-101.23410812298246,19.679079702041165]]]}},{"type":"Feature","properties":{"fid":4,"name":null},"geometry":{"type":"Polygon","coordinates":[[[-101.22117190584677,19.69691125762247],[-101.2220994744584,19.69850304729038],[-101.22081784968904,19.699650072198136],[-101.21899197330528,19.701007775150174],[-101.21773375720748,19.699673480869723],[-101.21996928534402,19.698479638618792],[-101.22108704941228,19.697063413987784],[-101.22117190584677,19.69691125762247]]]}},{"type":"Feature","properties":{"fid":5,"name":null},"geometry":{"type":"Polygon","coordinates":[[[-101.22767073829608,19.719319208499],[-101.22628377450457,19.721326502087578],[-101.22445789812078,19.720050729486093],[-101.22468028050085,19.719676190740703],[-101.22432329825916,19.71802002722593],[-101.22476221085141,19.717317767078324],[-101.22716745185697,19.7187866612204],[-101.2277994859898,19.7191436434621],[-101.22767073829608,19.719319208499]]]}},{"type":"Feature","properties":{"fid":6,"name":null},"geometry":{"type":"Polygon","coordinates":[[[-101.23214179456916,19.716469202733304],[-101.23260996800089,19.716475054901206],[-101.2343773227057,19.71686129798239],[-101.23487475697692,19.71732361924623],[-101.23504446984593,19.717926392539592],[-101.23475186145107,19.719079269615243],[-101.23396181878503,19.72092270250271],[-101.23321859346215,19.721496214956584],[-101.23225883792709,19.721472806285],[-101.23069045693076,19.720659354947355],[-101.22856611998427,19.719360173674282],[-101.22981848391416,19.71738799309309],[-101.23214179456916,19.716469202733304]]]}},{"type":"Feature","properties":{"fid":7,"name":null},"geometry":{"type":"Polygon","coordinates":[[[-101.18415986998392,19.71977567759496],[-101.18793451827733,19.72142013677394],[-101.1874312318382,19.722046318738887],[-101.18533030356326,19.723883899458453],[-101.18317670577727,19.723562030224137],[-101.18321181878464,19.721472806285007],[-101.18415986998392,19.71977567759496]]]}},{"type":"Feature","properties":{"fid":8,"name":null},"geometry":{"type":"Polygon","coordinates":[[[-101.19114150628468,19.727003104947407],[-101.19215978349871,19.72810331251199],[-101.19190228811125,19.728267173213098],[-101.19170331440276,19.7302217972906],[-101.19136388866475,19.730373953655917],[-101.19132877565737,19.73065485771496],[-101.19004715088799,19.73211204752124],[-101.18982476850792,19.732246647382865],[-101.18694550190274,19.731146439818286],[-101.18678749336952,19.7307601967371],[-101.18741367533448,19.729753623858866],[-101.18790525743778,19.72942005028876],[-101.1892980733972,19.729829702041528],[-101.18996522053742,19.72799212132196],[-101.1894560819304,19.727781443277678],[-101.19114150628468,19.727003104947407]]]}},{"type":"Feature","properties":{"fid":9,"name":null},"geometry":{"type":"Polygon","coordinates":[[[-101.1581411315151,19.716902263157674],[-101.1616992495963,19.722496935666936],[-101.1616992495963,19.722496935666936],[-101.15800067948555,19.72530597625736],[-101.15903066103537,19.72748298271494],[-101.1573686453527,19.728700233637458],[-101.15575344701321,19.728840685666977],[-101.15420847468847,19.72785752146033],[-101.15242941564787,19.726897765925266],[-101.15052160891355,19.72599653206917],[-101.15262838935637,19.724451559744438],[-101.15127068640435,19.722684205039627],[-101.15201976389513,19.72205217090678],[-101.15145795577705,19.72153718013187],[-101.1529209977512,19.72042526823149],[-101.15210169424566,19.719512330039606],[-101.15299122376597,19.71884518289938],[-101.15324871915342,19.718997339264693],[-101.15470005679185,19.717870796944577],[-101.15497218259904,19.718101957576497],[-101.15536720393207,19.71780934918166],[-101.15598168156122,19.71852331366506],[-101.1581411315151,19.716902263157674]]]}},{"type":"Feature","properties":{"fid":10,"name":null},"geometry":{"type":"Polygon","coordinates":[[[-101.12175527761727,19.735532639656867],[-101.12211811202684,19.735216622590446],[-101.12284378084603,19.734725040487124],[-101.12462283988663,19.73437391041332],[-101.12799368859514,19.73540389196314],[-101.1300536516948,19.735146396575686],[-101.13136453730367,19.733812102295236],[-101.13342450040331,19.732711894730652],[-101.13525037678708,19.73058170561625],[-101.13687727946238,19.729422976372696],[-101.13975654606757,19.72759709998892],[-101.14656846949936,19.722728096298855],[-101.14970523149199,19.726098945007358],[-101.15197587263592,19.727035291870834],[-101.15432207559473,19.72792981294613],[-101.15640011156584,19.729095254970478],[-101.15836643997913,19.728392994822872],[-101.15817917060645,19.730031601833954],[-101.15668101562488,19.730523183937276],[-101.15258449809717,19.72893139426937],[-101.14783253776504,19.727597099988916],[-101.14500008850302,19.73085090533949],[-101.14312739477607,19.732466103678984],[-101.13566002853986,19.73316836382659],[-101.13388096949927,19.735532639656867],[-101.1329446226358,19.73953552249822],[-101.12964399994205,19.74058891271963],[-101.1272329067686,19.739605748512982],[-101.12451750086453,19.73684352526573],[-101.12191913831838,19.736609438549863],[-101.12175527761727,19.735532639656867]]]}},{"type":"Feature","properties":{"fid":11,"name":null},"geometry":{"type":"Polygon","coordinates":[[[-101.16948555898294,19.697060487903844],[-101.16897056820804,19.702245508660337],[-101.16660629237776,19.70205823928764],[-101.1677767259571,19.696627427479488],[-101.16948555898294,19.697060487903844]]]}},{"type":"Feature","properties":{"fid":12,"name":null},"geometry":{"type":"Polygon","coordinates":[[[-101.1591857434847,19.690260268807858],[-101.157582249481,19.69047094685214],[-101.15721941507141,19.689558008660253],[-101.15737157143673,19.689499486981283],[-101.15700873702713,19.68853973144622],[-101.15668394170886,19.68852217494253],[-101.15573589050959,19.688864526764487],[-101.1552530866581,19.68757997591116],[-101.15832254871994,19.687942810320752],[-101.15891069159356,19.688062779762635],[-101.1591857434847,19.690260268807858]]]}},{"type":"Feature","properties":{"fid":13,"name":null},"geometry":{"type":"Polygon","coordinates":[[[-101.1840530679198,19.681553706019503],[-101.18362000749545,19.6865514574033],[-101.18057688018918,19.68607157963577],[-101.18152493138844,19.681565410355297],[-101.18301138203421,19.681530297347916],[-101.1840530679198,19.681553706019503]]]}},{"type":"Feature","properties":{"fid":14,"name":null},"geometry":{"type":"Polygon","coordinates":[[[-101.19521900426676,19.691876930189316],[-101.19420072705273,19.69163113913765],[-101.1942709530675,19.6911863743775],[-101.19236314633316,19.686270553344258],[-101.19205883360254,19.68514693710809],[-101.19207053793833,19.682443235539807],[-101.19499662188669,19.68215062714497],[-101.1955116126616,19.68302845232948],[-101.19538286496787,19.687464395595192],[-101.19521900426676,19.691876930189316]]]}},{"type":"Feature","properties":{"fid":15,"name":null},"geometry":{"type":"Polygon","coordinates":[[[-101.21393423720042,19.68795597769852],[-101.21196790878713,19.692029086554633],[-101.20400896044758,19.690963991997428],[-101.20175002363945,19.690507522901484],[-101.20052106838115,19.689969123454983],[-101.20005289494941,19.6894073153369],[-101.1998597734088,19.68906496351494],[-101.19990073858409,19.688646533510326],[-101.19976321263852,19.688617272670843],[-101.19967835620402,19.688310033856265],[-101.19973687788298,19.68784186042453],[-101.19987440382856,19.687809673501096],[-101.19990366466804,19.6876224041284],[-101.19999437327044,19.68748195209888],[-101.20015238180366,19.68717763936825],[-101.20159786727417,19.686551457403304],[-101.2016300541976,19.686226662085033],[-101.20349104358876,19.68634077935902],[-101.20398555177603,19.686469527052747],[-101.20515891143931,19.68655438348725],[-101.20706964425757,19.68665679642544],[-101.21393423720042,19.68795597769852]]]}},{"type":"Feature","properties":{"fid":16,"name":null},"geometry":{"type":"Polygon","coordinates":[[[-101.2117777133305,19.69233047320131],[-101.21045512338586,19.695350191836017],[-101.20676825761092,19.69492883574745],[-101.20718961369948,19.691780369419018],[-101.2117777133305,19.69233047320131]]]}},{"type":"Feature","properties":{"fid":17,"name":null},"geometry":{"type":"Polygon","coordinates":[[[-101.19298932829814,19.702761962477204],[-101.19196812500016,19.70277074072905],[-101.19199445975569,19.7018782851248],[-101.19301566305367,19.701869506872956],[-101.19298932829814,19.702761962477204]]]}},{"type":"Feature","properties":{"fid":18,"name":null},"geometry":{"type":"Polygon","coordinates":[[[-101.18279265725907,19.70289217321291],[-101.18239836744702,19.70291119275857],[-101.18237056964952,19.702897293859817],[-101.18235886531373,19.702876079751192],[-101.18235155010386,19.702835846096903],[-101.18236471748162,19.702792686358663],[-101.1824166554717,19.702769277687075],[-101.18247151954574,19.702767814645103],[-101.18265293675053,19.702835846096903],[-101.18279265725907,19.70289217321291]]]}},{"type":"Feature","properties":{"fid":19,"name":null},"geometry":{"type":"Polygon","coordinates":[[[-101.18229083386193,19.69689662720272],[-101.18140715650952,19.701771483060686],[-101.18057029650029,19.701034109905695],[-101.1782879510206,19.69894488596657],[-101.17880294179551,19.696270445237765],[-101.17996167103905,19.6963933407636],[-101.18177584308701,19.696767879508986],[-101.18229083386193,19.69689662720272]]]}},{"type":"Feature","properties":{"fid":20,"name":null},"geometry":{"type":"Polygon","coordinates":[[[-101.17202613137106,19.717981988134586],[-101.16791790950757,19.717443588688088],[-101.1662558938249,19.717502110367054],[-101.16530784262565,19.71283208038547],[-101.1684446046183,19.713007645422373],[-101.1684446046183,19.712750150034918],[-101.17101955849286,19.71459943509028],[-101.17158136661094,19.71504419985043],[-101.17202613137106,19.717981988134586]]]}},{"type":"Feature","properties":{"fid":21,"name":null},"geometry":{"type":"Polygon","coordinates":[[[-101.18297553750584,19.727690734675242],[-101.18042984447078,19.727374717608818],[-101.18065807901874,19.72582389311619],[-101.1816178345538,19.726110649343127],[-101.1816295388896,19.72671342263649],[-101.18318036338223,19.726654900957524],[-101.18297553750584,19.727690734675242]]]}}]}